{"type":"FeatureCollection","features":[{"type":"Feature","properties":{"name":"Bangladesh","level":0},"geometry":{"type":"Point","coordinates":[89.88499,23.68719]}},{"type":"Feature","properties":{"name":"Barisal","level":1},"geometry":{"type":"Point","coordinates":[90.27107,22.46502]}},{"type":"Feature","properties":{"name":"Chittagong","level":1},"geometry":{"type":"Point","coordinates":[92.12143,22.50383]}},{"type":"Feature","properties":{"name":"Dhaka","level":1},"geometry":{"type":"Point","coordinates":[90.23711,23.82038]}},{"type":"Feature","properties":{"name":"Khulna","level":1},"geometry":{"type":"Point","coordinates":[89.28533,23.09428]}},{"type":"Feature","properties":{"name":"Mymensingh","level":1},"geometry":{"type":"Point","coordinates":[90.40377,24.83923]}},{"type":"Feature","properties":{"name":"Rajshahi","level":1},"geometry":{"type":"Point","coordinates":[88.93956,24.54278]}},{"type":"Feature","properties":{"name":"Rangpur","level":1},"geometry":{"type":"Point","coordinates":[88.9692,25.83625]}},{"type":"Feature","properties":{"name":"Sylhet","level":1},"geometry":{"type":"Point","coordinates":[91.71671,24.59139]}},{"type":"Feature","properties":{"name":"Bagerhat","level":2},"geometry":{"type":"Point","coordinates":[89.75429,22.52342]}},{"type":"Feature","properties":{"name":"Bandarban","level":2},"geometry":{"type":"Point","coordinates":[92.3862,21.77005]}},{"type":"Feature","properties":{"name":"Barguna","level":2},"geometry":{"type":"Point","coordinates":[90.20373,22.17293]}},{"type":"Feature","properties":{"name":"Barisal","level":2},"geometry":{"type":"Point","coordinates":[90.32516,22.76149]}},{"type":"Feature","properties":{"name":"Bhola","level":2},"geometry":{"type":"Point","coordinates":[90.76798,22.40084]}},{"type":"Feature","properties":{"name":"Bogra","level":2},"geometry":{"type":"Point","coordinates":[89.33141,24.82981]}},{"type":"Feature","properties":{"name":"Brahamanbaria","level":2},"geometry":{"type":"Point","coordinates":[91.11222,23.95706]}},{"type":"Feature","properties":{"name":"Chandpur","level":2},"geometry":{"type":"Point","coordinates":[90.8422,23.244]}},{"type":"Feature","properties":{"name":"Chittagong","level":2},"geometry":{"type":"Point","coordinates":[92.04049,22.4235]}},{"type":"Feature","properties":{"name":"Chuadanga","level":2},"geometry":{"type":"Point","coordinates":[88.82176,23.60139]}},{"type":"Feature","properties":{"name":"Comilla","level":2},"geometry":{"type":"Point","coordinates":[91.07641,23.42176]}},{"type":"Feature","properties":{"name":"Cox's Bazar","level":2},"geometry":{"type":"Point","coordinates":[92.09224,21.33194]}},{"type":"Feature","properties":{"name":"Dhaka","level":2},"geometry":{"type":"Point","coordinates":[90.35664,23.78319]}},{"type":"Feature","properties":{"name":"Dinajpur","level":2},"geometry":{"type":"Point","coordinates":[88.72386,25.64259]}},{"type":"Feature","properties":{"name":"Faridpur","level":2},"geometry":{"type":"Point","coordinates":[89.87184,23.46625]}},{"type":"Feature","properties":{"name":"Feni","level":2},"geometry":{"type":"Point","coordinates":[91.40221,23.02135]}},{"type":"Feature","properties":{"name":"Gaibandha","level":2},"geometry":{"type":"Point","coordinates":[89.53627,25.34347]}},{"type":"Feature","properties":{"name":"Gazipur","level":2},"geometry":{"type":"Point","coordinates":[90.40776,24.09239]}},{"type":"Feature","properties":{"name":"Gopalganj","level":2},"geometry":{"type":"Point","coordinates":[89.86241,23.10672]}},{"type":"Feature","properties":{"name":"Habiganj","level":2},"geometry":{"type":"Point","coordinates":[91.43197,24.33535]}},{"type":"Feature","properties":{"name":"Jamalpur","level":2},"geometry":{"type":"Point","coordinates":[89.77782,24.99967]}},{"type":"Feature","properties":{"name":"Jessore","level":2},"geometry":{"type":"Point","coordinates":[89.12588,23.08487]}},{"type":"Feature","properties":{"name":"Jhalokati","level":2},"geometry":{"type":"Point","coordinates":[90.1721,22.56172]}},{"type":"Feature","properties":{"name":"Jhenaidah","level":2},"geometry":{"type":"Point","coordinates":[89.12275,23.49501]}},{"type":"Feature","properties":{"name":"Joypurhat","level":2},"geometry":{"type":"Point","coordinates":[89.09083,25.06322]}},{"type":"Feature","properties":{"name":"Khagrachhari","level":2},"geometry":{"type":"Point","coordinates":[91.96209,23.21122]}},{"type":"Feature","properties":{"name":"Khulna","level":2},"geometry":{"type":"Point","coordinates":[89.41916,22.50239]}},{"type":"Feature","properties":{"name":"Kishoreganj","level":2},"geometry":{"type":"Point","coordinates":[90.92786,24.33687]}},{"type":"Feature","properties":{"name":"Kurigram","level":2},"geometry":{"type":"Point","coordinates":[89.66773,25.80542]}},{"type":"Feature","properties":{"name":"Kushtia","level":2},"geometry":{"type":"Point","coordinates":[89.02497,23.94281]}},{"type":"Feature","properties":{"name":"Lakshmipur","level":2},"geometry":{"type":"Point","coordinates":[90.86791,22.87093]}},{"type":"Feature","properties":{"name":"Lalmonirhat","level":2},"geometry":{"type":"Point","coordinates":[89.16543,26.1221]}},{"type":"Feature","properties":{"name":"Madaripur","level":2},"geometry":{"type":"Point","coordinates":[90.13018,23.23119]}},{"type":"Feature","properties":{"name":"Magura","level":2},"geometry":{"type":"Point","coordinates":[89.45668,23.46961]}},{"type":"Feature","properties":{"name":"Manikganj","level":2},"geometry":{"type":"Point","coordinates":[89.94156,23.8355]}},{"type":"Feature","properties":{"name":"Maulvibazar","level":2},"geometry":{"type":"Point","coordinates":[91.88239,24.48651]}},{"type":"Feature","properties":{"name":"Meherpur","level":2},"geometry":{"type":"Point","coordinates":[88.70081,23.78839]}},{"type":"Feature","properties":{"name":"Munshiganj","level":2},"geometry":{"type":"Point","coordinates":[90.43809,23.52662]}},{"type":"Feature","properties":{"name":"Mymensingh","level":2},"geometry":{"type":"Point","coordinates":[90.41627,24.72213]}},{"type":"Feature","properties":{"name":"Naogaon","level":2},"geometry":{"type":"Point","coordinates":[88.73824,24.87355]}},{"type":"Feature","properties":{"name":"Narail","level":2},"geometry":{"type":"Point","coordinates":[89.52867,23.13234]}},{"type":"Feature","properties":{"name":"Narayanganj","level":2},"geometry":{"type":"Point","coordinates":[90.61697,23.71534]}},{"type":"Feature","properties":{"name":"Narsingdi","level":2},"geometry":{"type":"Point","coordinates":[90.80575,24.0073]}},{"type":"Feature","properties":{"name":"Natore","level":2},"geometry":{"type":"Point","coordinates":[89.09054,24.39327]}},{"type":"Feature","properties":{"name":"Nawabganj","level":2},"geometry":{"type":"Point","coordinates":[88.25947,24.69123]}},{"type":"Feature","properties":{"name":"Netrakona","level":2},"geometry":{"type":"Point","coordinates":[90.78927,24.88673]}},{"type":"Feature","properties":{"name":"Nilphamari","level":2},"geometry":{"type":"Point","coordinates":[88.92203,26.02053]}},{"type":"Feature","properties":{"name":"Noakhali","level":2},"geometry":{"type":"Point","coordinates":[91.13019,22.78807]}},{"type":"Feature","properties":{"name":"Pabna","level":2},"geometry":{"type":"Point","coordinates":[89.33856,24.08095]}},{"type":"Feature","properties":{"name":"Panchagarh","level":2},"geometry":{"type":"Point","coordinates":[88.54719,26.32062]}},{"type":"Feature","properties":{"name":"Patuakhali","level":2},"geometry":{"type":"Point","coordinates":[90.4599,22.25846]}},{"type":"Feature","properties":{"name":"Pirojpur","level":2},"geometry":{"type":"Point","coordinates":[89.99544,22.51485]}},{"type":"Feature","properties":{"name":"Rajbari","level":2},"geometry":{"type":"Point","coordinates":[89.57525,23.73534]}},{"type":"Feature","properties":{"name":"Rajshahi","level":2},"geometry":{"type":"Point","coordinates":[88.59659,24.41521]}},{"type":"Feature","properties":{"name":"Rangamati","level":2},"geometry":{"type":"Point","coordinates":[92.22334,22.79609]}},{"type":"Feature","properties":{"name":"Rangpur","level":2},"geometry":{"type":"Point","coordinates":[89.26263,25.63305]}},{"type":"Feature","properties":{"name":"Satkhira","level":2},"geometry":{"type":"Point","coordinates":[89.1384,22.47464]}},{"type":"Feature","properties":{"name":"Shariatpur","level":2},"geometry":{"type":"Point","coordinates":[90.42241,23.22927]}},{"type":"Feature","properties":{"name":"Sherpur","level":2},"geometry":{"type":"Point","coordinates":[90.09506,25.09242]}},{"type":"Feature","properties":{"name":"Sirajganj","level":2},"geometry":{"type":"Point","coordinates":[89.52299,24.39875]}},{"type":"Feature","properties":{"name":"Sunamganj","level":2},"geometry":{"type":"Point","coordinates":[91.39084,24.88817]}},{"type":"Feature","properties":{"name":"Sylhet","level":2},"geometry":{"type":"Point","coordinates":[91.95828,24.8903]}},{"type":"Feature","properties":{"name":"Tangail","level":2},"geometry":{"type":"Point","coordinates":[90.00163,24.37576]}},{"type":"Feature","properties":{"name":"Thakurgaon","level":2},"geometry":{"type":"Point","coordinates":[88.31075,25.93623]}},{"type":"Feature","properties":{"name":"Abhaynagar","level":3},"geometry":{"type":"Point","coordinates":[89.4225,23.01883]}},{"type":"Feature","properties":{"name":"Adabor","level":3},"geometry":{"type":"Point","coordinates":[90.35159,23.76981]}},{"type":"Feature","properties":{"name":"Adamdighi","level":3},"geometry":{"type":"Point","coordinates":[89.0657,24.79363]}},{"type":"Feature","properties":{"name":"Aditmari","level":3},"geometry":{"type":"Point","coordinates":[89.37549,25.94831]}},{"type":"Feature","properties":{"name":"Agailjhara","level":3},"geometry":{"type":"Point","coordinates":[90.13059,22.97349]}},{"type":"Feature","properties":{"name":"Ajmiriganj","level":3},"geometry":{"type":"Point","coordinates":[91.29473,24.56431]}},{"type":"Feature","properties":{"name":"Akhaura","level":3},"geometry":{"type":"Point","coordinates":[91.19412,23.84486]}},{"type":"Feature","properties":{"name":"Akkelpur","level":3},"geometry":{"type":"Point","coordinates":[89.04564,24.948]}},{"type":"Feature","properties":{"name":"Alamdanga","level":3},"geometry":{"type":"Point","coordinates":[88.8939,23.7277]}},{"type":"Feature","properties":{"name":"Alfadanga","level":3},"geometry":{"type":"Point","coordinates":[89.67347,23.29861]}},{"type":"Feature","properties":{"name":"Alikadam","level":3},"geometry":{"type":"Point","coordinates":[92.37454,21.59845]}},{"type":"Feature","properties":{"name":"Amtali","level":3},"geometry":{"type":"Point","coordinates":[90.15247,22.06177]}},{"type":"Feature","properties":{"name":"Anowara","level":3},"geometry":{"type":"Point","coordinates":[91.87979,22.18795]}},{"type":"Feature","properties":{"name":"Araihazar","level":3},"geometry":{"type":"Point","coordinates":[90.65633,23.76562]}},{"type":"Feature","properties":{"name":"Ashuganj","level":3},"geometry":{"type":"Point","coordinates":[91.01358,24.01705]}},{"type":"Feature","properties":{"name":"Assasuni","level":3},"geometry":{"type":"Point","coordinates":[89.20555,22.49852]}},{"type":"Feature","properties":{"name":"Atgharia","level":3},"geometry":{"type":"Point","coordinates":[89.22527,24.12087]}},{"type":"Feature","properties":{"name":"Atpara","level":3},"geometry":{"type":"Point","coordinates":[90.85998,24.79377]}},{"type":"Feature","properties":{"name":"Atrai","level":3},"geometry":{"type":"Point","coordinates":[89.0109,24.62053]}},{"type":"Feature","properties":{"name":"Atwari","level":3},"geometry":{"type":"Point","coordinates":[88.41254,26.27761]}},{"type":"Feature","properties":{"name":"Austagram","level":3},"geometry":{"type":"Point","coordinates":[91.10037,24.32198]}},{"type":"Feature","properties":{"name":"Babuganj","level":3},"geometry":{"type":"Point","coordinates":[90.31232,22.83381]}},{"type":"Feature","properties":{"name":"Badalgachhi","level":3},"geometry":{"type":"Point","coordinates":[88.929,24.96806]}},{"type":"Feature","properties":{"name":"Badarganj","level":3},"geometry":{"type":"Point","coordinates":[89.06432,25.64562]}},{"type":"Feature","properties":{"name":"Badda","level":3},"geometry":{"type":"Point","coordinates":[90.45328,23.79371]}},{"type":"Feature","properties":{"name":"Bagati Para","level":3},"geometry":{"type":"Point","coordinates":[88.9585,24.30479]}},{"type":"Feature","properties":{"name":"Bagerhat Sadar","level":3},"geometry":{"type":"Point","coordinates":[89.75905,22.67558]}},{"type":"Feature","properties":{"name":"Bagha","level":3},"geometry":{"type":"Point","coordinates":[88.80454,24.21129]}},{"type":"Feature","properties":{"name":"Baghai Chhari","level":3},"geometry":{"type":"Point","coordinates":[92.22323,23.35601]}},{"type":"Feature","properties":{"name":"Bagher Para","level":3},"geometry":{"type":"Point","coordinates":[89.34217,23.25285]}},{"type":"Feature","properties":{"name":"Baghmara","level":3},"geometry":{"type":"Point","coordinates":[88.81271,24.59419]}},{"type":"Feature","properties":{"name":"Bahubal","level":3},"geometry":{"type":"Point","coordinates":[91.54452,24.36477]}},{"type":"Feature","properties":{"name":"Bajitpur","level":3},"geometry":{"type":"Point","coordinates":[90.93328,24.22423]}},{"type":"Feature","properties":{"name":"Bakalia","level":3},"geometry":{"type":"Point","coordinates":[91.85377,22.34645]}},{"type":"Feature","properties":{"name":"Bakerganj","level":3},"geometry":{"type":"Point","coordinates":[90.41847,22.56106]}},{"type":"Feature","properties":{"name":"Bakshiganj","level":3},"geometry":{"type":"Point","coordinates":[89.83932,25.20681]}},{"type":"Feature","properties":{"name":"Balaganj","level":3},"geometry":{"type":"Point","coordinates":[91.77871,24.69554]}},{"type":"Feature","properties":{"name":"Balia Kandi","level":3},"geometry":{"type":"Point","coordinates":[89.53646,23.65015]}},{"type":"Feature","properties":{"name":"Baliadangi","level":3},"geometry":{"type":"Point","coordinates":[88.25078,26.09765]}},{"type":"Feature","properties":{"name":"Bamna","level":3},"geometry":{"type":"Point","coordinates":[90.05489,22.2699]}},{"type":"Feature","properties":{"name":"Banari Para","level":3},"geometry":{"type":"Point","coordinates":[90.13833,22.8065]}},{"type":"Feature","properties":{"name":"Banchharampur","level":3},"geometry":{"type":"Point","coordinates":[90.81267,23.77442]}},{"type":"Feature","properties":{"name":"Bandar","level":3},"geometry":{"type":"Point","coordinates":[90.53812,23.63734]}},{"type":"Feature","properties":{"name":"Bandarban Sadar","level":3},"geometry":{"type":"Point","coordinates":[92.18937,22.14833]}},{"type":"Feature","properties":{"name":"Bangshal","level":3},"geometry":{"type":"Point","coordinates":[90.40532,23.71684]}},{"type":"Feature","properties":{"name":"Baniachong","level":3},"geometry":{"type":"Point","coordinates":[91.40371,24.5238]}},{"type":"Feature","properties":{"name":"Banshkhali","level":3},"geometry":{"type":"Point","coordinates":[91.93713,22.01888]}},{"type":"Feature","properties":{"name":"Baraigram","level":3},"geometry":{"type":"Point","coordinates":[89.16606,24.25765]}},{"type":"Feature","properties":{"name":"Barguna Sadar","level":3},"geometry":{"type":"Point","coordinates":[90.08713,22.1133]}},{"type":"Feature","properties":{"name":"Barhatta","level":3},"geometry":{"type":"Point","coordinates":[90.89736,24.92157]}},{"type":"Feature","properties":{"name":"Barisal Sadar (Kotwali)","level":3},"geometry":{"type":"Point","coordinates":[90.37068,22.72385]}},{"type":"Feature","properties":{"name":"Barkal","level":3},"geometry":{"type":"Point","coordinates":[92.3657,22.89273]}},{"type":"Feature","properties":{"name":"Barlekha","level":3},"geometry":{"type":"Point","coordinates":[92.16984,24.71504]}},{"type":"Feature","properties":{"name":"Barura","level":3},"geometry":{"type":"Point","coordinates":[91.03507,23.34276]}},{"type":"Feature","properties":{"name":"Basail","level":3},"geometry":{"type":"Point","coordinates":[90.04095,24.23558]}},{"type":"Feature","properties":{"name":"Batiaghata","level":3},"geometry":{"type":"Point","coordinates":[89.52918,22.71022]}},{"type":"Feature","properties":{"name":"Bauphal","level":3},"geometry":{"type":"Point","coordinates":[90.51979,22.43707]}},{"type":"Feature","properties":{"name":"Bayejid Bostami","level":3},"geometry":{"type":"Point","coordinates":[91.80178,22.41887]}},{"type":"Feature","properties":{"name":"Beani Bazar","level":3},"geometry":{"type":"Point","coordinates":[92.16634,24.85379]}},{"type":"Feature","properties":{"name":"Begumganj","level":3},"geometry":{"type":"Point","coordinates":[91.10309,22.93227]}},{"type":"Feature","properties":{"name":"Belabo","level":3},"geometry":{"type":"Point","coordinates":[90.82348,24.1086]}},{"type":"Feature","properties":{"name":"Belai Chhari","level":3},"geometry":{"type":"Point","coordinates":[92.53635,22.21711]}},{"type":"Feature","properties":{"name":"Belkuchi","level":3},"geometry":{"type":"Point","coordinates":[89.70853,24.29455]}},{"type":"Feature","properties":{"name":"Bera","level":3},"geometry":{"type":"Point","coordinates":[89.64676,23.95308]}},{"type":"Feature","properties":{"name":"Betagi","level":3},"geometry":{"type":"Point","coordinates":[90.13889,22.34821]}},{"type":"Feature","properties":{"name":"Bhairab","level":3},"geometry":{"type":"Point","coordinates":[90.98791,24.10183]}},{"type":"Feature","properties":{"name":"Bhaluka","level":3},"geometry":{"type":"Point","coordinates":[90.35676,24.37888]}},{"type":"Feature","properties":{"name":"Bhandaria","level":3},"geometry":{"type":"Point","coordinates":[90.01738,22.45797]}},{"type":"Feature","properties":{"name":"Bhanga","level":3},"geometry":{"type":"Point","coordinates":[89.98824,23.38118]}},{"type":"Feature","properties":{"name":"Bhangura","level":3},"geometry":{"type":"Point","coordinates":[89.39307,24.23793]}},{"type":"Feature","properties":{"name":"Bhedarganj","level":3},"geometry":{"type":"Point","coordinates":[90.52634,23.22207]}},{"type":"Feature","properties":{"name":"Bheramara","level":3},"geometry":{"type":"Point","coordinates":[88.97551,24.0597]}},{"type":"Feature","properties":{"name":"Bhola Sadar","level":3},"geometry":{"type":"Point","coordinates":[90.63589,22.67561]}},{"type":"Feature","properties":{"name":"Bholahat","level":3},"geometry":{"type":"Point","coordinates":[88.20865,24.88269]}},{"type":"Feature","properties":{"name":"Bhuapur","level":3},"geometry":{"type":"Point","coordinates":[89.81528,24.48225]}},{"type":"Feature","properties":{"name":"Bhurungamari","level":3},"geometry":{"type":"Point","coordinates":[89.6818,26.13269]}},{"type":"Feature","properties":{"name":"Bijoynagar","level":3},"geometry":{"type":"Point","coordinates":[91.23187,23.99855]}},{"type":"Feature","properties":{"name":"Biman Bandar","level":3},"geometry":{"type":"Point","coordinates":[90.40797,23.84652]}},{"type":"Feature","properties":{"name":"Biral","level":3},"geometry":{"type":"Point","coordinates":[88.53795,25.63714]}},{"type":"Feature","properties":{"name":"Birampur","level":3},"geometry":{"type":"Point","coordinates":[88.95474,25.39449]}},{"type":"Feature","properties":{"name":"Birganj","level":3},"geometry":{"type":"Point","coordinates":[88.61391,25.93398]}},{"type":"Feature","properties":{"name":"Bishwambarpur","level":3},"geometry":{"type":"Point","coordinates":[91.32802,25.10258]}},{"type":"Feature","properties":{"name":"Bishwanath","level":3},"geometry":{"type":"Point","coordinates":[91.73379,24.83859]}},{"type":"Feature","properties":{"name":"Boalia","level":3},"geometry":{"type":"Point","coordinates":[88.62112,24.37812]}},{"type":"Feature","properties":{"name":"Boalkhali","level":3},"geometry":{"type":"Point","coordinates":[91.96243,22.3796]}},{"type":"Feature","properties":{"name":"Boalmari","level":3},"geometry":{"type":"Point","coordinates":[89.67622,23.40693]}},{"type":"Feature","properties":{"name":"Bochaganj","level":3},"geometry":{"type":"Point","coordinates":[88.44583,25.78592]}},{"type":"Feature","properties":{"name":"Boda","level":3},"geometry":{"type":"Point","coordinates":[88.60831,26.2023]}},{"type":"Feature","properties":{"name":"Bogra Sadar","level":3},"geometry":{"type":"Point","coordinates":[89.35412,24.90133]}},{"type":"Feature","properties":{"name":"Brahman Para","level":3},"geometry":{"type":"Point","coordinates":[91.10788,23.64638]}},{"type":"Feature","properties":{"name":"Brahmanbaria Sadar","level":3},"geometry":{"type":"Point","coordinates":[91.1178,23.95044]}},{"type":"Feature","properties":{"name":"Burhanuddin","level":3},"geometry":{"type":"Point","coordinates":[90.74383,22.47938]}},{"type":"Feature","properties":{"name":"Burichang","level":3},"geometry":{"type":"Point","coordinates":[91.12902,23.53632]}},{"type":"Feature","properties":{"name":"Cantonment","level":3},"geometry":{"type":"Point","coordinates":[90.40657,23.81039]}},{"type":"Feature","properties":{"name":"Chak Bazar","level":3},"geometry":{"type":"Point","coordinates":[90.39434,23.71763]}},{"type":"Feature","properties":{"name":"Chakaria","level":3},"geometry":{"type":"Point","coordinates":[92.05018,21.74987]}},{"type":"Feature","properties":{"name":"Chandanaish","level":3},"geometry":{"type":"Point","coordinates":[92.07064,22.22226]}},{"type":"Feature","properties":{"name":"Chandgaon","level":3},"geometry":{"type":"Point","coordinates":[91.8651,22.39332]}},{"type":"Feature","properties":{"name":"Chandina","level":3},"geometry":{"type":"Point","coordinates":[90.94478,23.4266]}},{"type":"Feature","properties":{"name":"Chandpur Sadar","level":3},"geometry":{"type":"Point","coordinates":[90.68343,23.22835]}},{"type":"Feature","properties":{"name":"Char Bhadrasan","level":3},"geometry":{"type":"Point","coordinates":[89.97617,23.59181]}},{"type":"Feature","properties":{"name":"Char Fasson","level":3},"geometry":{"type":"Point","coordinates":[90.71615,22.12986]}},{"type":"Feature","properties":{"name":"Char Rajibpur","level":3},"geometry":{"type":"Point","coordinates":[89.76815,25.44723]}},{"type":"Feature","properties":{"name":"Charghat","level":3},"geometry":{"type":"Point","coordinates":[88.79284,24.29827]}},{"type":"Feature","properties":{"name":"Chatkhil","level":3},"geometry":{"type":"Point","coordinates":[90.95304,23.0527]}},{"type":"Feature","properties":{"name":"Chatmohar","level":3},"geometry":{"type":"Point","coordinates":[89.27222,24.2279]}},{"type":"Feature","properties":{"name":"Chauddagram","level":3},"geometry":{"type":"Point","coordinates":[91.29405,23.2058]}},{"type":"Feature","properties":{"name":"Chaugachha","level":3},"geometry":{"type":"Point","coordinates":[89.02316,23.27152]}},{"type":"Feature","properties":{"name":"Chauhali","level":3},"geometry":{"type":"Point","coordinates":[89.76257,24.14793]}},{"type":"Feature","properties":{"name":"Chhagalnaiya","level":3},"geometry":{"type":"Point","coordinates":[91.51782,23.00452]}},{"type":"Feature","properties":{"name":"Chhatak","level":3},"geometry":{"type":"Point","coordinates":[91.62653,24.97826]}},{"type":"Feature","properties":{"name":"Chilmari","level":3},"geometry":{"type":"Point","coordinates":[89.7093,25.55666]}},{"type":"Feature","properties":{"name":"Chirirbandar","level":3},"geometry":{"type":"Point","coordinates":[88.77297,25.65934]}},{"type":"Feature","properties":{"name":"Chitalmari","level":3},"geometry":{"type":"Point","coordinates":[89.84611,22.80639]}},{"type":"Feature","properties":{"name":"Chittagong Port","level":3},"geometry":{"type":"Point","coordinates":[91.78777,22.3032]}},{"type":"Feature","properties":{"name":"Chuadanga Sadar","level":3},"geometry":{"type":"Point","coordinates":[88.90601,23.58887]}},{"type":"Feature","properties":{"name":"Chunarughat","level":3},"geometry":{"type":"Point","coordinates":[91.51158,24.17774]}},{"type":"Feature","properties":{"name":"Comilla Adarsha Sadar","level":3},"geometry":{"type":"Point","coordinates":[91.18187,23.46873]}},{"type":"Feature","properties":{"name":"Comilla Sadar Dakshin","level":3},"geometry":{"type":"Point","coordinates":[91.15553,23.342]}},{"type":"Feature","properties":{"name":"Companiganj","level":3},"geometry":{"type":"Point","coordinates":[91.30225,22.77787]}},{"type":"Feature","properties":{"name":"Companiganj","level":3},"geometry":{"type":"Point","coordinates":[91.79304,25.075]}},{"type":"Feature","properties":{"name":"Cox's Bazar Sadar","level":3},"geometry":{"type":"Point","coordinates":[92.03376,21.50349]}},{"type":"Feature","properties":{"name":"Dacope","level":3},"geometry":{"type":"Point","coordinates":[89.5737,22.32293]}},{"type":"Feature","properties":{"name":"Daganbhuiyan","level":3},"geometry":{"type":"Point","coordinates":[91.31198,22.97093]}},{"type":"Feature","properties":{"name":"Dakshin Sunamganj","level":3},"geometry":{"type":"Point","coordinates":[91.402,24.92185]}},{"type":"Feature","properties":{"name":"Dakshin Surma","level":3},"geometry":{"type":"Point","coordinates":[91.86607,24.81554]}},{"type":"Feature","properties":{"name":"Dakshinkhan","level":3},"geometry":{"type":"Point","coordinates":[90.41377,23.86551]}},{"type":"Feature","properties":{"name":"Damudya","level":3},"geometry":{"type":"Point","coordinates":[90.43055,23.14023]}},{"type":"Feature","properties":{"name":"Damurhuda","level":3},"geometry":{"type":"Point","coordinates":[88.73426,23.58975]}},{"type":"Feature","properties":{"name":"Darus Salam","level":3},"geometry":{"type":"Point","coordinates":[90.34244,23.78534]}},{"type":"Feature","properties":{"name":"Dashmina","level":3},"geometry":{"type":"Point","coordinates":[90.54646,22.26897]}},{"type":"Feature","properties":{"name":"Daudkandi","level":3},"geometry":{"type":"Point","coordinates":[90.78507,23.50318]}},{"type":"Feature","properties":{"name":"Daulatkhan","level":3},"geometry":{"type":"Point","coordinates":[90.70556,22.60088]}},{"type":"Feature","properties":{"name":"Daulatpur","level":3},"geometry":{"type":"Point","coordinates":[89.77299,23.96403]}},{"type":"Feature","properties":{"name":"Daulatpur","level":3},"geometry":{"type":"Point","coordinates":[89.50741,22.87316]}},{"type":"Feature","properties":{"name":"Daulatpur","level":3},"geometry":{"type":"Point","coordinates":[88.83045,24.03207]}},{"type":"Feature","properties":{"name":"Debhata","level":3},"geometry":{"type":"Point","coordinates":[88.99355,22.59398]}},{"type":"Feature","properties":{"name":"Debidwar","level":3},"geometry":{"type":"Point","coordinates":[91.00781,23.59342]}},{"type":"Feature","properties":{"name":"Debiganj","level":3},"geometry":{"type":"Point","coordinates":[88.71899,26.15869]}},{"type":"Feature","properties":{"name":"Delduar","level":3},"geometry":{"type":"Point","coordinates":[89.92788,24.14118]}},{"type":"Feature","properties":{"name":"Demra","level":3},"geometry":{"type":"Point","coordinates":[90.48173,23.72336]}},{"type":"Feature","properties":{"name":"Derai","level":3},"geometry":{"type":"Point","coordinates":[91.33727,24.77145]}},{"type":"Feature","properties":{"name":"Dewanganj","level":3},"geometry":{"type":"Point","coordinates":[89.77193,25.26997]}},{"type":"Feature","properties":{"name":"Dhamoirhat","level":3},"geometry":{"type":"Point","coordinates":[88.84161,25.11599]}},{"type":"Feature","properties":{"name":"Dhamrai","level":3},"geometry":{"type":"Point","coordinates":[90.14715,23.93112]}},{"type":"Feature","properties":{"name":"Dhanbari","level":3},"geometry":{"type":"Point","coordinates":[89.9506,24.68981]}},{"type":"Feature","properties":{"name":"Dhanmondi","level":3},"geometry":{"type":"Point","coordinates":[90.37392,23.74481]}},{"type":"Feature","properties":{"name":"Dharampasha","level":3},"geometry":{"type":"Point","coordinates":[91.02196,25.00578]}},{"type":"Feature","properties":{"name":"Dhobaura","level":3},"geometry":{"type":"Point","coordinates":[90.52221,25.09565]}},{"type":"Feature","properties":{"name":"Dhunat","level":3},"geometry":{"type":"Point","coordinates":[89.51889,24.67127]}},{"type":"Feature","properties":{"name":"Dhupchanchia","level":3},"geometry":{"type":"Point","coordinates":[89.13247,24.88466]}},{"type":"Feature","properties":{"name":"Dighalia","level":3},"geometry":{"type":"Point","coordinates":[89.54827,22.92179]}},{"type":"Feature","properties":{"name":"Dighinala","level":3},"geometry":{"type":"Point","coordinates":[92.03983,23.40411]}},{"type":"Feature","properties":{"name":"Dimla","level":3},"geometry":{"type":"Point","coordinates":[88.95855,26.17833]}},{"type":"Feature","properties":{"name":"Dinajpur Sadar","level":3},"geometry":{"type":"Point","coordinates":[88.66531,25.62977]}},{"type":"Feature","properties":{"name":"Dohar","level":3},"geometry":{"type":"Point","coordinates":[90.11038,23.59537]}},{"type":"Feature","properties":{"name":"Domar","level":3},"geometry":{"type":"Point","coordinates":[88.83767,26.16969]}},{"type":"Feature","properties":{"name":"Double Mooring","level":3},"geometry":{"type":"Point","coordinates":[91.81026,22.33159]}},{"type":"Feature","properties":{"name":"Dowarabazar","level":3},"geometry":{"type":"Point","coordinates":[91.54114,25.07005]}},{"type":"Feature","properties":{"name":"Dumki","level":3},"geometry":{"type":"Point","coordinates":[90.37338,22.44709]}},{"type":"Feature","properties":{"name":"Dumuria","level":3},"geometry":{"type":"Point","coordinates":[89.37523,22.79622]}},{"type":"Feature","properties":{"name":"Durgapur","level":3},"geometry":{"type":"Point","coordinates":[90.68994,25.09133]}},{"type":"Feature","properties":{"name":"Durgapur","level":3},"geometry":{"type":"Point","coordinates":[88.76504,24.45647]}},{"type":"Feature","properties":{"name":"Fakirhat","level":3},"geometry":{"type":"Point","coordinates":[89.66624,22.73451]}},{"type":"Feature","properties":{"name":"Faridganj","level":3},"geometry":{"type":"Point","coordinates":[90.76218,23.13879]}},{"type":"Feature","properties":{"name":"Faridpur","level":3},"geometry":{"type":"Point","coordinates":[89.46356,24.16059]}},{"type":"Feature","properties":{"name":"Faridpur Sadar","level":3},"geometry":{"type":"Point","coordinates":[89.82208,23.60467]}},{"type":"Feature","properties":{"name":"Fatikchhari","level":3},"geometry":{"type":"Point","coordinates":[91.70429,22.77502]}},{"type":"Feature","properties":{"name":"Fenchuganj","level":3},"geometry":{"type":"Point","coordinates":[91.96633,24.69809]}},{"type":"Feature","properties":{"name":"Feni Sadar","level":3},"geometry":{"type":"Point","coordinates":[91.43405,22.98563]}},{"type":"Feature","properties":{"name":"Fulbari","level":3},"geometry":{"type":"Point","coordinates":[88.90444,25.47547]}},{"type":"Feature","properties":{"name":"Fulbaria","level":3},"geometry":{"type":"Point","coordinates":[90.23566,24.58183]}},{"type":"Feature","properties":{"name":"Fulchhari","level":3},"geometry":{"type":"Point","coordinates":[89.65761,25.24089]}},{"type":"Feature","properties":{"name":"Fulgazi","level":3},"geometry":{"type":"Point","coordinates":[91.45773,23.11306]}},{"type":"Feature","properties":{"name":"Gabtali","level":3},"geometry":{"type":"Point","coordinates":[89.46669,24.89189]}},{"type":"Feature","properties":{"name":"Gaffargaon","level":3},"geometry":{"type":"Point","coordinates":[90.56061,24.39651]}},{"type":"Feature","properties":{"name":"Gaibandha Sadar","level":3},"geometry":{"type":"Point","coordinates":[89.52076,25.3333]}},{"type":"Feature","properties":{"name":"Galachipa","level":3},"geometry":{"type":"Point","coordinates":[90.41783,21.95052]}},{"type":"Feature","properties":{"name":"Gangachara","level":3},"geometry":{"type":"Point","coordinates":[89.20333,25.88386]}},{"type":"Feature","properties":{"name":"Gangni","level":3},"geometry":{"type":"Point","coordinates":[88.7587,23.85637]}},{"type":"Feature","properties":{"name":"Gauripur","level":3},"geometry":{"type":"Point","coordinates":[90.61252,24.76572]}},{"type":"Feature","properties":{"name":"Gaurnadi","level":3},"geometry":{"type":"Point","coordinates":[90.20899,22.97767]}},{"type":"Feature","properties":{"name":"Gazaria","level":3},"geometry":{"type":"Point","coordinates":[90.62971,23.55518]}},{"type":"Feature","properties":{"name":"Gazipur Sadar","level":3},"geometry":{"type":"Point","coordinates":[90.38052,24.03052]}},{"type":"Feature","properties":{"name":"Gendaria","level":3},"geometry":{"type":"Point","coordinates":[90.42309,23.70692]}},{"type":"Feature","properties":{"name":"Ghatail","level":3},"geometry":{"type":"Point","coordinates":[90.0627,24.48021]}},{"type":"Feature","properties":{"name":"Ghior","level":3},"geometry":{"type":"Point","coordinates":[89.92798,23.86327]}},{"type":"Feature","properties":{"name":"Ghoraghat","level":3},"geometry":{"type":"Point","coordinates":[89.20672,25.29456]}},{"type":"Feature","properties":{"name":"Goalandaghat","level":3},"geometry":{"type":"Point","coordinates":[89.77374,23.75596]}},{"type":"Feature","properties":{"name":"Gobindaganj","level":3},"geometry":{"type":"Point","coordinates":[89.35353,25.14715]}},{"type":"Feature","properties":{"name":"Godagari","level":3},"geometry":{"type":"Point","coordinates":[88.4073,24.484]}},{"type":"Feature","properties":{"name":"Golabganj","level":3},"geometry":{"type":"Point","coordinates":[92.02407,24.81225]}},{"type":"Feature","properties":{"name":"Gomastapur","level":3},"geometry":{"type":"Point","coordinates":[88.35553,24.85319]}},{"type":"Feature","properties":{"name":"Gopalganj Sadar","level":3},"geometry":{"type":"Point","coordinates":[89.84764,23.06301]}},{"type":"Feature","properties":{"name":"Gopalpur","level":3},"geometry":{"type":"Point","coordinates":[89.91379,24.56788]}},{"type":"Feature","properties":{"name":"Gosairhat","level":3},"geometry":{"type":"Point","coordinates":[90.42419,23.08532]}},{"type":"Feature","properties":{"name":"Gowainghat","level":3},"geometry":{"type":"Point","coordinates":[91.9732,25.07174]}},{"type":"Feature","properties":{"name":"Gulshan","level":3},"geometry":{"type":"Point","coordinates":[90.41297,23.7908]}},{"type":"Feature","properties":{"name":"Gurudaspur","level":3},"geometry":{"type":"Point","coordinates":[89.18321,24.37323]}},{"type":"Feature","properties":{"name":"Habiganj Sadar","level":3},"geometry":{"type":"Point","coordinates":[91.41557,24.35196]}},{"type":"Feature","properties":{"name":"Haim Char","level":3},"geometry":{"type":"Point","coordinates":[90.66417,23.06038]}},{"type":"Feature","properties":{"name":"Hajiganj","level":3},"geometry":{"type":"Point","coordinates":[90.8287,23.24853]}},{"type":"Feature","properties":{"name":"Hakimpur","level":3},"geometry":{"type":"Point","coordinates":[89.07796,25.29435]}},{"type":"Feature","properties":{"name":"Halishahar","level":3},"geometry":{"type":"Point","coordinates":[91.77907,22.33731]}},{"type":"Feature","properties":{"name":"Haluaghat","level":3},"geometry":{"type":"Point","coordinates":[90.36095,25.09281]}},{"type":"Feature","properties":{"name":"Harinakunda","level":3},"geometry":{"type":"Point","coordinates":[89.0666,23.65989]}},{"type":"Feature","properties":{"name":"Haripur","level":3},"geometry":{"type":"Point","coordinates":[88.15126,25.8873]}},{"type":"Feature","properties":{"name":"Harirampur","level":3},"geometry":{"type":"Point","coordinates":[89.94693,23.71765]}},{"type":"Feature","properties":{"name":"Hathazari","level":3},"geometry":{"type":"Point","coordinates":[91.80183,22.51878]}},{"type":"Feature","properties":{"name":"Hatibandha","level":3},"geometry":{"type":"Point","coordinates":[89.16404,26.12311]}},{"type":"Feature","properties":{"name":"Hatiya","level":3},"geometry":{"type":"Point","coordinates":[91.12961,22.24416]}},{"type":"Feature","properties":{"name":"Hazaribagh","level":3},"geometry":{"type":"Point","coordinates":[90.35891,23.73998]}},{"type":"Feature","properties":{"name":"Hizla","level":3},"geometry":{"type":"Point","coordinates":[90.47079,22.93109]}},{"type":"Feature","properties":{"name":"Homna","level":3},"geometry":{"type":"Point","coordinates":[90.80823,23.682]}},{"type":"Feature","properties":{"name":"Hossainpur","level":3},"geometry":{"type":"Point","coordinates":[90.65679,24.45274]}},{"type":"Feature","properties":{"name":"Ishwardi","level":3},"geometry":{"type":"Point","coordinates":[89.08659,24.06079]}},{"type":"Feature","properties":{"name":"Ishwarganj","level":3},"geometry":{"type":"Point","coordinates":[90.60383,24.64409]}},{"type":"Feature","properties":{"name":"Islampur","level":3},"geometry":{"type":"Point","coordinates":[89.72478,25.06899]}},{"type":"Feature","properties":{"name":"Itna","level":3},"geometry":{"type":"Point","coordinates":[91.09854,24.54554]}},{"type":"Feature","properties":{"name":"Jagannathpur","level":3},"geometry":{"type":"Point","coordinates":[91.56601,24.74595]}},{"type":"Feature","properties":{"name":"Jaintiapur","level":3},"geometry":{"type":"Point","coordinates":[92.1236,25.05342]}},{"type":"Feature","properties":{"name":"Jaldhaka","level":3},"geometry":{"type":"Point","coordinates":[88.99059,26.03675]}},{"type":"Feature","properties":{"name":"Jamalganj","level":3},"geometry":{"type":"Point","coordinates":[91.22825,24.93254]}},{"type":"Feature","properties":{"name":"Jamalpur Sadar","level":3},"geometry":{"type":"Point","coordinates":[90.00892,24.84507]}},{"type":"Feature","properties":{"name":"Jatrabari","level":3},"geometry":{"type":"Point","coordinates":[90.45066,23.71404]}},{"type":"Feature","properties":{"name":"Jhalokati Sadar","level":3},"geometry":{"type":"Point","coordinates":[90.20442,22.68136]}},{"type":"Feature","properties":{"name":"Jhenaidah Sadar","level":3},"geometry":{"type":"Point","coordinates":[89.14254,23.51456]}},{"type":"Feature","properties":{"name":"Jhenaigati","level":3},"geometry":{"type":"Point","coordinates":[90.0641,25.17304]}},{"type":"Feature","properties":{"name":"Jhikargachha","level":3},"geometry":{"type":"Point","coordinates":[89.05766,23.07041]}},{"type":"Feature","properties":{"name":"Jiban Nagar","level":3},"geometry":{"type":"Point","coordinates":[88.85188,23.43889]}},{"type":"Feature","properties":{"name":"Joypurhat Sadar","level":3},"geometry":{"type":"Point","coordinates":[89.04004,25.11677]}},{"type":"Feature","properties":{"name":"Jurai Chhari","level":3},"geometry":{"type":"Point","coordinates":[92.43475,22.60262]}},{"type":"Feature","properties":{"name":"Juri","level":3},"geometry":{"type":"Point","coordinates":[92.20442,24.52383]}},{"type":"Feature","properties":{"name":"Kabirhat","level":3},"geometry":{"type":"Point","coordinates":[91.19272,22.81188]}},{"type":"Feature","properties":{"name":"Kachua","level":3},"geometry":{"type":"Point","coordinates":[90.86881,23.36009]}},{"type":"Feature","properties":{"name":"Kachua","level":3},"geometry":{"type":"Point","coordinates":[89.87428,22.65572]}},{"type":"Feature","properties":{"name":"Kadamtali","level":3},"geometry":{"type":"Point","coordinates":[90.44854,23.68547]}},{"type":"Feature","properties":{"name":"Kafrul","level":3},"geometry":{"type":"Point","coordinates":[90.38221,23.79089]}},{"type":"Feature","properties":{"name":"Kahaloo","level":3},"geometry":{"type":"Point","coordinates":[89.24781,24.82646]}},{"type":"Feature","properties":{"name":"Kaharole","level":3},"geometry":{"type":"Point","coordinates":[88.59396,25.80983]}},{"type":"Feature","properties":{"name":"Kala Para","level":3},"geometry":{"type":"Point","coordinates":[90.21333,21.89451]}},{"type":"Feature","properties":{"name":"Kalabagan","level":3},"geometry":{"type":"Point","coordinates":[90.3868,23.74672]}},{"type":"Feature","properties":{"name":"Kalai","level":3},"geometry":{"type":"Point","coordinates":[89.21302,25.0793]}},{"type":"Feature","properties":{"name":"Kalaroa","level":3},"geometry":{"type":"Point","coordinates":[89.03682,22.87752]}},{"type":"Feature","properties":{"name":"Kalia","level":3},"geometry":{"type":"Point","coordinates":[89.63079,23.02615]}},{"type":"Feature","properties":{"name":"Kaliakair","level":3},"geometry":{"type":"Point","coordinates":[90.28232,24.12623]}},{"type":"Feature","properties":{"name":"Kaliganj","level":3},"geometry":{"type":"Point","coordinates":[90.56556,23.94545]}},{"type":"Feature","properties":{"name":"Kaliganj","level":3},"geometry":{"type":"Point","coordinates":[89.14896,23.37134]}},{"type":"Feature","properties":{"name":"Kaliganj","level":3},"geometry":{"type":"Point","coordinates":[89.06517,22.44288]}},{"type":"Feature","properties":{"name":"Kaliganj","level":3},"geometry":{"type":"Point","coordinates":[89.22825,25.97515]}},{"type":"Feature","properties":{"name":"Kalihati","level":3},"geometry":{"type":"Point","coordinates":[89.9442,24.35815]}},{"type":"Feature","properties":{"name":"Kalkini","level":3},"geometry":{"type":"Point","coordinates":[90.27975,23.06595]}},{"type":"Feature","properties":{"name":"Kalmakanda","level":3},"geometry":{"type":"Point","coordinates":[90.85769,25.07191]}},{"type":"Feature","properties":{"name":"Kalukhali","level":3},"geometry":{"type":"Point","coordinates":[89.51023,23.74303]}},{"type":"Feature","properties":{"name":"Kamalganj","level":3},"geometry":{"type":"Point","coordinates":[91.86141,24.30213]}},{"type":"Feature","properties":{"name":"Kamalnagar","level":3},"geometry":{"type":"Point","coordinates":[90.86887,22.77404]}},{"type":"Feature","properties":{"name":"Kamarkhanda","level":3},"geometry":{"type":"Point","coordinates":[89.65964,24.37361]}},{"type":"Feature","properties":{"name":"Kamrangir Char","level":3},"geometry":{"type":"Point","coordinates":[90.36662,23.71374]}},{"type":"Feature","properties":{"name":"Kanaighat","level":3},"geometry":{"type":"Point","coordinates":[92.25334,24.99058]}},{"type":"Feature","properties":{"name":"Kanthalia","level":3},"geometry":{"type":"Point","coordinates":[90.09794,22.42426]}},{"type":"Feature","properties":{"name":"Kapasia","level":3},"geometry":{"type":"Point","coordinates":[90.61474,24.14808]}},{"type":"Feature","properties":{"name":"Kaptai","level":3},"geometry":{"type":"Point","coordinates":[92.20885,22.46914]}},{"type":"Feature","properties":{"name":"Karimganj","level":3},"geometry":{"type":"Point","coordinates":[90.90649,24.45094]}},{"type":"Feature","properties":{"name":"Kasba","level":3},"geometry":{"type":"Point","coordinates":[91.14541,23.75557]}},{"type":"Feature","properties":{"name":"Kashiani","level":3},"geometry":{"type":"Point","coordinates":[89.7706,23.19731]}},{"type":"Feature","properties":{"name":"Katiadi","level":3},"geometry":{"type":"Point","coordinates":[90.8044,24.27329]}},{"type":"Feature","properties":{"name":"Kaunia","level":3},"geometry":{"type":"Point","coordinates":[89.39124,25.76155]}},{"type":"Feature","properties":{"name":"Kawkhali","level":3},"geometry":{"type":"Point","coordinates":[90.08231,22.59282]}},{"type":"Feature","properties":{"name":"Kawkhali (Betbunia)","level":3},"geometry":{"type":"Point","coordinates":[91.97993,22.60353]}},{"type":"Feature","properties":{"name":"Kazipur","level":3},"geometry":{"type":"Point","coordinates":[89.66754,24.66449]}},{"type":"Feature","properties":{"name":"Kendua","level":3},"geometry":{"type":"Point","coordinates":[90.79662,24.67736]}},{"type":"Feature","properties":{"name":"Keraniganj","level":3},"geometry":{"type":"Point","coordinates":[90.34688,23.69438]}},{"type":"Feature","properties":{"name":"Keshabpur","level":3},"geometry":{"type":"Point","coordinates":[89.23729,22.87047]}},{"type":"Feature","properties":{"name":"Khagrachhari Sadar","level":3},"geometry":{"type":"Point","coordinates":[91.98112,23.13663]}},{"type":"Feature","properties":{"name":"Khaliajuri","level":3},"geometry":{"type":"Point","coordinates":[91.10277,24.71854]}},{"type":"Feature","properties":{"name":"Khalishpur","level":3},"geometry":{"type":"Point","coordinates":[89.53392,22.84991]}},{"type":"Feature","properties":{"name":"Khan Jahan Ali","level":3},"geometry":{"type":"Point","coordinates":[89.48841,22.918]}},{"type":"Feature","properties":{"name":"Khansama","level":3},"geometry":{"type":"Point","coordinates":[88.76541,25.89759]}},{"type":"Feature","properties":{"name":"Khetlal","level":3},"geometry":{"type":"Point","coordinates":[89.09204,25.03251]}},{"type":"Feature","properties":{"name":"Khilgaon","level":3},"geometry":{"type":"Point","coordinates":[90.46897,23.76214]}},{"type":"Feature","properties":{"name":"Khilkhet","level":3},"geometry":{"type":"Point","coordinates":[90.44571,23.83438]}},{"type":"Feature","properties":{"name":"Khoksa","level":3},"geometry":{"type":"Point","coordinates":[89.29318,23.81253]}},{"type":"Feature","properties":{"name":"Khulna Sadar","level":3},"geometry":{"type":"Point","coordinates":[89.56542,22.80134]}},{"type":"Feature","properties":{"name":"Khulshi","level":3},"geometry":{"type":"Point","coordinates":[91.80312,22.36477]}},{"type":"Feature","properties":{"name":"Kishoreganj","level":3},"geometry":{"type":"Point","coordinates":[89.02894,25.8981]}},{"type":"Feature","properties":{"name":"Kishoreganj Sadar","level":3},"geometry":{"type":"Point","coordinates":[90.76832,24.43685]}},{"type":"Feature","properties":{"name":"Kotali Para","level":3},"geometry":{"type":"Point","coordinates":[90.00552,22.99869]}},{"type":"Feature","properties":{"name":"Kotchandpur","level":3},"geometry":{"type":"Point","coordinates":[89.00272,23.4568]}},{"type":"Feature","properties":{"name":"Kotwali","level":3},"geometry":{"type":"Point","coordinates":[91.82953,22.34407]}},{"type":"Feature","properties":{"name":"Kotwali","level":3},"geometry":{"type":"Point","coordinates":[90.40753,23.70901]}},{"type":"Feature","properties":{"name":"Kotwali","level":3},"geometry":{"type":"Point","coordinates":[89.20454,23.19846]}},{"type":"Feature","properties":{"name":"Koyra","level":3},"geometry":{"type":"Point","coordinates":[89.41194,21.79945]}},{"type":"Feature","properties":{"name":"Kulaura","level":3},"geometry":{"type":"Point","coordinates":[92.02461,24.48911]}},{"type":"Feature","properties":{"name":"Kuliar Char","level":3},"geometry":{"type":"Point","coordinates":[90.88428,24.15414]}},{"type":"Feature","properties":{"name":"Kumarkhali","level":3},"geometry":{"type":"Point","coordinates":[89.22623,23.86482]}},{"type":"Feature","properties":{"name":"Kurigram Sadar","level":3},"geometry":{"type":"Point","coordinates":[89.70166,25.83291]}},{"type":"Feature","properties":{"name":"Kushtia Sadar","level":3},"geometry":{"type":"Point","coordinates":[89.08373,23.82979]}},{"type":"Feature","properties":{"name":"Kutubdia","level":3},"geometry":{"type":"Point","coordinates":[91.86433,21.82249]}},{"type":"Feature","properties":{"name":"Lakhai","level":3},"geometry":{"type":"Point","coordinates":[91.25106,24.29996]}},{"type":"Feature","properties":{"name":"Laksam","level":3},"geometry":{"type":"Point","coordinates":[91.09692,23.24787]}},{"type":"Feature","properties":{"name":"Lakshmichhari","level":3},"geometry":{"type":"Point","coordinates":[91.91586,22.78634]}},{"type":"Feature","properties":{"name":"Lakshmipur Sadar","level":3},"geometry":{"type":"Point","coordinates":[90.87589,22.92837]}},{"type":"Feature","properties":{"name":"Lalbagh","level":3},"geometry":{"type":"Point","coordinates":[90.37544,23.7214]}},{"type":"Feature","properties":{"name":"Lalmohan","level":3},"geometry":{"type":"Point","coordinates":[90.76064,22.31038]}},{"type":"Feature","properties":{"name":"Lalmonirhat Sadar","level":3},"geometry":{"type":"Point","coordinates":[89.4689,25.89182]}},{"type":"Feature","properties":{"name":"Lalpur","level":3},"geometry":{"type":"Point","coordinates":[88.9921,24.19659]}},{"type":"Feature","properties":{"name":"Lama","level":3},"geometry":{"type":"Point","coordinates":[92.26185,21.80206]}},{"type":"Feature","properties":{"name":"Langadu","level":3},"geometry":{"type":"Point","coordinates":[92.21701,22.94944]}},{"type":"Feature","properties":{"name":"Lohagara","level":3},"geometry":{"type":"Point","coordinates":[92.10571,21.9897]}},{"type":"Feature","properties":{"name":"Lohagara","level":3},"geometry":{"type":"Point","coordinates":[89.63883,23.20143]}},{"type":"Feature","properties":{"name":"Lohajang","level":3},"geometry":{"type":"Point","coordinates":[90.31028,23.47109]}},{"type":"Feature","properties":{"name":"Madan","level":3},"geometry":{"type":"Point","coordinates":[90.97868,24.67644]}},{"type":"Feature","properties":{"name":"Madarganj","level":3},"geometry":{"type":"Point","coordinates":[89.72261,24.88422]}},{"type":"Feature","properties":{"name":"Madaripur Sadar","level":3},"geometry":{"type":"Point","coordinates":[90.18276,23.20192]}},{"type":"Feature","properties":{"name":"Madhabpur","level":3},"geometry":{"type":"Point","coordinates":[91.36006,24.12222]}},{"type":"Feature","properties":{"name":"Madhukhali","level":3},"geometry":{"type":"Point","coordinates":[89.63242,23.53428]}},{"type":"Feature","properties":{"name":"Madhupur","level":3},"geometry":{"type":"Point","coordinates":[90.06368,24.65363]}},{"type":"Feature","properties":{"name":"Magura Sadar","level":3},"geometry":{"type":"Point","coordinates":[89.39258,23.43947]}},{"type":"Feature","properties":{"name":"Mahadebpur","level":3},"geometry":{"type":"Point","coordinates":[88.76344,24.9104]}},{"type":"Feature","properties":{"name":"Mahalchhari","level":3},"geometry":{"type":"Point","coordinates":[92.03268,22.9443]}},{"type":"Feature","properties":{"name":"Maheshkhali","level":3},"geometry":{"type":"Point","coordinates":[91.93084,21.61782]}},{"type":"Feature","properties":{"name":"Maheshpur","level":3},"geometry":{"type":"Point","coordinates":[88.85669,23.3189]}},{"type":"Feature","properties":{"name":"Manda","level":3},"geometry":{"type":"Point","coordinates":[88.72138,24.74618]}},{"type":"Feature","properties":{"name":"Manikchhari","level":3},"geometry":{"type":"Point","coordinates":[91.82194,22.83757]}},{"type":"Feature","properties":{"name":"Manikganj Sadar","level":3},"geometry":{"type":"Point","coordinates":[90.01694,23.81677]}},{"type":"Feature","properties":{"name":"Manirampur","level":3},"geometry":{"type":"Point","coordinates":[89.20794,23.01179]}},{"type":"Feature","properties":{"name":"Manohardi","level":3},"geometry":{"type":"Point","coordinates":[90.72813,24.15766]}},{"type":"Feature","properties":{"name":"Manoharganj","level":3},"geometry":{"type":"Point","coordinates":[91.06617,23.14501]}},{"type":"Feature","properties":{"name":"Manpura","level":3},"geometry":{"type":"Point","coordinates":[90.96472,22.20975]}},{"type":"Feature","properties":{"name":"Mathbaria","level":3},"geometry":{"type":"Point","coordinates":[89.9409,22.2819]}},{"type":"Feature","properties":{"name":"Matihar","level":3},"geometry":{"type":"Point","coordinates":[88.6475,24.3715]}},{"type":"Feature","properties":{"name":"Matiranga","level":3},"geometry":{"type":"Point","coordinates":[91.86019,23.1473]}},{"type":"Feature","properties":{"name":"Matlab Dakshin","level":3},"geometry":{"type":"Point","coordinates":[90.76953,23.35446]}},{"type":"Feature","properties":{"name":"Matlab Uttar","level":3},"geometry":{"type":"Point","coordinates":[90.64314,23.41703]}},{"type":"Feature","properties":{"name":"Maulvi Bazar Sadar","level":3},"geometry":{"type":"Point","coordinates":[91.71226,24.51536]}},{"type":"Feature","properties":{"name":"Meghna","level":3},"geometry":{"type":"Point","coordinates":[90.69546,23.6184]}},{"type":"Feature","properties":{"name":"Mehendiganj","level":3},"geometry":{"type":"Point","coordinates":[90.5674,22.8418]}},{"type":"Feature","properties":{"name":"Meherpur Sadar","level":3},"geometry":{"type":"Point","coordinates":[88.64133,23.77225]}},{"type":"Feature","properties":{"name":"Melandaha","level":3},"geometry":{"type":"Point","coordinates":[89.82952,24.96616]}},{"type":"Feature","properties":{"name":"Mirpur","level":3},"geometry":{"type":"Point","coordinates":[90.36229,23.79351]}},{"type":"Feature","properties":{"name":"Mirpur","level":3},"geometry":{"type":"Point","coordinates":[88.98607,23.89569]}},{"type":"Feature","properties":{"name":"Mirsharai","level":3},"geometry":{"type":"Point","coordinates":[91.5349,22.821]}},{"type":"Feature","properties":{"name":"Mirzaganj","level":3},"geometry":{"type":"Point","coordinates":[90.22264,22.34842]}},{"type":"Feature","properties":{"name":"Mirzapur","level":3},"geometry":{"type":"Point","coordinates":[90.10816,24.1193]}},{"type":"Feature","properties":{"name":"Mitha Pukur","level":3},"geometry":{"type":"Point","coordinates":[89.25705,25.55811]}},{"type":"Feature","properties":{"name":"Mithamain","level":3},"geometry":{"type":"Point","coordinates":[91.097,24.4275]}},{"type":"Feature","properties":{"name":"Mohammadpur","level":3},"geometry":{"type":"Point","coordinates":[90.35523,23.76018]}},{"type":"Feature","properties":{"name":"Mohammadpur","level":3},"geometry":{"type":"Point","coordinates":[89.5619,23.39557]}},{"type":"Feature","properties":{"name":"Mohanganj","level":3},"geometry":{"type":"Point","coordinates":[91.01584,24.82315]}},{"type":"Feature","properties":{"name":"Mohanpur","level":3},"geometry":{"type":"Point","coordinates":[88.65204,24.5549]}},{"type":"Feature","properties":{"name":"Mollahat","level":3},"geometry":{"type":"Point","coordinates":[89.77181,22.88876]}},{"type":"Feature","properties":{"name":"Mongla","level":3},"geometry":{"type":"Point","coordinates":[89.59694,21.85097]}},{"type":"Feature","properties":{"name":"Morrelganj","level":3},"geometry":{"type":"Point","coordinates":[89.80414,22.47752]}},{"type":"Feature","properties":{"name":"Motijheel","level":3},"geometry":{"type":"Point","coordinates":[90.42306,23.73582]}},{"type":"Feature","properties":{"name":"Mujib Nagar","level":3},"geometry":{"type":"Point","coordinates":[88.60462,23.6729]}},{"type":"Feature","properties":{"name":"Muksudpur","level":3},"geometry":{"type":"Point","coordinates":[89.92518,23.26592]}},{"type":"Feature","properties":{"name":"Muktagachha","level":3},"geometry":{"type":"Point","coordinates":[90.22398,24.7298]}},{"type":"Feature","properties":{"name":"Muladi","level":3},"geometry":{"type":"Point","coordinates":[90.38962,22.9246]}},{"type":"Feature","properties":{"name":"Munshiganj Sadar","level":3},"geometry":{"type":"Point","coordinates":[90.5445,23.47666]}},{"type":"Feature","properties":{"name":"Muradnagar","level":3},"geometry":{"type":"Point","coordinates":[90.92853,23.65048]}},{"type":"Feature","properties":{"name":"Mymensingh Sadar","level":3},"geometry":{"type":"Point","coordinates":[90.40969,24.76579]}},{"type":"Feature","properties":{"name":"Nabiganj","level":3},"geometry":{"type":"Point","coordinates":[91.56704,24.55334]}},{"type":"Feature","properties":{"name":"Nabinagar","level":3},"geometry":{"type":"Point","coordinates":[90.99884,23.8655]}},{"type":"Feature","properties":{"name":"Nachole","level":3},"geometry":{"type":"Point","coordinates":[88.37128,24.73631]}},{"type":"Feature","properties":{"name":"Nagarkanda","level":3},"geometry":{"type":"Point","coordinates":[89.89114,23.43347]}},{"type":"Feature","properties":{"name":"Nagarpur","level":3},"geometry":{"type":"Point","coordinates":[89.86757,24.06786]}},{"type":"Feature","properties":{"name":"Nageshwari","level":3},"geometry":{"type":"Point","coordinates":[89.73588,25.95893]}},{"type":"Feature","properties":{"name":"Naikhongchhari","level":3},"geometry":{"type":"Point","coordinates":[92.31013,21.42571]}},{"type":"Feature","properties":{"name":"Nakla","level":3},"geometry":{"type":"Point","coordinates":[90.18605,24.95906]}},{"type":"Feature","properties":{"name":"Nalchity","level":3},"geometry":{"type":"Point","coordinates":[90.28662,22.59062]}},{"type":"Feature","properties":{"name":"Nalitabari","level":3},"geometry":{"type":"Point","coordinates":[90.17224,25.12189]}},{"type":"Feature","properties":{"name":"Nandail","level":3},"geometry":{"type":"Point","coordinates":[90.66272,24.5519]}},{"type":"Feature","properties":{"name":"Nandigram","level":3},"geometry":{"type":"Point","coordinates":[89.22578,24.6881]}},{"type":"Feature","properties":{"name":"Nangalkot","level":3},"geometry":{"type":"Point","coordinates":[91.19513,23.15123]}},{"type":"Feature","properties":{"name":"Naniarchar","level":3},"geometry":{"type":"Point","coordinates":[92.0758,22.8317]}},{"type":"Feature","properties":{"name":"Naogaon Sadar","level":3},"geometry":{"type":"Point","coordinates":[88.91542,24.81719]}},{"type":"Feature","properties":{"name":"Narail Sadar","level":3},"geometry":{"type":"Point","coordinates":[89.50366,23.16007]}},{"type":"Feature","properties":{"name":"Narayanganj Sadar","level":3},"geometry":{"type":"Point","coordinates":[90.49305,23.62988]}},{"type":"Feature","properties":{"name":"Naria","level":3},"geometry":{"type":"Point","coordinates":[90.44102,23.31218]}},{"type":"Feature","properties":{"name":"Narsingdi Sadar","level":3},"geometry":{"type":"Point","coordinates":[90.70662,23.8599]}},{"type":"Feature","properties":{"name":"Nasirnagar","level":3},"geometry":{"type":"Point","coordinates":[91.1847,24.17123]}},{"type":"Feature","properties":{"name":"Natore Sadar","level":3},"geometry":{"type":"Point","coordinates":[88.97424,24.45295]}},{"type":"Feature","properties":{"name":"Nawabganj","level":3},"geometry":{"type":"Point","coordinates":[90.16961,23.65855]}},{"type":"Feature","properties":{"name":"Nawabganj","level":3},"geometry":{"type":"Point","coordinates":[89.09075,25.43025]}},{"type":"Feature","properties":{"name":"Nawabganj Sadar","level":3},"geometry":{"type":"Point","coordinates":[88.19812,24.56564]}},{"type":"Feature","properties":{"name":"Nazirpur","level":3},"geometry":{"type":"Point","coordinates":[89.97215,22.77015]}},{"type":"Feature","properties":{"name":"Nesarabad (Swarupkati)","level":3},"geometry":{"type":"Point","coordinates":[90.1006,22.73178]}},{"type":"Feature","properties":{"name":"Netrokona Sadar","level":3},"geometry":{"type":"Point","coordinates":[90.73258,24.89307]}},{"type":"Feature","properties":{"name":"New Market","level":3},"geometry":{"type":"Point","coordinates":[90.37945,23.73565]}},{"type":"Feature","properties":{"name":"Niamatpur","level":3},"geometry":{"type":"Point","coordinates":[88.52406,24.82677]}},{"type":"Feature","properties":{"name":"Nikli","level":3},"geometry":{"type":"Point","coordinates":[90.95504,24.3473]}},{"type":"Feature","properties":{"name":"Nilphamari Sadar","level":3},"geometry":{"type":"Point","coordinates":[88.87336,25.93229]}},{"type":"Feature","properties":{"name":"Noakhali Sadar (Sudharam)","level":3},"geometry":{"type":"Point","coordinates":[91.0409,22.78513]}},{"type":"Feature","properties":{"name":"Paba","level":3},"geometry":{"type":"Point","coordinates":[88.66808,24.4034]}},{"type":"Feature","properties":{"name":"Pabna Sadar","level":3},"geometry":{"type":"Point","coordinates":[89.30924,23.98425]}},{"type":"Feature","properties":{"name":"Pahartali","level":3},"geometry":{"type":"Point","coordinates":[91.76963,22.35927]}},{"type":"Feature","properties":{"name":"Paikgachha","level":3},"geometry":{"type":"Point","coordinates":[89.3418,22.59185]}},{"type":"Feature","properties":{"name":"Pakundia","level":3},"geometry":{"type":"Point","coordinates":[90.69949,24.31541]}},{"type":"Feature","properties":{"name":"Palash","level":3},"geometry":{"type":"Point","coordinates":[90.66501,23.96656]}},{"type":"Feature","properties":{"name":"Palashbari","level":3},"geometry":{"type":"Point","coordinates":[89.39306,25.25073]}},{"type":"Feature","properties":{"name":"Pallabi","level":3},"geometry":{"type":"Point","coordinates":[90.36447,23.8274]}},{"type":"Feature","properties":{"name":"Paltan","level":3},"geometry":{"type":"Point","coordinates":[90.41301,23.73368]}},{"type":"Feature","properties":{"name":"Panchagarh Sadar","level":3},"geometry":{"type":"Point","coordinates":[88.60454,26.37553]}},{"type":"Feature","properties":{"name":"Panchbibi","level":3},"geometry":{"type":"Point","coordinates":[89.06952,25.20159]}},{"type":"Feature","properties":{"name":"Panchhari","level":3},"geometry":{"type":"Point","coordinates":[91.90898,23.32344]}},{"type":"Feature","properties":{"name":"Panchlaish","level":3},"geometry":{"type":"Point","coordinates":[91.82739,22.37572]}},{"type":"Feature","properties":{"name":"Pangsha","level":3},"geometry":{"type":"Point","coordinates":[89.38389,23.78738]}},{"type":"Feature","properties":{"name":"Parbatipur","level":3},"geometry":{"type":"Point","coordinates":[88.9096,25.63873]}},{"type":"Feature","properties":{"name":"Parshuram","level":3},"geometry":{"type":"Point","coordinates":[91.43579,23.20725]}},{"type":"Feature","properties":{"name":"Patenga","level":3},"geometry":{"type":"Point","coordinates":[91.80039,22.26557]}},{"type":"Feature","properties":{"name":"Patgram","level":3},"geometry":{"type":"Point","coordinates":[89.04186,26.33769]}},{"type":"Feature","properties":{"name":"Patharghata","level":3},"geometry":{"type":"Point","coordinates":[89.96386,22.08531]}},{"type":"Feature","properties":{"name":"Patiya","level":3},"geometry":{"type":"Point","coordinates":[91.94583,22.28925]}},{"type":"Feature","properties":{"name":"Patnitala","level":3},"geometry":{"type":"Point","coordinates":[88.68463,25.09473]}},{"type":"Feature","properties":{"name":"Patuakhali Sadar","level":3},"geometry":{"type":"Point","coordinates":[90.33743,22.33093]}},{"type":"Feature","properties":{"name":"Pekua","level":3},"geometry":{"type":"Point","coordinates":[91.96452,21.81348]}},{"type":"Feature","properties":{"name":"Phulbari","level":3},"geometry":{"type":"Point","coordinates":[89.56307,25.95639]}},{"type":"Feature","properties":{"name":"Phulpur","level":3},"geometry":{"type":"Point","coordinates":[90.42185,24.87935]}},{"type":"Feature","properties":{"name":"Phultala","level":3},"geometry":{"type":"Point","coordinates":[89.45524,22.964]}},{"type":"Feature","properties":{"name":"Pirgachha","level":3},"geometry":{"type":"Point","coordinates":[89.44161,25.65455]}},{"type":"Feature","properties":{"name":"Pirganj","level":3},"geometry":{"type":"Point","coordinates":[89.26617,25.41001]}},{"type":"Feature","properties":{"name":"Pirganj","level":3},"geometry":{"type":"Point","coordinates":[88.32423,25.82129]}},{"type":"Feature","properties":{"name":"Pirojpur Sadar","level":3},"geometry":{"type":"Point","coordinates":[89.99952,22.59586]}},{"type":"Feature","properties":{"name":"Porsha","level":3},"geometry":{"type":"Point","coordinates":[88.52814,24.99492]}},{"type":"Feature","properties":{"name":"Purbadhala","level":3},"geometry":{"type":"Point","coordinates":[90.59378,24.91667]}},{"type":"Feature","properties":{"name":"Puthia","level":3},"geometry":{"type":"Point","coordinates":[88.84864,24.42675]}},{"type":"Feature","properties":{"name":"Rajapur","level":3},"geometry":{"type":"Point","coordinates":[90.12777,22.55477]}},{"type":"Feature","properties":{"name":"Rajarhat","level":3},"geometry":{"type":"Point","coordinates":[89.53011,25.80075]}},{"type":"Feature","properties":{"name":"Rajasthali","level":3},"geometry":{"type":"Point","coordinates":[92.27286,22.39087]}},{"type":"Feature","properties":{"name":"Rajbari Sadar","level":3},"geometry":{"type":"Point","coordinates":[89.66886,23.69896]}},{"type":"Feature","properties":{"name":"Rajnagar","level":3},"geometry":{"type":"Point","coordinates":[91.85409,24.5481]}},{"type":"Feature","properties":{"name":"Rajoir","level":3},"geometry":{"type":"Point","coordinates":[90.0544,23.22308]}},{"type":"Feature","properties":{"name":"Rajpara","level":3},"geometry":{"type":"Point","coordinates":[88.57191,24.37961]}},{"type":"Feature","properties":{"name":"Ramganj","level":3},"geometry":{"type":"Point","coordinates":[90.86923,23.09315]}},{"type":"Feature","properties":{"name":"Ramgarh","level":3},"geometry":{"type":"Point","coordinates":[91.79258,22.94631]}},{"type":"Feature","properties":{"name":"Ramgati","level":3},"geometry":{"type":"Point","coordinates":[90.94658,22.65071]}},{"type":"Feature","properties":{"name":"Ramna","level":3},"geometry":{"type":"Point","coordinates":[90.40413,23.74853]}},{"type":"Feature","properties":{"name":"Rampal","level":3},"geometry":{"type":"Point","coordinates":[89.62777,22.59267]}},{"type":"Feature","properties":{"name":"Rampura","level":3},"geometry":{"type":"Point","coordinates":[90.42011,23.75999]}},{"type":"Feature","properties":{"name":"Ramu","level":3},"geometry":{"type":"Point","coordinates":[92.14633,21.44732]}},{"type":"Feature","properties":{"name":"Rangamati Sadar","level":3},"geometry":{"type":"Point","coordinates":[92.19467,22.65896]}},{"type":"Feature","properties":{"name":"Rangpur Sadar","level":3},"geometry":{"type":"Point","coordinates":[89.20038,25.74425]}},{"type":"Feature","properties":{"name":"Rangunia","level":3},"geometry":{"type":"Point","coordinates":[92.05515,22.46193]}},{"type":"Feature","properties":{"name":"Raninagar","level":3},"geometry":{"type":"Point","coordinates":[88.99644,24.71269]}},{"type":"Feature","properties":{"name":"Ranisankail","level":3},"geometry":{"type":"Point","coordinates":[88.26283,25.93304]}},{"type":"Feature","properties":{"name":"Raozan","level":3},"geometry":{"type":"Point","coordinates":[91.90817,22.53688]}},{"type":"Feature","properties":{"name":"Raumari","level":3},"geometry":{"type":"Point","coordinates":[89.83173,25.57982]}},{"type":"Feature","properties":{"name":"Rowangchhari","level":3},"geometry":{"type":"Point","coordinates":[92.38057,22.18773]}},{"type":"Feature","properties":{"name":"Royganj","level":3},"geometry":{"type":"Point","coordinates":[89.51511,24.4862]}},{"type":"Feature","properties":{"name":"Roypur","level":3},"geometry":{"type":"Point","coordinates":[90.70039,22.98679]}},{"type":"Feature","properties":{"name":"Roypura","level":3},"geometry":{"type":"Point","coordinates":[90.86548,23.96176]}},{"type":"Feature","properties":{"name":"Ruma","level":3},"geometry":{"type":"Point","coordinates":[92.40713,22.02574]}},{"type":"Feature","properties":{"name":"Rupganj","level":3},"geometry":{"type":"Point","coordinates":[90.53602,23.80324]}},{"type":"Feature","properties":{"name":"Rupsa","level":3},"geometry":{"type":"Point","coordinates":[89.63424,22.82009]}},{"type":"Feature","properties":{"name":"Sabujbagh","level":3},"geometry":{"type":"Point","coordinates":[90.44277,23.73325]}},{"type":"Feature","properties":{"name":"Sadarpur","level":3},"geometry":{"type":"Point","coordinates":[90.067,23.47131]}},{"type":"Feature","properties":{"name":"Sadullapur","level":3},"geometry":{"type":"Point","coordinates":[89.43148,25.40007]}},{"type":"Feature","properties":{"name":"Saghatta","level":3},"geometry":{"type":"Point","coordinates":[89.55729,25.13815]}},{"type":"Feature","properties":{"name":"Saidpur","level":3},"geometry":{"type":"Point","coordinates":[88.90216,25.79837]}},{"type":"Feature","properties":{"name":"Sakhipur","level":3},"geometry":{"type":"Point","coordinates":[90.16151,24.30728]}},{"type":"Feature","properties":{"name":"Saltha","level":3},"geometry":{"type":"Point","coordinates":[89.80207,23.4103]}},{"type":"Feature","properties":{"name":"Sandwip","level":3},"geometry":{"type":"Point","coordinates":[91.48796,22.49728]}},{"type":"Feature","properties":{"name":"Santhia","level":3},"geometry":{"type":"Point","coordinates":[89.51297,24.05029]}},{"type":"Feature","properties":{"name":"Sapahar","level":3},"geometry":{"type":"Point","coordinates":[88.53432,25.11239]}},{"type":"Feature","properties":{"name":"Sarail","level":3},"geometry":{"type":"Point","coordinates":[91.10971,24.09407]}},{"type":"Feature","properties":{"name":"Sarankhola","level":3},"geometry":{"type":"Point","coordinates":[89.80981,22.22967]}},{"type":"Feature","properties":{"name":"Sariakandi","level":3},"geometry":{"type":"Point","coordinates":[89.59975,24.89349]}},{"type":"Feature","properties":{"name":"Sarishabari","level":3},"geometry":{"type":"Point","coordinates":[89.84142,24.69768]}},{"type":"Feature","properties":{"name":"Satkania","level":3},"geometry":{"type":"Point","coordinates":[92.08071,22.10923]}},{"type":"Feature","properties":{"name":"Satkhira Sadar","level":3},"geometry":{"type":"Point","coordinates":[89.04543,22.70835]}},{"type":"Feature","properties":{"name":"Saturia","level":3},"geometry":{"type":"Point","coordinates":[89.99801,23.96104]}},{"type":"Feature","properties":{"name":"Savar","level":3},"geometry":{"type":"Point","coordinates":[90.28958,23.88838]}},{"type":"Feature","properties":{"name":"Senbagh","level":3},"geometry":{"type":"Point","coordinates":[91.22882,22.97938]}},{"type":"Feature","properties":{"name":"Serajdikhan","level":3},"geometry":{"type":"Point","coordinates":[90.39214,23.58723]}},{"type":"Feature","properties":{"name":"Shah Ali","level":3},"geometry":{"type":"Point","coordinates":[90.34816,23.81203]}},{"type":"Feature","properties":{"name":"Shah Makhdum","level":3},"geometry":{"type":"Point","coordinates":[88.60745,24.39937]}},{"type":"Feature","properties":{"name":"Shahbagh","level":3},"geometry":{"type":"Point","coordinates":[90.39739,23.73643]}},{"type":"Feature","properties":{"name":"Shahjadpur","level":3},"geometry":{"type":"Point","coordinates":[89.62574,24.16272]}},{"type":"Feature","properties":{"name":"Shahrasti","level":3},"geometry":{"type":"Point","coordinates":[90.97292,23.21029]}},{"type":"Feature","properties":{"name":"Shailkupa","level":3},"geometry":{"type":"Point","coordinates":[89.23728,23.66475]}},{"type":"Feature","properties":{"name":"Shajahanpur","level":3},"geometry":{"type":"Point","coordinates":[89.38271,24.76212]}},{"type":"Feature","properties":{"name":"Shalikha","level":3},"geometry":{"type":"Point","coordinates":[89.35075,23.35085]}},{"type":"Feature","properties":{"name":"Shariatpur Sadar","level":3},"geometry":{"type":"Point","coordinates":[90.31562,23.21581]}},{"type":"Feature","properties":{"name":"Sharsha","level":3},"geometry":{"type":"Point","coordinates":[88.93911,23.05724]}},{"type":"Feature","properties":{"name":"Sher-e-bangla Nagar","level":3},"geometry":{"type":"Point","coordinates":[90.37617,23.76768]}},{"type":"Feature","properties":{"name":"Sherpur","level":3},"geometry":{"type":"Point","coordinates":[89.42533,24.63081]}},{"type":"Feature","properties":{"name":"Sherpur Sadar","level":3},"geometry":{"type":"Point","coordinates":[90.00638,24.998]}},{"type":"Feature","properties":{"name":"Shib Char","level":3},"geometry":{"type":"Point","coordinates":[90.17017,23.37659]}},{"type":"Feature","properties":{"name":"Shibalaya","level":3},"geometry":{"type":"Point","coordinates":[89.84362,23.82695]}},{"type":"Feature","properties":{"name":"Shibganj","level":3},"geometry":{"type":"Point","coordinates":[89.3218,25.01794]}},{"type":"Feature","properties":{"name":"Shibganj","level":3},"geometry":{"type":"Point","coordinates":[88.17044,24.71914]}},{"type":"Feature","properties":{"name":"Shibpur","level":3},"geometry":{"type":"Point","coordinates":[90.74723,24.02019]}},{"type":"Feature","properties":{"name":"Shyamnagar","level":3},"geometry":{"type":"Point","coordinates":[89.11208,22.20268]}},{"type":"Feature","properties":{"name":"Shyampur","level":3},"geometry":{"type":"Point","coordinates":[90.42948,23.69864]}},{"type":"Feature","properties":{"name":"Singair","level":3},"geometry":{"type":"Point","coordinates":[90.14979,23.78785]}},{"type":"Feature","properties":{"name":"Singra","level":3},"geometry":{"type":"Point","coordinates":[89.2176,24.54431]}},{"type":"Feature","properties":{"name":"Sirajganj Sadar","level":3},"geometry":{"type":"Point","coordinates":[89.68453,24.48297]}},{"type":"Feature","properties":{"name":"Sitakunda","level":3},"geometry":{"type":"Point","coordinates":[91.70984,22.53317]}},{"type":"Feature","properties":{"name":"Sonadanga","level":3},"geometry":{"type":"Point","coordinates":[89.54548,22.81885]}},{"type":"Feature","properties":{"name":"Sonagazi","level":3},"geometry":{"type":"Point","coordinates":[91.40678,22.85858]}},{"type":"Feature","properties":{"name":"Sonaimuri","level":3},"geometry":{"type":"Point","coordinates":[91.06262,23.03599]}},{"type":"Feature","properties":{"name":"Sonargaon","level":3},"geometry":{"type":"Point","coordinates":[90.59934,23.64974]}},{"type":"Feature","properties":{"name":"Sonatola","level":3},"geometry":{"type":"Point","coordinates":[89.51095,24.99062]}},{"type":"Feature","properties":{"name":"Sreebardi","level":3},"geometry":{"type":"Point","coordinates":[89.95253,25.17943]}},{"type":"Feature","properties":{"name":"Sreemangal","level":3},"geometry":{"type":"Point","coordinates":[91.69923,24.30711]}},{"type":"Feature","properties":{"name":"Sreenagar","level":3},"geometry":{"type":"Point","coordinates":[90.25723,23.55571]}},{"type":"Feature","properties":{"name":"Sreepur","level":3},"geometry":{"type":"Point","coordinates":[90.48873,24.17691]}},{"type":"Feature","properties":{"name":"Sreepur","level":3},"geometry":{"type":"Point","coordinates":[89.40812,23.59929]}},{"type":"Feature","properties":{"name":"Subarnachar","level":3},"geometry":{"type":"Point","coordinates":[91.12753,22.63598]}},{"type":"Feature","properties":{"name":"Sujanagar","level":3},"geometry":{"type":"Point","coordinates":[89.49274,23.90367]}},{"type":"Feature","properties":{"name":"Sulla","level":3},"geometry":{"type":"Point","coordinates":[91.29591,24.68928]}},{"type":"Feature","properties":{"name":"Sunamganj Sadar","level":3},"geometry":{"type":"Point","coordinates":[91.36693,25.04685]}},{"type":"Feature","properties":{"name":"Sundarganj","level":3},"geometry":{"type":"Point","coordinates":[89.56035,25.52338]}},{"type":"Feature","properties":{"name":"Sutrapur","level":3},"geometry":{"type":"Point","coordinates":[90.41502,23.71141]}},{"type":"Feature","properties":{"name":"Sylhet Sadar","level":3},"geometry":{"type":"Point","coordinates":[91.84537,24.94244]}},{"type":"Feature","properties":{"name":"Tahirpur","level":3},"geometry":{"type":"Point","coordinates":[91.13736,25.11602]}},{"type":"Feature","properties":{"name":"Tala","level":3},"geometry":{"type":"Point","coordinates":[89.22686,22.7289]}},{"type":"Feature","properties":{"name":"Tangail Sadar","level":3},"geometry":{"type":"Point","coordinates":[89.883,24.25581]}},{"type":"Feature","properties":{"name":"Tanore","level":3},"geometry":{"type":"Point","coordinates":[88.49676,24.60172]}},{"type":"Feature","properties":{"name":"Taraganj","level":3},"geometry":{"type":"Point","coordinates":[89.02682,25.78032]}},{"type":"Feature","properties":{"name":"Tarail","level":3},"geometry":{"type":"Point","coordinates":[90.89011,24.55206]}},{"type":"Feature","properties":{"name":"Tarash","level":3},"geometry":{"type":"Point","coordinates":[89.35877,24.44899]}},{"type":"Feature","properties":{"name":"Tazumuddin","level":3},"geometry":{"type":"Point","coordinates":[90.82139,22.40927]}},{"type":"Feature","properties":{"name":"Tejgaon","level":3},"geometry":{"type":"Point","coordinates":[90.38977,23.76287]}},{"type":"Feature","properties":{"name":"Tejgaon Ind. Area","level":3},"geometry":{"type":"Point","coordinates":[90.4037,23.76486]}},{"type":"Feature","properties":{"name":"Teknaf","level":3},"geometry":{"type":"Point","coordinates":[92.23522,20.94891]}},{"type":"Feature","properties":{"name":"Tentulia","level":3},"geometry":{"type":"Point","coordinates":[88.42057,26.51892]}},{"type":"Feature","properties":{"name":"Terokhada","level":3},"geometry":{"type":"Point","coordinates":[89.64662,22.90764]}},{"type":"Feature","properties":{"name":"Thakurgaon Sadar","level":3},"geometry":{"type":"Point","coordinates":[88.46524,26.05457]}},{"type":"Feature","properties":{"name":"Thanchi","level":3},"geometry":{"type":"Point","coordinates":[92.55087,21.58798]}},{"type":"Feature","properties":{"name":"Titas","level":3},"geometry":{"type":"Point","coordinates":[90.79959,23.59057]}},{"type":"Feature","properties":{"name":"Tongibari","level":3},"geometry":{"type":"Point","coordinates":[90.45259,23.4818]}},{"type":"Feature","properties":{"name":"Trishal","level":3},"geometry":{"type":"Point","coordinates":[90.41812,24.56531]}},{"type":"Feature","properties":{"name":"Tungi Para","level":3},"geometry":{"type":"Point","coordinates":[89.88372,22.92723]}},{"type":"Feature","properties":{"name":"Turag","level":3},"geometry":{"type":"Point","coordinates":[90.36767,23.86042]}},{"type":"Feature","properties":{"name":"Ukhia","level":3},"geometry":{"type":"Point","coordinates":[92.10742,21.21412]}},{"type":"Feature","properties":{"name":"Ulipur","level":3},"geometry":{"type":"Point","coordinates":[89.64799,25.68692]}},{"type":"Feature","properties":{"name":"Ullah Para","level":3},"geometry":{"type":"Point","coordinates":[89.52468,24.3177]}},{"type":"Feature","properties":{"name":"Uttar Khan","level":3},"geometry":{"type":"Point","coordinates":[90.43991,23.87379]}},{"type":"Feature","properties":{"name":"Uttara","level":3},"geometry":{"type":"Point","coordinates":[90.39307,23.87488]}},{"type":"Feature","properties":{"name":"Wazirpur","level":3},"geometry":{"type":"Point","coordinates":[90.22057,22.84264]}},{"type":"Feature","properties":{"name":"Zakiganj","level":3},"geometry":{"type":"Point","coordinates":[92.34934,24.9288]}},{"type":"Feature","properties":{"name":"Zanjira","level":3},"geometry":{"type":"Point","coordinates":[90.33436,23.35606]}},{"type":"Feature","properties":{"name":"Zianagar","level":3},"geometry":{"type":"Point","coordinates":[89.96129,22.45978]}}],"bbox":[88.15126,20.94891,92.55087,26.51892]}