{"type":"FeatureCollection","features":[{"type":"Feature","properties":{"code":"BD10","name":"Barishal","parent_code":"BD"},"geometry":{"type":"Polygon","coordinates":[[[90.54483,23.08013],[90.5161,23.08076],[90.51552,23.05625],[90.5068,23.06138],[90.50165,23.05828],[90.5111,23.04228],[90.49515,23.03344],[90.49335,23.02099],[90.47473,23.01337],[90.45688,23.01296],[90.45345,23.01825],[90.4188,23.00669],[90.4145,23.00856],[90.41161,23.02139],[90.42727,23.03742],[90.41944,23.04473],[90.41041,23.04375],[90.37049,23.05892],[90.31293,23.05365],[90.3116,23.03461],[90.32951,23.00832],[90.32259,22.98503],[90.2899,22.97422],[90.27376,22.97595],[90.25695,22.96611],[90.25819,22.97605],[90.24776,22.97802],[90.23774,22.96783],[90.23829,22.96269],[90.22893,22.98797],[90.23191,23.02892],[90.23782,23.0451],[90.23529,23.05036],[90.226,23.05638],[90.21437,23.07442],[90.19889,23.05963],[90.16289,23.07072],[90.15656,23.06643],[90.15414,23.05546],[90.13597,23.05204],[90.14385,23.04807],[90.13638,23.04435],[90.12731,23.02614],[90.12638,23.00513],[90.09468,23.00701],[90.08379,22.98046],[90.077,22.98277],[90.06904,22.96761],[90.05784,22.97081],[90.05697,22.94714],[90.06109,22.94289],[90.05764,22.93367],[90.03476,22.93403],[90.03285,22.91816],[90.01868,22.88847],[90.01827,22.86859],[89.98776,22.86569],[89.9861,22.86102],[89.96965,22.85901],[89.96281,22.85286],[89.95293,22.85339],[89.94507,22.86235],[89.93737,22.86376],[89.9435,22.85503],[89.94892,22.82379],[89.93803,22.8235],[89.91737,22.80899],[89.91617,22.7998],[89.93317,22.79324],[89.94,22.78321],[89.921,22.78363],[89.90682,22.77337],[89.90915,22.75451],[89.93336,22.75162],[89.92736,22.72203],[89.90668,22.72713],[89.86039,22.70032],[89.86512,22.69114],[89.89675,22.69647],[89.91492,22.69406],[89.93731,22.67944],[89.90692,22.65591],[89.89603,22.67674],[89.88681,22.66273],[89.90027,22.65043],[89.92654,22.64416],[89.9155,22.60371],[89.95196,22.60004],[89.96204,22.5925],[89.95139,22.54637],[89.92005,22.50932],[89.96226,22.50833],[89.9672,22.50328],[89.96583,22.49271],[89.9514,22.49119],[89.91315,22.50456],[89.88727,22.50371],[89.88019,22.49646],[89.88375,22.48321],[89.89228,22.47553],[89.91128,22.47185],[89.92978,22.47601],[89.94048,22.47093],[89.94359,22.4635],[89.94044,22.45323],[89.93136,22.44554],[89.89977,22.4406],[89.87515,22.42464],[89.86916,22.41558],[89.87168,22.40535],[89.8936,22.38321],[89.899,22.37076],[89.89396,22.34662],[89.86637,22.30332],[89.85742,22.26237],[89.86393,22.22442],[89.88398,22.19591],[89.89614,22.12629],[89.89545,22.10059],[89.87763,22.04826],[89.8855,22.03701],[89.8891,22.01746],[89.901,22.00046],[89.90838,21.96577],[89.95427,21.96647],[89.98334,21.98117],[90.02634,21.98672],[90.03047,21.9853],[90.03036,21.97596],[90.05876,21.97025],[90.02203,21.95044],[90.01336,21.93428],[90.00743,21.90321],[90.00925,21.87724],[90.01791,21.86022],[90.02794,21.85383],[90.07846,21.84509],[90.08709,21.82737],[90.11034,21.80758],[90.14725,21.79715],[90.17735,21.79441],[90.21915,21.8065],[90.25153,21.82918],[90.30634,21.82593],[90.31582,21.83162],[90.41266,21.8151],[90.43609,21.81729],[90.47538,21.79881],[90.48592,21.80339],[90.53398,21.87014],[90.59606,21.89478],[90.59527,21.84434],[90.85742,21.83853],[90.85578,22.04881],[90.95623,22.02756],[90.97907,22.09209],[91.0174,22.17889],[91.02131,22.19188],[91.01508,22.25686],[91.02355,22.29911],[90.99053,22.3895],[90.89491,22.55483],[90.81419,22.63927],[90.78346,22.66104],[90.76582,22.77959],[90.751,22.79281],[90.72859,22.80257],[90.72112,22.81165],[90.71645,22.86823],[90.69006,22.86759],[90.68005,22.85925],[90.67202,22.86451],[90.67957,22.8664],[90.68152,22.8743],[90.66251,22.88349],[90.66122,22.90364],[90.67355,22.90002],[90.69911,22.90375],[90.70154,22.91174],[90.69421,22.92476],[90.67579,22.94235],[90.65758,22.97793],[90.63718,22.99883],[90.61498,23.00468],[90.54603,23.08012],[90.54483,23.08013]]]},"id":"BD10"},{"type":"Feature","properties":{"code":"BD20","name":"Chattogram","parent_code":"BD"},"geometry":{"type":"MultiPolygon","coordinates":[[[[91.31285,24.26812],[91.30131,24.26595],[91.28504,24.24543],[91.2816,24.23193],[91.28727,24.23054],[91.28629,24.22473],[91.27313,24.22826],[91.26861,24.22419],[91.23771,24.23102],[91.22759,24.23825],[91.2213,24.23453],[91.22203,24.23832],[91.19622,24.24017],[91.17528,24.26552],[91.13955,24.24429],[91.08492,24.24035],[91.07875,24.22808],[91.08986,24.21946],[91.0901,24.21117],[91.07557,24.21511],[91.03908,24.21373],[91.01857,24.18655],[90.99123,24.17028],[90.98402,24.15943],[90.99879,24.14171],[91.04089,24.11894],[91.05004,24.10381],[91.05051,24.09133],[91.03647,24.07202],[90.99519,24.04502],[90.9733,24.01888],[90.96901,24.0026],[90.97303,23.97301],[90.95434,23.95906],[90.95119,23.93025],[90.93116,23.91339],[90.91706,23.87887],[90.89812,23.86453],[90.85912,23.87867],[90.83335,23.86455],[90.77473,23.86558],[90.76229,23.85992],[90.75932,23.84725],[90.76648,23.82518],[90.7662,23.80467],[90.72151,23.74057],[90.72355,23.72502],[90.73649,23.70935],[90.74134,23.69379],[90.73457,23.67233],[90.72659,23.6659],[90.71302,23.66517],[90.67969,23.68288],[90.66352,23.67458],[90.64636,23.67729],[90.63453,23.63432],[90.6252,23.6192],[90.63904,23.61447],[90.65134,23.6179],[90.66357,23.59031],[90.64763,23.58909],[90.64474,23.57689],[90.6515,23.57154],[90.66781,23.57115],[90.68421,23.55899],[90.69745,23.52798],[90.70723,23.51941],[90.70651,23.50992],[90.67946,23.49342],[90.64247,23.50437],[90.61861,23.49014],[90.60581,23.49551],[90.5945,23.49187],[90.57759,23.49572],[90.57758,23.48576],[90.58419,23.48075],[90.57771,23.47089],[90.57438,23.44322],[90.54637,23.40749],[90.53854,23.39046],[90.53875,23.37971],[90.55247,23.36359],[90.57122,23.35118],[90.57476,23.33763],[90.58162,23.33643],[90.56551,23.3175],[90.56209,23.30468],[90.55584,23.30525],[90.55455,23.29787],[90.58183,23.2526],[90.59265,23.25254],[90.59555,23.2474],[90.59205,23.22664],[90.59483,23.20715],[90.58774,23.18712],[90.58044,23.18234],[90.57994,23.1737],[90.56453,23.1607],[90.56713,23.14061],[90.55564,23.12453],[90.52721,23.11665],[90.52884,23.10455],[90.55388,23.06826],[90.59539,23.03034],[90.61498,23.00468],[90.63718,22.99883],[90.65758,22.97793],[90.67579,22.94235],[90.69421,22.92476],[90.70154,22.91174],[90.69911,22.90375],[90.67355,22.90002],[90.66122,22.90364],[90.66251,22.88349],[90.68152,22.8743],[90.67957,22.8664],[90.67202,22.86451],[90.68005,22.85925],[90.69006,22.86759],[90.71645,22.86823],[90.72112,22.81165],[90.72859,22.80257],[90.751,22.79281],[90.76582,22.77959],[90.78346,22.66104],[90.81419,22.63927],[90.89491,22.55483],[90.99053,22.3895],[91.02367,22.29431],[91.01508,22.25686],[91.02131,22.19188],[90.99312,22.12156],[91.02107,22.11843],[91.02374,22.10336],[91.03797,22.09173],[91.04771,22.08758],[91.06131,22.09595],[91.10128,22.13597],[91.12862,22.14493],[91.17553,22.19108],[91.17934,22.21969],[91.18925,22.24254],[91.18811,22.27174],[91.20815,22.26938],[91.2086,22.2764],[91.18726,22.37431],[91.22753,22.36121],[91.2214,22.453],[91.21395,22.45888],[91.18953,22.45944],[91.18415,22.50749],[91.25253,22.50669],[91.26329,22.5188],[91.23808,22.54275],[91.26971,22.54313],[91.26578,22.52043],[91.29086,22.48353],[91.31877,22.49929],[91.30985,22.50736],[91.32778,22.5014],[91.33489,22.50861],[91.32637,22.51704],[91.33184,22.51663],[91.32992,22.52064],[91.34357,22.51689],[91.34209,22.52563],[91.3374,22.52567],[91.33473,22.53223],[91.34058,22.53073],[91.34462,22.54414],[91.34293,22.53143],[91.35305,22.5259],[91.35486,22.55168],[91.34589,22.55357],[91.35334,22.55533],[91.3526,22.55969],[91.33817,22.5649],[91.32361,22.55854],[91.29965,22.60529],[91.27213,22.63804],[91.28534,22.65125],[91.3112,22.6618],[91.31735,22.65555],[91.33287,22.65988],[91.3664,22.65444],[91.37522,22.67071],[91.37566,22.686],[91.40037,22.67048],[91.40681,22.68386],[91.39223,22.70481],[91.38494,22.70802],[91.37949,22.70434],[91.38382,22.71197],[91.38136,22.71662],[91.45305,22.69067],[91.51788,22.63161],[91.52106,22.61778],[91.55723,22.57919],[91.61573,22.4966],[91.63491,22.4509],[91.64397,22.40669],[91.7399,22.40845],[91.75158,22.3771],[91.74222,22.37621],[91.75497,22.28509],[91.77332,22.26296],[91.77853,22.23213],[91.81217,22.20784],[91.81394,22.19873],[91.80869,22.1892],[91.81135,22.17293],[91.83797,22.11622],[91.84362,22.10993],[91.85769,22.10821],[91.86843,22.06225],[91.88035,22.04537],[91.87808,22.0308],[91.88511,22.0126],[91.8781,21.9438],[91.89799,21.94146],[91.90671,21.93018],[91.9044,21.91246],[91.91432,21.85778],[91.90401,21.8591],[91.89269,21.81998],[91.85575,21.73149],[91.87282,21.72224],[91.85598,21.6906],[91.85447,21.67225],[91.84356,21.64766],[91.84645,21.58704],[91.85306,21.5713],[91.84989,21.54481],[91.8419,21.53389],[91.84727,21.51895],[91.86638,21.49556],[91.89394,21.47446],[91.91764,21.47415],[91.92183,21.49096],[91.93792,21.49581],[91.94425,21.50348],[91.9528,21.4976],[91.96177,21.49994],[91.97564,21.4806],[91.97543,21.47482],[91.96248,21.47417],[91.9463,21.46188],[92.01879,21.36602],[92.03502,21.31478],[92.04248,21.30461],[92.04799,21.28624],[92.04377,21.23449],[92.04618,21.18457],[92.05444,21.16703],[92.18524,21.0108],[92.21746,20.92668],[92.28077,20.82699],[92.31427,20.74364],[92.34563,20.72015],[92.36869,20.71779],[92.36097,20.73937],[92.36181,20.75007],[92.34672,20.77809],[92.31586,20.88471],[92.2841,20.91918],[92.27087,20.94044],[92.27155,20.98079],[92.26364,21.01175],[92.25402,21.02366],[92.25671,21.04818],[92.26459,21.06226],[92.25883,21.07917],[92.23406,21.09706],[92.22391,21.12044],[92.20749,21.11898],[92.20135,21.12406],[92.19813,21.13824],[92.20339,21.15039],[92.19975,21.1615],[92.17743,21.15949],[92.17342,21.1699],[92.17484,21.18276],[92.20035,21.20076],[92.2106,21.2239],[92.22068,21.23355],[92.21198,21.24813],[92.21988,21.25747],[92.21747,21.27822],[92.1984,21.30946],[92.19735,21.3284],[92.22434,21.3519],[92.23117,21.34915],[92.23337,21.3539],[92.25282,21.35652],[92.25863,21.36338],[92.25259,21.37242],[92.25702,21.37773],[92.25376,21.38544],[92.26956,21.40004],[92.26348,21.40872],[92.26869,21.41367],[92.26921,21.4277],[92.29161,21.43096],[92.29728,21.41905],[92.30156,21.42382],[92.31086,21.41704],[92.31598,21.42121],[92.3295,21.41922],[92.32685,21.43151],[92.33705,21.43587],[92.3435,21.46705],[92.35212,21.46224],[92.36682,21.47959],[92.37972,21.48122],[92.40381,21.45723],[92.41201,21.44201],[92.42653,21.43222],[92.43178,21.40715],[92.42781,21.37997],[92.43904,21.36556],[92.45757,21.36922],[92.47022,21.36232],[92.4741,21.35445],[92.48481,21.35755],[92.49735,21.35147],[92.50919,21.36172],[92.50712,21.37767],[92.5251,21.3715],[92.54167,21.38103],[92.55793,21.38338],[92.58964,21.27934],[92.59533,21.24453],[92.62039,21.24952],[92.62174,21.25835],[92.63522,21.27241],[92.64417,21.27305],[92.65022,21.2811],[92.65442,21.27744],[92.67524,21.28421],[92.68005,21.28947],[92.6783,21.29926],[92.66518,21.31728],[92.65186,21.35703],[92.6493,21.39121],[92.62701,21.46227],[92.61482,21.56842],[92.60849,21.58369],[92.6096,21.62192],[92.6015,21.65721],[92.60608,21.68922],[92.59996,21.70178],[92.6109,21.77566],[92.60716,21.80215],[92.60919,21.81622],[92.62116,21.82464],[92.61461,21.83105],[92.61327,21.85016],[92.62087,21.86106],[92.63128,21.86217],[92.63238,21.8751],[92.60435,21.97899],[92.61044,21.99255],[92.59731,22.00836],[92.5993,22.02705],[92.59178,22.04091],[92.59924,22.06031],[92.59077,22.06686],[92.58897,22.08167],[92.58121,22.09043],[92.57282,22.11754],[92.56143,22.12829],[92.57882,22.14327],[92.59118,22.14011],[92.59074,22.12914],[92.59872,22.12404],[92.6059,22.12579],[92.61006,22.13593],[92.60745,22.1712],[92.59459,22.17501],[92.59599,22.19044],[92.58763,22.21852],[92.58994,22.25418],[92.57628,22.27155],[92.58103,22.27504],[92.57678,22.28396],[92.58068,22.2857],[92.57764,22.28782],[92.58224,22.29817],[92.57739,22.31047],[92.5803,22.31775],[92.57464,22.32736],[92.57047,22.35899],[92.55903,22.38138],[92.56181,22.38921],[92.5567,22.39899],[92.56027,22.4024],[92.55516,22.40493],[92.55676,22.40938],[92.55289,22.40793],[92.55465,22.41741],[92.5509,22.41941],[92.55449,22.43049],[92.54515,22.46877],[92.54622,22.49551],[92.54274,22.4975],[92.54966,22.50188],[92.5512,22.50952],[92.54659,22.50979],[92.55101,22.51304],[92.54371,22.51305],[92.53965,22.54052],[92.5218,22.55985],[92.52813,22.56619],[92.52723,22.57327],[92.53765,22.57494],[92.53725,22.58556],[92.5325,22.58704],[92.53906,22.58925],[92.53017,22.60469],[92.52989,22.60931],[92.53536,22.61156],[92.52754,22.62125],[92.53221,22.63332],[92.52602,22.6338],[92.5248,22.64027],[92.52702,22.65102],[92.52352,22.65733],[92.52834,22.65878],[92.52867,22.6651],[92.5134,22.70869],[92.51726,22.71688],[92.50934,22.72931],[92.51249,22.73283],[92.47781,22.74965],[92.47013,22.79869],[92.45588,22.8202],[92.45573,22.82687],[92.46236,22.83206],[92.45383,22.84332],[92.46457,22.84222],[92.45828,22.85198],[92.4647,22.85612],[92.45474,22.86629],[92.45965,22.87133],[92.44803,22.87806],[92.44694,22.89637],[92.43408,22.88577],[92.42184,22.90516],[92.42076,22.91957],[92.41411,22.91503],[92.40384,22.91742],[92.40177,22.9123],[92.39704,22.91571],[92.40082,22.92628],[92.39718,22.93054],[92.37617,22.92942],[92.37198,22.93519],[92.37746,22.94756],[92.37437,22.97167],[92.38452,22.98322],[92.38381,23.01015],[92.37957,23.01196],[92.38261,23.03705],[92.39246,23.05237],[92.379,23.08667],[92.37231,23.0872],[92.36873,23.0973],[92.36283,23.09812],[92.35775,23.10694],[92.36718,23.12639],[92.35675,23.13408],[92.36383,23.15583],[92.3552,23.17917],[92.36004,23.18137],[92.353,23.18601],[92.35477,23.21509],[92.35001,23.23502],[92.39848,23.23619],[92.40051,23.23994],[92.39211,23.24922],[92.39402,23.25554],[92.38684,23.26523],[92.39287,23.26538],[92.38828,23.28121],[92.38237,23.28559],[92.38702,23.30537],[92.37813,23.31267],[92.37772,23.32035],[92.36971,23.32372],[92.36881,23.31865],[92.36547,23.32343],[92.3755,23.33447],[92.3811,23.35034],[92.37682,23.35644],[92.37895,23.3634],[92.37016,23.36673],[92.36994,23.37254],[92.36382,23.36672],[92.35789,23.37036],[92.35711,23.37454],[92.36469,23.37981],[92.35422,23.38126],[92.3585,23.3895],[92.35488,23.38888],[92.35135,23.4045],[92.35485,23.40356],[92.35582,23.40887],[92.34707,23.41212],[92.34421,23.43259],[92.33009,23.42819],[92.32697,23.44812],[92.33207,23.45453],[92.325,23.45919],[92.32958,23.46601],[92.31865,23.46966],[92.32684,23.47812],[92.31753,23.48688],[92.32281,23.49094],[92.31816,23.49357],[92.31813,23.5184],[92.31347,23.51793],[92.31733,23.52833],[92.3072,23.53587],[92.31291,23.55492],[92.30654,23.56506],[92.30736,23.57861],[92.3007,23.59397],[92.29587,23.58801],[92.28898,23.59869],[92.28597,23.59661],[92.28738,23.61861],[92.29668,23.62402],[92.2809,23.63234],[92.27901,23.62576],[92.27711,23.63303],[92.28147,23.63951],[92.27355,23.64376],[92.28918,23.67494],[92.2892,23.70116],[92.26561,23.72506],[92.24099,23.71982],[92.23691,23.71188],[92.24286,23.69557],[92.23239,23.68452],[92.23266,23.66692],[92.22556,23.6546],[92.21262,23.65246],[92.20603,23.67282],[92.21392,23.68406],[92.21135,23.69279],[92.20022,23.70702],[92.17681,23.70809],[92.17731,23.71629],[92.16988,23.72275],[92.17248,23.73704],[92.16077,23.73906],[92.14471,23.73339],[92.12448,23.70616],[92.12294,23.69604],[92.10708,23.68921],[92.09904,23.67609],[92.08281,23.68011],[92.07704,23.66778],[92.0796,23.64821],[92.06287,23.64539],[92.04147,23.64812],[92.03021,23.65839],[92.02263,23.65806],[92.02438,23.66268],[92.0153,23.65942],[92.00839,23.66416],[92.00624,23.67023],[92.00057,23.67137],[91.97842,23.73378],[91.96763,23.7297],[91.96673,23.73404],[91.95665,23.73393],[91.95089,23.72571],[91.95421,23.71935],[91.94846,23.71398],[91.95122,23.69905],[91.95766,23.69493],[91.94241,23.69399],[91.9342,23.68552],[91.94628,23.64617],[91.9465,23.63846],[91.94109,23.63464],[91.95301,23.60847],[91.95948,23.56291],[91.95733,23.55131],[91.96473,23.53445],[91.95663,23.52955],[91.95643,23.52276],[91.97077,23.50282],[91.96372,23.49754],[91.96646,23.46777],[91.9616,23.46301],[91.95091,23.46549],[91.9398,23.44998],[91.91962,23.45217],[91.84983,23.40099],[91.84231,23.39059],[91.83699,23.36034],[91.82091,23.35915],[91.82833,23.3753],[91.82521,23.40107],[91.81597,23.39868],[91.81237,23.38536],[91.79932,23.39663],[91.78947,23.39759],[91.79749,23.36363],[91.7843,23.35201],[91.78749,23.33916],[91.74308,23.30669],[91.76546,23.29932],[91.75964,23.28228],[91.76428,23.27301],[91.77561,23.26769],[91.77395,23.25532],[91.77847,23.25201],[91.77495,23.24275],[91.78284,23.23984],[91.78992,23.21929],[91.78625,23.21626],[91.7904,23.20922],[91.78734,23.20494],[91.79723,23.19441],[91.79376,23.18674],[91.80459,23.17973],[91.80435,23.16782],[91.8087,23.16451],[91.80537,23.15747],[91.81264,23.14518],[91.80682,23.13484],[91.81314,23.13319],[91.80993,23.12146],[91.81688,23.10604],[91.81205,23.09767],[91.82421,23.09873],[91.83376,23.09408],[91.81455,23.0807],[91.81682,23.07353],[91.80567,23.06382],[91.7945,23.06299],[91.79534,23.06859],[91.78989,23.07139],[91.78813,23.06782],[91.7834,23.07175],[91.7755,23.07],[91.77281,23.06595],[91.77905,23.05858],[91.78346,23.03862],[91.77845,23.03703],[91.77956,23.03023],[91.77407,23.02816],[91.77448,23.03898],[91.76796,23.04117],[91.77078,23.03383],[91.76173,23.03102],[91.74204,23.00654],[91.72536,22.99877],[91.72102,22.99009],[91.7127,22.98823],[91.71373,22.98456],[91.69854,22.98974],[91.6806,22.97721],[91.67669,22.98438],[91.67457,22.9792],[91.65809,22.98121],[91.6523,22.97599],[91.64675,22.98549],[91.63619,22.96292],[91.62435,22.96207],[91.62167,22.94223],[91.61294,22.94824],[91.61462,22.95305],[91.60749,22.95174],[91.60927,22.95741],[91.60085,22.95475],[91.60569,22.96204],[91.61366,22.9595],[91.5994,22.97632],[91.59302,22.97362],[91.59025,22.97768],[91.57713,22.9672],[91.55633,22.97895],[91.55702,22.99613],[91.5467,22.99491],[91.54233,22.99925],[91.54782,23.01951],[91.53842,23.01981],[91.55015,23.03866],[91.5306,23.03869],[91.53667,23.0546],[91.52523,23.05547],[91.5354,23.06383],[91.52561,23.08319],[91.53041,23.0914],[91.51944,23.09442],[91.52271,23.1042],[91.51145,23.10447],[91.51253,23.1131],[91.52036,23.11457],[91.51533,23.11776],[91.51781,23.12559],[91.504,23.12739],[91.5149,23.13866],[91.51527,23.14493],[91.50987,23.14041],[91.49976,23.14247],[91.49518,23.14715],[91.50718,23.1544],[91.49427,23.15234],[91.49096,23.15778],[91.49822,23.17178],[91.49241,23.17208],[91.49164,23.1777],[91.50669,23.18009],[91.50746,23.18381],[91.50096,23.18537],[91.50318,23.19224],[91.49217,23.18901],[91.48844,23.19227],[91.48491,23.18836],[91.47078,23.19653],[91.48242,23.19858],[91.48441,23.20936],[91.47537,23.2205],[91.45837,23.21334],[91.45049,23.21899],[91.47026,23.22779],[91.45787,23.24617],[91.44784,23.24385],[91.446,23.24986],[91.45415,23.2604],[91.43136,23.26259],[91.42487,23.25822],[91.42113,23.26196],[91.41831,23.25574],[91.41527,23.26258],[91.41947,23.27319],[91.41549,23.2826],[91.40883,23.28477],[91.40964,23.25584],[91.3971,23.26508],[91.39708,23.25621],[91.40697,23.24779],[91.39132,23.24675],[91.39845,23.22945],[91.3855,23.22765],[91.39023,23.2201],[91.37913,23.20857],[91.3859,23.20816],[91.38594,23.20431],[91.37845,23.18473],[91.38362,23.17557],[91.38346,23.15643],[91.39655,23.1288],[91.39623,23.11771],[91.40222,23.11351],[91.39964,23.09655],[91.40538,23.09686],[91.40726,23.08353],[91.41637,23.08309],[91.41058,23.06613],[91.41619,23.06455],[91.3957,23.05605],[91.36979,23.06977],[91.34696,23.10165],[91.34713,23.1184],[91.34154,23.11848],[91.33256,23.1531],[91.32352,23.15928],[91.32366,23.23761],[91.31867,23.24515],[91.32556,23.24724],[91.32655,23.25253],[91.31764,23.25349],[91.3111,23.27185],[91.30965,23.27642],[91.31669,23.28141],[91.30237,23.28627],[91.30025,23.29299],[91.30732,23.30061],[91.3153,23.29794],[91.31455,23.30478],[91.3098,23.31463],[91.29651,23.3148],[91.29019,23.31952],[91.29645,23.34076],[91.31049,23.34261],[91.31093,23.35241],[91.3174,23.3528],[91.31956,23.35993],[91.29115,23.35133],[91.29403,23.36129],[91.28633,23.36287],[91.28459,23.37027],[91.29359,23.37124],[91.29383,23.37473],[91.2799,23.37695],[91.27598,23.41409],[91.26376,23.42322],[91.26984,23.42978],[91.25679,23.44089],[91.25151,23.45296],[91.24917,23.48971],[91.2365,23.48965],[91.2355,23.50221],[91.22387,23.49742],[91.21787,23.49966],[91.22315,23.51482],[91.2076,23.51249],[91.20026,23.52067],[91.21254,23.55098],[91.20722,23.54628],[91.20154,23.55076],[91.1942,23.54766],[91.19476,23.56342],[91.18667,23.57817],[91.17485,23.5861],[91.17734,23.59253],[91.16345,23.59475],[91.1573,23.62281],[91.1607,23.65441],[91.15604,23.6709],[91.17154,23.65718],[91.18222,23.65981],[91.19261,23.65443],[91.19064,23.64706],[91.19847,23.64708],[91.20379,23.65054],[91.20056,23.65651],[91.20695,23.68655],[91.19535,23.69195],[91.15317,23.68879],[91.14848,23.71186],[91.1558,23.73658],[91.16766,23.7502],[91.20589,23.75003],[91.21846,23.73682],[91.23044,23.76416],[91.23054,23.78382],[91.22636,23.79112],[91.2329,23.81064],[91.25448,23.83779],[91.23768,23.87423],[91.22961,23.88084],[91.2289,23.89832],[91.24389,23.90609],[91.24581,23.91305],[91.24113,23.92285],[91.23337,23.92691],[91.2753,23.92468],[91.2726,23.93777],[91.26409,23.94536],[91.27133,23.96301],[91.28507,23.98236],[91.28756,23.96782],[91.29936,23.9717],[91.30348,23.99616],[91.29613,24.00071],[91.29551,24.00696],[91.30905,24.01775],[91.30905,24.02375],[91.30394,24.02615],[91.31358,24.03141],[91.3127,24.04123],[91.30398,24.04545],[91.30421,24.05729],[91.29275,24.0626],[91.28563,24.06085],[91.2848,24.0752],[91.29271,24.09451],[91.27927,24.09071],[91.26801,24.09467],[91.26953,24.11279],[91.28408,24.11201],[91.28394,24.11852],[91.29344,24.11975],[91.27112,24.12471],[91.27097,24.14285],[91.26168,24.14605],[91.26822,24.14943],[91.26854,24.15966],[91.27574,24.15852],[91.27755,24.18277],[91.30803,24.19242],[91.31415,24.1856],[91.31332,24.20523],[91.28639,24.19646],[91.27503,24.20453],[91.28435,24.20978],[91.28528,24.21918],[91.29761,24.21441],[91.30085,24.22484],[91.30571,24.22144],[91.31459,24.23196],[91.32427,24.23148],[91.32899,24.25156],[91.32505,24.26251],[91.31291,24.26775],[91.31285,24.26812]]],[[[92.32343,20.63698],[92.31505,20.62813],[92.32495,20.61825],[92.32457,20.59456],[92.33029,20.59061],[92.33205,20.60105],[92.3261,20.61881],[92.32958,20.63596],[92.32364,20.63693],[92.32343,20.63698]]],[[[91.87018,21.92309],[91.84634,21.89935],[91.84733,21.88134],[91.8409,21.85845],[91.85116,21.82446],[91.84213,21.80511],[91.84472,21.7754],[91.83312,21.76028],[91.82943,21.74271],[91.82938,21.72323],[91.83361,21.72114],[91.84572,21.72429],[91.84523,21.74056],[91.85073,21.74508],[91.89463,21.86081],[91.89266,21.89581],[91.87981,21.92114],[91.87059,21.92302],[91.87018,21.92309]]],[[[91.07206,22.0193],[91.0783,22.02402],[91.0758,22.02639],[91.07096,22.02149],[91.07206,22.0193]]],[[[91.08274,22.05355],[91.08272,22.06411],[91.07102,22.06371],[91.04929,22.05467],[91.04837,22.04861],[91.05645,22.05176],[91.05862,22.03028],[91.08258,22.05312],[91.08274,22.05355]]],[[[91.03375,22.08376],[91.00332,22.10052],[90.98021,22.08154],[90.97495,22.07171],[90.97471,22.05152],[90.98343,22.02793],[90.9927,22.0231],[91.02474,22.04398],[91.02016,22.03449],[91.03419,22.03857],[91.04976,22.07195],[91.04405,22.08337],[91.03584,22.08365],[91.03375,22.08376]]],[[[91.37673,22.35207],[91.39841,22.37501],[91.39694,22.38894],[91.36319,22.37038],[91.36956,22.355],[91.37551,22.3519],[91.37673,22.35207]]],[[[91.25624,22.40976],[91.26385,22.41463],[91.26637,22.42316],[91.25648,22.43548],[91.24575,22.42629],[91.25511,22.40968],[91.25624,22.40976]]],[[[91.2771,22.4411],[91.2769,22.4476],[91.27264,22.44845],[91.27049,22.44397],[91.27637,22.44087],[91.2771,22.4411]]],[[[91.35719,22.60175],[91.34976,22.60989],[91.34924,22.60416],[91.35611,22.60166],[91.35719,22.60175]]],[[[91.35339,22.59951],[91.34389,22.61149],[91.33707,22.60846],[91.33659,22.59908],[91.33489,22.61121],[91.32349,22.61039],[91.34364,22.58331],[91.3536,22.58603],[91.3533,22.59879],[91.35339,22.59951]]],[[[91.559,22.47908],[91.53992,22.51445],[91.50225,22.56668],[91.45609,22.61334],[91.43943,22.61813],[91.42818,22.61032],[91.41014,22.58245],[91.41382,22.56561],[91.39039,22.56552],[91.38469,22.55881],[91.38293,22.48655],[91.39874,22.44347],[91.38271,22.4395],[91.40666,22.42836],[91.4073,22.42212],[91.41872,22.41746],[91.4409,22.39737],[91.46072,22.39381],[91.47676,22.40059],[91.48636,22.39287],[91.51574,22.38579],[91.56345,22.39878],[91.57831,22.42602],[91.56318,22.46966],[91.559,22.47908]]]]},"id":"BD20"},{"type":"Feature","properties":{"code":"BD30","name":"Dhaka","parent_code":"BD"},"geometry":{"type":"Polygon","coordinates":[[[90.07791,24.78691],[90.04849,24.77551],[90.03332,24.78095],[90.02447,24.77617],[90.02113,24.75573],[90.01048,24.74714],[89.99765,24.74559],[89.99097,24.72835],[89.97564,24.72304],[89.95533,24.7341],[89.96048,24.73759],[89.95662,24.74448],[89.94069,24.74405],[89.93454,24.76141],[89.91844,24.75814],[89.92488,24.75409],[89.92396,24.7469],[89.91427,24.74866],[89.90856,24.7398],[89.89979,24.74654],[89.90046,24.73937],[89.87983,24.74753],[89.88293,24.74416],[89.87763,24.73771],[89.87782,24.71401],[89.89179,24.70199],[89.89706,24.68225],[89.88688,24.67511],[89.87651,24.67993],[89.86509,24.66351],[89.86848,24.65361],[89.86451,24.65036],[89.8426,24.64857],[89.84702,24.64162],[89.84162,24.63754],[89.8507,24.62175],[89.84088,24.62703],[89.83611,24.61412],[89.82651,24.61394],[89.83286,24.60764],[89.82324,24.60085],[89.82826,24.59212],[89.82173,24.59257],[89.81657,24.58571],[89.81145,24.58903],[89.81169,24.58345],[89.81804,24.58126],[89.80963,24.57641],[89.81138,24.57096],[89.78916,24.57469],[89.77386,24.56587],[89.76865,24.55746],[89.77085,24.54128],[89.7487,24.53888],[89.74955,24.5214],[89.74163,24.52384],[89.73674,24.5196],[89.75276,24.50554],[89.75688,24.5065],[89.75937,24.50025],[89.75055,24.483],[89.76071,24.48426],[89.75204,24.47244],[89.74502,24.47043],[89.74576,24.45511],[89.75746,24.45441],[89.75008,24.43916],[89.75091,24.42774],[89.75963,24.40719],[89.76857,24.40855],[89.77626,24.39495],[89.76476,24.39546],[89.76763,24.3763],[89.75452,24.36016],[89.75345,24.34991],[89.77388,24.33202],[89.77589,24.30531],[89.78949,24.29042],[89.79275,24.27482],[89.7871,24.23403],[89.80324,24.17413],[89.78852,24.17131],[89.78341,24.16551],[89.79038,24.15801],[89.80578,24.16106],[89.81233,24.14801],[89.82289,24.14201],[89.81912,24.10966],[89.82626,24.08783],[89.81795,24.06507],[89.79609,24.04449],[89.78616,24.04158],[89.78311,24.03153],[89.76738,24.02437],[89.73371,24.01903],[89.70727,23.99983],[89.69814,23.98767],[89.69741,23.9433],[89.6871,23.94],[89.6885,23.92701],[89.69863,23.9256],[89.70091,23.89774],[89.70623,23.89245],[89.70119,23.88842],[89.69875,23.86693],[89.70646,23.87683],[89.71452,23.85805],[89.73381,23.84011],[89.73579,23.83128],[89.70741,23.81502],[89.67017,23.8094],[89.64917,23.81692],[89.6376,23.80941],[89.58676,23.8137],[89.57719,23.80627],[89.55109,23.81602],[89.52729,23.81544],[89.46555,23.84509],[89.40921,23.88346],[89.39147,23.90461],[89.36743,23.90888],[89.36863,23.8931],[89.35857,23.88845],[89.35772,23.87648],[89.36376,23.87145],[89.35107,23.86256],[89.35075,23.84241],[89.33548,23.83059],[89.33623,23.81919],[89.32667,23.7935],[89.32982,23.77847],[89.31097,23.77581],[89.31012,23.7686],[89.32181,23.76793],[89.31861,23.75783],[89.31433,23.7486],[89.30469,23.74667],[89.29649,23.73793],[89.30905,23.73327],[89.31224,23.72054],[89.3214,23.71411],[89.32206,23.70378],[89.34828,23.68403],[89.34876,23.67207],[89.37309,23.66694],[89.38368,23.67235],[89.3811,23.6765],[89.40922,23.68401],[89.44226,23.65705],[89.43713,23.64656],[89.44212,23.63956],[89.47298,23.63492],[89.48627,23.62485],[89.48726,23.61717],[89.47253,23.59709],[89.48563,23.59364],[89.49924,23.57898],[89.50769,23.54748],[89.53945,23.53582],[89.53368,23.52962],[89.50701,23.52668],[89.49251,23.51596],[89.48854,23.49173],[89.49355,23.47895],[89.50293,23.47519],[89.51286,23.47786],[89.50838,23.49671],[89.51281,23.49579],[89.51782,23.51138],[89.52626,23.51329],[89.5759,23.49605],[89.60506,23.47417],[89.60223,23.42375],[89.61283,23.38338],[89.59854,23.38076],[89.60615,23.37107],[89.60379,23.35544],[89.6121,23.34416],[89.60478,23.3346],[89.62503,23.29401],[89.65588,23.28735],[89.66884,23.278],[89.64805,23.27347],[89.63686,23.26584],[89.63055,23.25486],[89.63219,23.2401],[89.63984,23.23621],[89.66868,23.24434],[89.6845,23.22932],[89.68863,23.22194],[89.68388,23.21162],[89.68852,23.21105],[89.68194,23.20132],[89.67865,23.18209],[89.69007,23.16199],[89.73826,23.1852],[89.75306,23.18576],[89.76553,23.17735],[89.76073,23.17245],[89.73339,23.1676],[89.73008,23.15663],[89.74208,23.1377],[89.73805,23.12789],[89.72298,23.12137],[89.70968,23.1229],[89.69989,23.11132],[89.69065,23.12616],[89.67753,23.12935],[89.67026,23.12432],[89.67265,23.1147],[89.70072,23.08877],[89.7316,23.07958],[89.73581,23.0699],[89.72848,23.05353],[89.74617,23.0487],[89.76011,23.00982],[89.79707,22.9967],[89.79322,22.98106],[89.80711,22.96307],[89.80179,22.94309],[89.82596,22.93397],[89.83954,22.91997],[89.85336,22.89449],[89.83726,22.89404],[89.83663,22.88816],[89.86969,22.87525],[89.87016,22.88824],[89.91524,22.88177],[89.9188,22.86746],[89.94232,22.84596],[89.93971,22.86485],[89.95293,22.85339],[89.96281,22.85286],[89.96965,22.85901],[89.9861,22.86102],[89.98776,22.86569],[90.01827,22.86859],[90.01868,22.88847],[90.03285,22.91816],[90.03476,22.93403],[90.05764,22.93367],[90.06109,22.94289],[90.05697,22.94714],[90.05784,22.97081],[90.06904,22.96761],[90.077,22.98277],[90.08379,22.98046],[90.09468,23.00701],[90.12638,23.00513],[90.12731,23.02614],[90.13638,23.04435],[90.14385,23.04807],[90.13597,23.05204],[90.15414,23.05546],[90.15656,23.06643],[90.16289,23.07072],[90.19889,23.05963],[90.21437,23.07442],[90.226,23.05638],[90.23529,23.05036],[90.23782,23.0451],[90.23191,23.02892],[90.22893,22.98797],[90.23829,22.96269],[90.23774,22.96783],[90.24776,22.97802],[90.25819,22.97605],[90.25695,22.96611],[90.27376,22.97595],[90.2899,22.97422],[90.32259,22.98503],[90.32951,23.00832],[90.3116,23.03461],[90.31293,23.05365],[90.37049,23.05892],[90.41041,23.04375],[90.41944,23.04473],[90.42727,23.03742],[90.41161,23.02139],[90.4145,23.00856],[90.4188,23.00669],[90.45345,23.01825],[90.45688,23.01296],[90.47473,23.01337],[90.49335,23.02099],[90.49515,23.03344],[90.5111,23.04228],[90.50165,23.05828],[90.5068,23.06138],[90.51552,23.05625],[90.5161,23.08076],[90.54483,23.08013],[90.53292,23.09354],[90.52721,23.11665],[90.55564,23.12453],[90.56713,23.14061],[90.56631,23.16482],[90.57994,23.1737],[90.58044,23.18234],[90.58774,23.18712],[90.59483,23.20715],[90.59205,23.22664],[90.59555,23.2474],[90.59265,23.25254],[90.58183,23.2526],[90.55455,23.29787],[90.55584,23.30525],[90.56209,23.30468],[90.56551,23.3175],[90.58162,23.33643],[90.57476,23.33763],[90.57122,23.35118],[90.55247,23.36359],[90.53875,23.37971],[90.54287,23.40132],[90.57763,23.45285],[90.57771,23.47089],[90.58174,23.47211],[90.5842,23.48372],[90.57758,23.48576],[90.57627,23.49343],[90.60581,23.49551],[90.62001,23.49035],[90.64247,23.50437],[90.68,23.4935],[90.70024,23.50271],[90.70756,23.51465],[90.68666,23.54759],[90.68421,23.55899],[90.66781,23.57115],[90.6515,23.57154],[90.64474,23.57689],[90.64763,23.58909],[90.66377,23.5916],[90.65102,23.61834],[90.63904,23.61447],[90.6252,23.6192],[90.63636,23.63934],[90.64428,23.67523],[90.66352,23.67458],[90.67867,23.68296],[90.70675,23.6665],[90.72227,23.66484],[90.73298,23.66986],[90.74134,23.69379],[90.73649,23.70935],[90.72355,23.72502],[90.72151,23.74057],[90.7662,23.80467],[90.76648,23.82518],[90.75926,23.85037],[90.76599,23.86363],[90.83044,23.86407],[90.85912,23.87867],[90.89812,23.86453],[90.91495,23.87621],[90.93116,23.91339],[90.95119,23.93025],[90.95434,23.95906],[90.97303,23.97301],[90.96901,24.0026],[90.9733,24.01888],[90.99519,24.04502],[91.03647,24.07202],[91.05051,24.09133],[91.05004,24.10381],[91.04089,24.11894],[90.99734,24.14284],[90.98488,24.16322],[91.01857,24.18655],[91.03908,24.21373],[91.09121,24.21181],[91.08942,24.22004],[91.07875,24.22808],[91.08492,24.24035],[91.13955,24.24429],[91.18999,24.27448],[91.19759,24.28457],[91.19756,24.2934],[91.15844,24.2826],[91.17075,24.31727],[91.19012,24.32303],[91.23691,24.31728],[91.23615,24.33522],[91.21361,24.36249],[91.21997,24.36778],[91.23178,24.36722],[91.24291,24.38063],[91.25306,24.37789],[91.25668,24.3813],[91.24279,24.39513],[91.23887,24.40801],[91.22018,24.4114],[91.2212,24.40413],[91.21472,24.40363],[91.22054,24.41948],[91.21746,24.43326],[91.22894,24.43433],[91.24337,24.42811],[91.23804,24.45965],[91.22774,24.48191],[91.21648,24.48338],[91.21943,24.47421],[91.20683,24.47939],[91.20056,24.46608],[91.1908,24.46408],[91.18483,24.47025],[91.1892,24.47675],[91.19599,24.47701],[91.19384,24.48014],[91.1661,24.48407],[91.15574,24.47634],[91.15067,24.47958],[91.1721,24.50131],[91.1806,24.49387],[91.18556,24.49589],[91.21158,24.52146],[91.22692,24.5546],[91.22635,24.56286],[91.23367,24.57116],[91.22602,24.57675],[91.20667,24.5784],[91.20657,24.58723],[91.19746,24.59034],[91.20529,24.59553],[91.20111,24.60985],[91.17744,24.62068],[91.17863,24.63196],[91.19616,24.62599],[91.19294,24.64154],[91.1844,24.63936],[91.17568,24.64648],[91.16358,24.63553],[91.15535,24.64243],[91.13835,24.63783],[91.13084,24.64534],[91.12952,24.63236],[91.13495,24.62472],[91.12986,24.61298],[91.11721,24.60866],[91.10475,24.61114],[91.10548,24.60251],[91.09973,24.60861],[91.0995,24.60265],[91.09325,24.60492],[91.07339,24.62207],[91.03946,24.61261],[91.03672,24.61997],[91.043,24.62618],[91.03044,24.63097],[91.02147,24.61875],[91.01873,24.60501],[91.01168,24.6077],[90.99405,24.60344],[90.98555,24.60721],[90.97762,24.60148],[90.96364,24.61382],[90.95372,24.60434],[90.9476,24.60767],[90.93634,24.60288],[90.92969,24.61458],[90.91463,24.61453],[90.91692,24.59989],[90.9093,24.59597],[90.90568,24.60096],[90.88796,24.60157],[90.88093,24.5938],[90.86582,24.59548],[90.86343,24.6013],[90.85274,24.59862],[90.84181,24.58098],[90.82137,24.58711],[90.82042,24.57355],[90.80998,24.56444],[90.81462,24.55714],[90.80858,24.54881],[90.80926,24.54059],[90.80623,24.53884],[90.80336,24.54478],[90.80399,24.53009],[90.79695,24.51884],[90.79186,24.5181],[90.79351,24.50801],[90.75789,24.51224],[90.75258,24.50256],[90.74299,24.50844],[90.73577,24.48544],[90.72204,24.47043],[90.71596,24.49034],[90.70451,24.49867],[90.70269,24.51495],[90.6828,24.50136],[90.68572,24.4872],[90.67936,24.4805],[90.67897,24.4669],[90.66456,24.46706],[90.64838,24.47809],[90.63741,24.47621],[90.63796,24.48105],[90.63147,24.48029],[90.6146,24.49654],[90.5955,24.49883],[90.58365,24.49443],[90.58338,24.48592],[90.57573,24.48218],[90.57582,24.46691],[90.58761,24.44631],[90.63475,24.434],[90.6479,24.41585],[90.63361,24.35909],[90.61942,24.33886],[90.64175,24.30916],[90.64409,24.27892],[90.65155,24.27076],[90.6513,24.26089],[90.62287,24.27159],[90.57351,24.24805],[90.5446,24.26825],[90.5469,24.27474],[90.52138,24.28706],[90.52949,24.30329],[90.51385,24.31178],[90.48916,24.31351],[90.45518,24.34095],[90.43781,24.34012],[90.42702,24.33175],[90.42862,24.30941],[90.41663,24.30343],[90.40263,24.28224],[90.39339,24.28034],[90.38743,24.28901],[90.38016,24.28997],[90.37812,24.28511],[90.36421,24.28109],[90.35835,24.2883],[90.35895,24.29976],[90.35386,24.30068],[90.3455,24.29316],[90.32374,24.29918],[90.28827,24.27756],[90.28058,24.28757],[90.26171,24.29084],[90.24829,24.33343],[90.23417,24.33508],[90.22988,24.34691],[90.24891,24.41521],[90.24181,24.41434],[90.23116,24.42187],[90.22208,24.43525],[90.22065,24.4491],[90.21324,24.45191],[90.2117,24.4629],[90.2249,24.46377],[90.22648,24.47],[90.24605,24.48212],[90.23709,24.48758],[90.22867,24.48405],[90.21577,24.49943],[90.20733,24.49816],[90.20421,24.5031],[90.21035,24.50983],[90.19402,24.5146],[90.18698,24.52323],[90.17666,24.51827],[90.17079,24.53782],[90.16325,24.53715],[90.15921,24.54524],[90.15104,24.56782],[90.15574,24.57404],[90.14433,24.57599],[90.13007,24.59511],[90.13498,24.61634],[90.13922,24.615],[90.14323,24.6232],[90.14809,24.62315],[90.15241,24.63399],[90.15161,24.64943],[90.14506,24.65525],[90.14296,24.68005],[90.13472,24.69104],[90.1371,24.7004],[90.12902,24.717],[90.13569,24.73347],[90.13044,24.73796],[90.09204,24.73669],[90.09067,24.75169],[90.09926,24.7566],[90.09362,24.75817],[90.09331,24.76852],[90.07813,24.78673],[90.07791,24.78691]]]},"id":"BD30"},{"type":"Feature","properties":{"code":"BD40","name":"Khulna","parent_code":"BD"},"geometry":{"type":"Polygon","coordinates":[[[88.74678,24.20032],[88.73478,24.21947],[88.73125,24.17261],[88.74645,24.14695],[88.70787,24.11912],[88.6985,24.12008],[88.69414,24.11064],[88.7007,24.10749],[88.70098,24.09436],[88.72045,24.1041],[88.72866,24.09946],[88.72342,24.06917],[88.73753,24.06182],[88.72679,24.05417],[88.73651,24.04864],[88.72421,24.04797],[88.72383,24.04302],[88.74214,24.03329],[88.73469,24.02251],[88.72848,23.99654],[88.73591,23.99575],[88.74611,24.00573],[88.7585,24.00609],[88.76847,23.98208],[88.73744,23.98234],[88.73275,23.96108],[88.74238,23.95146],[88.73854,23.94962],[88.74334,23.93007],[88.73492,23.93315],[88.73553,23.9143],[88.72988,23.91076],[88.72302,23.91631],[88.71333,23.91308],[88.70663,23.91643],[88.69932,23.91024],[88.70404,23.90739],[88.6999,23.90539],[88.7044,23.89959],[88.68828,23.9013],[88.68323,23.88909],[88.66434,23.88229],[88.66743,23.86962],[88.65349,23.86571],[88.63748,23.87131],[88.62757,23.86518],[88.62516,23.87466],[88.6186,23.87674],[88.60955,23.87298],[88.60733,23.86258],[88.58763,23.87138],[88.5826,23.86305],[88.57573,23.86207],[88.57805,23.85114],[88.58616,23.8561],[88.59138,23.85272],[88.58653,23.83131],[88.60224,23.81705],[88.594,23.80943],[88.58496,23.81358],[88.59621,23.80545],[88.59166,23.79802],[88.58115,23.79658],[88.57699,23.78586],[88.55672,23.78495],[88.56569,23.77692],[88.57907,23.77526],[88.58073,23.75946],[88.57059,23.74859],[88.57484,23.74022],[88.57218,23.73456],[88.57553,23.73873],[88.57668,23.73341],[88.56894,23.72735],[88.56524,23.71384],[88.57412,23.66779],[88.55808,23.6496],[88.56357,23.64566],[88.56225,23.63734],[88.59352,23.64097],[88.59371,23.61728],[88.58544,23.61618],[88.58096,23.60291],[88.59695,23.60189],[88.6062,23.6105],[88.60185,23.60708],[88.60822,23.60496],[88.60584,23.60005],[88.63012,23.60897],[88.63697,23.60704],[88.63983,23.61123],[88.64565,23.60874],[88.63803,23.59774],[88.63871,23.5911],[88.64378,23.59164],[88.65071,23.58377],[88.65394,23.55618],[88.65968,23.54921],[88.67464,23.54801],[88.68292,23.54187],[88.68443,23.52958],[88.69134,23.53102],[88.69127,23.52477],[88.69634,23.52508],[88.69553,23.51733],[88.70578,23.51701],[88.71371,23.5086],[88.72429,23.51231],[88.73056,23.50372],[88.72931,23.49624],[88.74389,23.48354],[88.74109,23.47985],[88.74792,23.48274],[88.76107,23.47873],[88.75682,23.48675],[88.76083,23.49042],[88.7676,23.48187],[88.77483,23.48058],[88.76848,23.48864],[88.77026,23.4976],[88.78675,23.50728],[88.78409,23.49799],[88.7943,23.50247],[88.80062,23.49816],[88.79582,23.48627],[88.80137,23.48668],[88.80017,23.48226],[88.78747,23.46988],[88.79198,23.46339],[88.78919,23.44804],[88.79553,23.44333],[88.78535,23.44472],[88.78516,23.43916],[88.77871,23.43765],[88.78223,23.44137],[88.77387,23.4441],[88.77291,23.44901],[88.76483,23.44848],[88.76142,23.42597],[88.75461,23.41613],[88.76145,23.40854],[88.74998,23.40082],[88.75306,23.38944],[88.76206,23.38743],[88.75932,23.37494],[88.76473,23.36664],[88.75839,23.36035],[88.74749,23.36177],[88.74306,23.3543],[88.74604,23.34902],[88.73171,23.35154],[88.73852,23.34342],[88.73226,23.32759],[88.74302,23.32805],[88.74897,23.32175],[88.74439,23.30679],[88.73105,23.30885],[88.7299,23.31993],[88.72478,23.3178],[88.72514,23.29917],[88.71808,23.29772],[88.71906,23.30364],[88.71437,23.30585],[88.70658,23.30374],[88.71114,23.3127],[88.69655,23.30248],[88.69767,23.29205],[88.70838,23.29062],[88.71187,23.27746],[88.72373,23.27286],[88.7184,23.25465],[88.75201,23.24061],[88.76941,23.2452],[88.77834,23.23537],[88.77437,23.22513],[88.7907,23.2186],[88.81132,23.22156],[88.80603,23.23861],[88.81161,23.25672],[88.828,23.24539],[88.8246,23.23331],[88.83667,23.24377],[88.84493,23.23119],[88.85446,23.23633],[88.86064,23.23208],[88.87312,23.23455],[88.88587,23.22613],[88.8868,23.23168],[88.90613,23.23643],[88.91467,23.22847],[88.91535,23.21281],[88.92112,23.21626],[88.91658,23.21946],[88.92632,23.2179],[88.9413,23.20642],[88.96343,23.21486],[88.97027,23.22257],[88.97805,23.21513],[88.97507,23.22431],[88.98037,23.22252],[88.97931,23.21598],[88.98283,23.2215],[88.99509,23.21354],[88.98415,23.21571],[88.97975,23.21218],[88.98735,23.20395],[88.97984,23.19372],[88.97967,23.18291],[88.97556,23.1827],[88.97412,23.19281],[88.96184,23.19313],[88.95569,23.18234],[88.93868,23.1765],[88.93403,23.16233],[88.92792,23.16286],[88.93095,23.14409],[88.92302,23.14491],[88.91785,23.12969],[88.91033,23.12986],[88.90011,23.11266],[88.89229,23.10796],[88.88332,23.1109],[88.88317,23.10447],[88.86833,23.10124],[88.8746,23.09009],[88.86119,23.07742],[88.8736,23.06594],[88.87527,23.0449],[88.88414,23.04034],[88.88091,23.02555],[88.87287,23.01802],[88.87456,23.01089],[88.88098,23.00773],[88.87624,23.0035],[88.84597,23.01019],[88.85163,23.00338],[88.86543,22.99885],[88.86517,22.9857],[88.87105,22.9783],[88.85697,22.96751],[88.85944,22.94292],[88.86936,22.9511],[88.87436,22.94786],[88.87934,22.9536],[88.89406,22.95233],[88.89261,22.93768],[88.88708,22.93308],[88.89158,22.92651],[88.90816,22.9194],[88.90565,22.9145],[88.89523,22.91242],[88.90072,22.9055],[88.89835,22.89783],[88.90759,22.89321],[88.90512,22.88883],[88.9119,22.88117],[88.90941,22.87934],[88.9179,22.87631],[88.92289,22.87968],[88.92828,22.87194],[88.94513,22.87985],[88.96733,22.84375],[88.96213,22.81838],[88.95546,22.81138],[88.95948,22.80802],[88.95856,22.79728],[88.94947,22.79739],[88.94206,22.79054],[88.93797,22.79293],[88.93541,22.78191],[88.92395,22.7796],[88.9256,22.76985],[88.91772,22.77021],[88.91078,22.75814],[88.92074,22.75278],[88.9158,22.73619],[88.92537,22.72794],[88.92798,22.71841],[88.95297,22.70577],[88.96156,22.69305],[88.96117,22.68539],[88.95421,22.68579],[88.94783,22.67811],[88.94479,22.66223],[88.92754,22.64918],[88.93625,22.62503],[88.9571,22.6171],[88.9592,22.61105],[88.93943,22.591],[88.94449,22.56867],[88.92237,22.57031],[88.91908,22.56707],[88.96142,22.55072],[88.9703,22.53103],[88.97533,22.49648],[88.98171,22.48325],[88.99593,22.46974],[88.98875,22.446],[88.99997,22.43009],[88.97112,22.40931],[88.99171,22.38984],[88.98254,22.37521],[88.98924,22.36416],[88.98539,22.32578],[89.00057,22.32371],[89.02454,22.29676],[88.99894,22.29683],[88.99552,22.28541],[89.01988,22.26921],[89.01334,22.25447],[89.03382,22.25898],[89.04025,22.22897],[89.07062,22.19732],[89.07117,22.18752],[89.06148,22.17042],[89.07144,22.14818],[89.07771,22.14669],[89.09029,22.16032],[89.09763,22.15479],[89.09281,22.14452],[89.05355,22.11934],[89.03937,22.09693],[89.04891,22.0563],[89.08007,22.01748],[89.08348,22.00301],[89.07881,21.98498],[89.08124,21.95675],[89.07276,21.92769],[89.03173,21.92268],[89.02363,21.90687],[89.02369,21.88932],[89.04434,21.86119],[89.04234,21.82851],[89.02971,21.79695],[89.02963,21.78169],[89.13553,21.64717],[89.16171,21.6455],[89.17426,21.65371],[89.1975,21.65654],[89.26631,21.6542],[89.3205,21.6734],[89.32594,21.68527],[89.33567,21.67521],[89.34887,21.6709],[89.43384,21.67258],[89.46865,21.67698],[89.49747,21.69245],[89.50834,21.67925],[89.54169,21.66351],[89.63747,21.66376],[89.61306,21.70547],[89.62227,21.74587],[89.65042,21.72932],[89.668,21.73111],[89.69649,21.74448],[89.7157,21.76272],[89.75362,21.83992],[89.83152,21.78572],[89.87926,21.7775],[89.90916,21.78342],[89.90983,21.8318],[89.90264,21.87625],[89.90613,21.91887],[89.89502,21.95789],[89.89831,21.96305],[89.90968,21.96533],[89.90519,21.97004],[89.901,22.00046],[89.8891,22.01746],[89.8855,22.03701],[89.87763,22.04826],[89.89545,22.10059],[89.89614,22.12629],[89.88398,22.19591],[89.86393,22.22442],[89.85736,22.25911],[89.86637,22.30332],[89.89396,22.34662],[89.89883,22.37365],[89.8738,22.40217],[89.86916,22.41558],[89.87515,22.42464],[89.89977,22.4406],[89.93136,22.44554],[89.94044,22.45323],[89.94355,22.46315],[89.94048,22.47093],[89.92978,22.47601],[89.91,22.47184],[89.89023,22.47683],[89.88115,22.4893],[89.88285,22.50157],[89.91315,22.50456],[89.9514,22.49119],[89.96583,22.49271],[89.9672,22.50328],[89.96226,22.50833],[89.92005,22.50932],[89.95139,22.54637],[89.96204,22.5925],[89.95196,22.60004],[89.9155,22.60371],[89.92654,22.64416],[89.90027,22.65043],[89.88681,22.66273],[89.89603,22.67674],[89.90692,22.65591],[89.93731,22.67944],[89.91492,22.69406],[89.89675,22.69647],[89.86559,22.6911],[89.8601,22.69858],[89.86662,22.70658],[89.90668,22.72713],[89.92728,22.7219],[89.93336,22.75162],[89.90915,22.75451],[89.90682,22.77337],[89.921,22.78363],[89.94,22.78321],[89.93317,22.79324],[89.91617,22.7998],[89.91737,22.80899],[89.93975,22.8243],[89.94827,22.82319],[89.94881,22.83581],[89.92993,22.86015],[89.9188,22.86746],[89.91524,22.88177],[89.87016,22.88824],[89.86969,22.87525],[89.83663,22.88816],[89.83726,22.89404],[89.85336,22.89449],[89.83954,22.91997],[89.82596,22.93397],[89.80179,22.94309],[89.80711,22.96307],[89.79322,22.98106],[89.79707,22.9967],[89.76011,23.00982],[89.74617,23.0487],[89.72848,23.05353],[89.73581,23.0699],[89.7316,23.07958],[89.70072,23.08877],[89.67265,23.1147],[89.67026,23.12432],[89.67753,23.12935],[89.69065,23.12616],[89.69989,23.11132],[89.70968,23.1229],[89.72298,23.12137],[89.73805,23.12789],[89.74208,23.1377],[89.73008,23.15663],[89.73339,23.1676],[89.76073,23.17245],[89.76553,23.17735],[89.75306,23.18576],[89.73826,23.1852],[89.69007,23.16199],[89.67865,23.18209],[89.68194,23.20132],[89.68852,23.21105],[89.68388,23.21162],[89.68863,23.22194],[89.6845,23.22932],[89.66868,23.24434],[89.63984,23.23621],[89.63219,23.2401],[89.63055,23.25486],[89.63686,23.26584],[89.64805,23.27347],[89.66884,23.278],[89.65588,23.28735],[89.62503,23.29401],[89.60478,23.3346],[89.6121,23.34416],[89.60379,23.35544],[89.60615,23.37107],[89.59854,23.38076],[89.61283,23.38338],[89.60223,23.42375],[89.60506,23.47417],[89.5759,23.49605],[89.52626,23.51329],[89.51782,23.51138],[89.51281,23.49579],[89.50838,23.49671],[89.51286,23.47786],[89.50293,23.47519],[89.49355,23.47895],[89.48854,23.49173],[89.49251,23.51596],[89.50701,23.52668],[89.53368,23.52962],[89.53945,23.53582],[89.50769,23.54748],[89.49924,23.57898],[89.48563,23.59364],[89.47253,23.59709],[89.48726,23.61717],[89.48627,23.62485],[89.47298,23.63492],[89.44212,23.63956],[89.43713,23.64656],[89.44226,23.65705],[89.40922,23.68401],[89.3811,23.6765],[89.38368,23.67235],[89.37309,23.66694],[89.34876,23.67207],[89.34828,23.68403],[89.32206,23.70378],[89.3214,23.71411],[89.31224,23.72054],[89.30905,23.73327],[89.29649,23.73793],[89.30469,23.74667],[89.31433,23.7486],[89.31861,23.75783],[89.32181,23.76793],[89.31012,23.7686],[89.31097,23.77581],[89.32982,23.77847],[89.32667,23.7935],[89.33623,23.81919],[89.33548,23.83059],[89.35089,23.84262],[89.35107,23.86256],[89.36384,23.87167],[89.35772,23.87648],[89.36076,23.88455],[89.35014,23.88612],[89.34574,23.89349],[89.33245,23.88457],[89.30911,23.87898],[89.30255,23.89041],[89.27996,23.89909],[89.26217,23.89894],[89.2533,23.90537],[89.24317,23.93803],[89.23219,23.94548],[89.23341,23.97383],[89.2251,23.97734],[89.21336,23.97215],[89.21326,23.98962],[89.17572,23.98716],[89.17511,23.96423],[89.16398,23.95334],[89.14937,23.9532],[89.14512,23.96408],[89.09435,23.96395],[89.09455,23.97303],[89.07073,23.97903],[89.06197,23.98864],[89.04137,24.03327],[89.02286,24.09444],[89.00714,24.11549],[88.95198,24.12361],[88.9367,24.13123],[88.92067,24.12092],[88.91671,24.12284],[88.91876,24.13293],[88.90639,24.12709],[88.90961,24.11688],[88.88048,24.10627],[88.8809,24.12093],[88.85772,24.11407],[88.85717,24.12101],[88.84506,24.13123],[88.83688,24.12638],[88.81526,24.12675],[88.8,24.13257],[88.77512,24.15326],[88.78216,24.16164],[88.77134,24.16885],[88.75806,24.19254],[88.74734,24.19927],[88.74678,24.20032]]]},"id":"BD40"},{"type":"Feature","properties":{"code":"BD45","name":"Mymensingh","parent_code":"BD"},"geometry":{"type":"Polygon","coordinates":[[[89.76887,25.43484],[89.76402,25.43202],[89.77232,25.4246],[89.76939,25.41736],[89.77777,25.41038],[89.77864,25.41444],[89.78024,25.40883],[89.77692,25.38758],[89.74344,25.38043],[89.741,25.3709],[89.71878,25.35489],[89.7373,25.31856],[89.74292,25.31937],[89.74494,25.29948],[89.75671,25.28115],[89.75114,25.26734],[89.75163,25.25173],[89.74019,25.25021],[89.73541,25.23371],[89.71297,25.23555],[89.69983,25.23097],[89.67351,25.17131],[89.6524,25.14378],[89.65042,25.10631],[89.64535,25.10576],[89.63911,25.09009],[89.65384,25.07671],[89.65659,25.05051],[89.6486,25.04154],[89.66105,25.00739],[89.66126,24.98799],[89.67747,24.96484],[89.67962,24.94572],[89.67449,24.93027],[89.67692,24.92137],[89.68506,24.91792],[89.68751,24.90707],[89.66382,24.89354],[89.6725,24.86833],[89.68642,24.83785],[89.70185,24.82187],[89.72661,24.80621],[89.75265,24.80006],[89.73261,24.79532],[89.72108,24.78009],[89.73687,24.77142],[89.73896,24.76241],[89.74556,24.77621],[89.76142,24.76824],[89.77447,24.7746],[89.78473,24.75994],[89.77953,24.7455],[89.7923,24.73955],[89.78553,24.72572],[89.77476,24.72721],[89.77559,24.71956],[89.78561,24.70578],[89.79498,24.70494],[89.79033,24.69832],[89.79461,24.69217],[89.79188,24.68829],[89.80093,24.68204],[89.78551,24.67169],[89.78801,24.62826],[89.76812,24.62469],[89.76747,24.61445],[89.79111,24.57231],[89.81138,24.57096],[89.80963,24.57641],[89.81804,24.58126],[89.81169,24.58345],[89.81145,24.58903],[89.81657,24.58571],[89.82173,24.59257],[89.82826,24.59212],[89.82324,24.60085],[89.83286,24.60764],[89.82651,24.61394],[89.83611,24.61412],[89.84088,24.62703],[89.8507,24.62175],[89.84162,24.63754],[89.84702,24.64162],[89.8426,24.64857],[89.86451,24.65036],[89.86848,24.65361],[89.86509,24.66351],[89.87651,24.67993],[89.88688,24.67511],[89.89706,24.68225],[89.89179,24.70199],[89.87782,24.71401],[89.88018,24.7478],[89.90046,24.73937],[89.89979,24.74654],[89.90856,24.7398],[89.91427,24.74866],[89.92396,24.7469],[89.92488,24.75409],[89.91844,24.75814],[89.93454,24.76141],[89.94069,24.74405],[89.95662,24.74448],[89.96048,24.73759],[89.95533,24.7341],[89.97564,24.72304],[89.99097,24.72835],[89.99765,24.74559],[90.01048,24.74714],[90.02113,24.75573],[90.02119,24.77219],[90.02989,24.77941],[90.04849,24.77551],[90.06042,24.7822],[90.06808,24.78038],[90.07243,24.7865],[90.08035,24.7856],[90.09331,24.76852],[90.09362,24.75817],[90.09926,24.7566],[90.09067,24.75169],[90.09204,24.73669],[90.13044,24.73796],[90.13569,24.73347],[90.12902,24.717],[90.1371,24.7004],[90.13472,24.69104],[90.14296,24.68005],[90.14506,24.65525],[90.15161,24.64943],[90.15241,24.63399],[90.14809,24.62315],[90.14323,24.6232],[90.13922,24.615],[90.13498,24.61634],[90.13007,24.59511],[90.14433,24.57599],[90.15574,24.57404],[90.15104,24.56782],[90.15921,24.54524],[90.16325,24.53715],[90.17079,24.53782],[90.17666,24.51827],[90.18698,24.52323],[90.19402,24.5146],[90.21035,24.50983],[90.20421,24.5031],[90.20733,24.49816],[90.21577,24.49943],[90.22867,24.48405],[90.23709,24.48758],[90.24605,24.48212],[90.22648,24.47],[90.2249,24.46377],[90.21216,24.46332],[90.21206,24.45705],[90.21352,24.45153],[90.22065,24.4491],[90.22219,24.43499],[90.2324,24.42044],[90.24181,24.41434],[90.24866,24.41622],[90.22988,24.34691],[90.23417,24.33508],[90.24829,24.33343],[90.25716,24.29706],[90.26469,24.28852],[90.28058,24.28757],[90.29152,24.27779],[90.32374,24.29918],[90.3455,24.29316],[90.35568,24.30075],[90.36378,24.28126],[90.37812,24.28511],[90.38016,24.28997],[90.38743,24.28901],[90.39339,24.28034],[90.40263,24.28224],[90.41663,24.30343],[90.42862,24.30941],[90.42702,24.33175],[90.43781,24.34012],[90.45518,24.34095],[90.48916,24.31351],[90.51385,24.31178],[90.52949,24.30329],[90.52138,24.28706],[90.5469,24.27474],[90.5446,24.26825],[90.57351,24.24805],[90.62287,24.27159],[90.6513,24.26089],[90.65155,24.27076],[90.64409,24.27892],[90.64175,24.30916],[90.61942,24.33886],[90.63361,24.35909],[90.6479,24.41585],[90.63475,24.434],[90.58761,24.44631],[90.57582,24.46691],[90.57573,24.48218],[90.58338,24.48592],[90.58365,24.49443],[90.5955,24.49883],[90.6146,24.49654],[90.63147,24.48029],[90.63796,24.48105],[90.63741,24.47621],[90.64838,24.47809],[90.66456,24.46706],[90.67897,24.4669],[90.67936,24.4805],[90.68572,24.4872],[90.6828,24.50136],[90.70269,24.51495],[90.70451,24.49867],[90.71596,24.49034],[90.72204,24.47043],[90.73577,24.48544],[90.74299,24.50844],[90.75258,24.50256],[90.75789,24.51224],[90.79351,24.50801],[90.79186,24.5181],[90.79695,24.51884],[90.80399,24.53009],[90.80336,24.54478],[90.80623,24.53884],[90.80926,24.54059],[90.80858,24.54881],[90.81462,24.55714],[90.80998,24.56444],[90.82042,24.57355],[90.82137,24.58711],[90.84181,24.58098],[90.85274,24.59862],[90.86343,24.6013],[90.86582,24.59548],[90.88093,24.5938],[90.88796,24.60157],[90.90568,24.60096],[90.9093,24.59597],[90.91692,24.59989],[90.91463,24.61453],[90.92969,24.61458],[90.93634,24.60288],[90.9476,24.60767],[90.95372,24.60434],[90.96364,24.61382],[90.97762,24.60148],[90.98555,24.60721],[90.99405,24.60344],[91.01168,24.6077],[91.01873,24.60501],[91.02147,24.61875],[91.03044,24.63097],[91.043,24.62618],[91.03672,24.61997],[91.03946,24.61261],[91.07339,24.62207],[91.09325,24.60492],[91.0995,24.60265],[91.09973,24.60861],[91.10548,24.60251],[91.10475,24.61114],[91.11721,24.60866],[91.12986,24.61298],[91.13495,24.62472],[91.12952,24.63236],[91.13084,24.64534],[91.13835,24.63783],[91.15535,24.64243],[91.16358,24.63553],[91.17617,24.64648],[91.1844,24.63936],[91.19294,24.64154],[91.19646,24.63198],[91.20567,24.63391],[91.21022,24.65414],[91.22686,24.65364],[91.23158,24.65858],[91.23375,24.66975],[91.22353,24.67316],[91.22373,24.679],[91.23434,24.67567],[91.24341,24.6831],[91.24136,24.69622],[91.22123,24.70218],[91.22695,24.70697],[91.22902,24.72745],[91.22165,24.7285],[91.22155,24.72342],[91.21329,24.71622],[91.20762,24.71696],[91.20766,24.71216],[91.20123,24.7168],[91.19843,24.71388],[91.1771,24.72956],[91.16987,24.73008],[91.16302,24.71881],[91.15941,24.72612],[91.14195,24.72742],[91.15214,24.73314],[91.147,24.74863],[91.15706,24.743],[91.16062,24.74931],[91.15745,24.75338],[91.15142,24.75188],[91.14961,24.75852],[91.13698,24.76007],[91.16061,24.76613],[91.16685,24.78032],[91.17122,24.78067],[91.16944,24.79196],[91.16029,24.79362],[91.17212,24.8091],[91.17097,24.82828],[91.16416,24.83077],[91.16532,24.83448],[91.15245,24.84004],[91.14267,24.82668],[91.15272,24.81173],[91.14194,24.79794],[91.13066,24.7939],[91.13105,24.80082],[91.11852,24.80777],[91.11321,24.81821],[91.11781,24.83528],[91.1297,24.8423],[91.12361,24.85005],[91.11399,24.84866],[91.10887,24.86211],[91.103,24.86554],[91.10815,24.87393],[91.10097,24.88694],[91.08791,24.88973],[91.07447,24.90292],[91.05391,24.90071],[91.04483,24.90812],[91.03771,24.90515],[91.03911,24.89927],[91.02738,24.8828],[91.02491,24.88844],[91.01678,24.88623],[91.02174,24.8902],[91.01477,24.89763],[90.99849,24.89136],[90.99407,24.91376],[90.98057,24.9168],[90.97276,24.91272],[90.97191,24.91613],[90.96459,24.91016],[90.95447,24.9182],[90.9571,24.93816],[90.95087,24.93619],[90.95039,24.93973],[90.96319,24.94123],[90.97319,24.95882],[90.96234,24.97128],[90.94869,24.97109],[90.94415,24.97545],[90.94531,24.98253],[90.94066,24.98634],[90.94765,24.99506],[90.94824,25.00475],[90.9368,25.00943],[90.9349,25.02128],[90.93826,25.02772],[90.96471,25.03461],[90.95143,25.0433],[90.9313,25.04253],[90.93074,25.06379],[90.93616,25.06537],[90.92905,25.07721],[90.94405,25.08107],[90.9574,25.06942],[90.97372,25.07234],[90.9693,25.08108],[90.97149,25.09445],[90.94804,25.11165],[90.95645,25.11972],[90.9576,25.12773],[90.94978,25.13648],[90.95149,25.14944],[90.9593,25.14881],[90.96854,25.16222],[90.95969,25.16797],[90.96245,25.17202],[90.92714,25.16376],[90.88351,25.16762],[90.87185,25.16091],[90.84521,25.15929],[90.84161,25.16512],[90.83151,25.16211],[90.81867,25.16362],[90.81756,25.16829],[90.81384,25.16469],[90.80482,25.16685],[90.79465,25.18135],[90.78471,25.17896],[90.78027,25.18658],[90.76311,25.17813],[90.7595,25.16837],[90.74691,25.16432],[90.74213,25.16967],[90.73423,25.16653],[90.73342,25.16212],[90.74171,25.16079],[90.73772,25.15627],[90.73216,25.15479],[90.72425,25.16373],[90.71065,25.1679],[90.70673,25.16104],[90.70096,25.16447],[90.69915,25.1566],[90.6904,25.16388],[90.68287,25.16386],[90.681,25.16873],[90.68594,25.17451],[90.67816,25.17185],[90.67508,25.17639],[90.66625,25.16575],[90.6639,25.1979],[90.6588,25.18522],[90.64836,25.19448],[90.65288,25.18691],[90.64895,25.1806],[90.64071,25.18356],[90.64204,25.17455],[90.61847,25.17258],[90.60983,25.17885],[90.57604,25.17133],[90.50953,25.17511],[90.51011,25.16983],[90.4994,25.1716],[90.48524,25.16078],[90.45068,25.1519],[90.44912,25.14471],[90.43996,25.14431],[90.4059,25.15916],[90.37045,25.1625],[90.32966,25.19304],[90.30992,25.18827],[90.23862,25.20478],[90.2276,25.20033],[90.22228,25.20612],[90.19722,25.2108],[90.173,25.22203],[90.1175,25.22303],[90.09407,25.23804],[90.0749,25.24416],[90.0562,25.26122],[90.03762,25.26114],[90.00724,25.28028],[89.99826,25.27712],[89.98324,25.28097],[89.97942,25.29649],[89.96791,25.30452],[89.95553,25.30113],[89.94907,25.2932],[89.94434,25.30424],[89.93891,25.29915],[89.90777,25.30804],[89.87634,25.28558],[89.85856,25.28624],[89.83287,25.29487],[89.8412,25.31528],[89.82085,25.35704],[89.81962,25.38035],[89.82672,25.39997],[89.82567,25.4153],[89.76963,25.43467],[89.76887,25.43484]]]},"id":"BD45"},{"type":"Feature","properties":{"code":"BD50","name":"Rajshahi","parent_code":"BD"},"geometry":{"type":"Polygon","coordinates":[[[89.02778,25.27684],[89.0271,25.27077],[89.02183,25.27119],[89.01844,25.26509],[89.00675,25.26857],[89.00626,25.26355],[89.00436,25.26815],[88.98728,25.27402],[88.98211,25.26445],[88.95606,25.25435],[88.94983,25.24668],[88.95357,25.24045],[88.94984,25.23608],[88.95874,25.22776],[88.96248,25.2117],[88.94592,25.20775],[88.93699,25.21331],[88.9342,25.19797],[88.93998,25.19305],[88.94746,25.19446],[88.94351,25.18321],[88.94945,25.18126],[88.94847,25.17691],[88.9413,25.17358],[88.93434,25.18158],[88.9242,25.1719],[88.92306,25.16453],[88.91192,25.16899],[88.91071,25.18052],[88.89021,25.18506],[88.88953,25.17852],[88.87525,25.1795],[88.87463,25.19636],[88.86432,25.19049],[88.8647,25.20046],[88.85161,25.20068],[88.84977,25.21023],[88.8436,25.21429],[88.831,25.20686],[88.82721,25.19228],[88.81761,25.18911],[88.81385,25.17513],[88.80617,25.17119],[88.77428,25.17999],[88.7728,25.19039],[88.76674,25.18399],[88.75934,25.18694],[88.74939,25.17755],[88.75103,25.1834],[88.74262,25.18725],[88.73456,25.18494],[88.73318,25.19925],[88.71127,25.20792],[88.68015,25.20927],[88.66906,25.19841],[88.66471,25.20294],[88.64294,25.2065],[88.63101,25.20221],[88.61325,25.20434],[88.60771,25.19621],[88.59091,25.19307],[88.59109,25.18589],[88.57964,25.17711],[88.56389,25.17544],[88.55596,25.1796],[88.55741,25.19304],[88.54234,25.19422],[88.53421,25.18793],[88.5323,25.19428],[88.53755,25.19816],[88.50022,25.20361],[88.49902,25.21048],[88.47565,25.21394],[88.46953,25.20078],[88.47218,25.19825],[88.46327,25.19531],[88.43733,25.1988],[88.43928,25.20944],[88.43616,25.19908],[88.44291,25.19692],[88.44573,25.17992],[88.44202,25.17495],[88.45713,25.16527],[88.45672,25.15383],[88.46114,25.15069],[88.45747,25.13526],[88.44125,25.12747],[88.4421,25.11515],[88.44733,25.10912],[88.44632,25.08213],[88.45308,25.07926],[88.43505,25.05606],[88.43763,25.04306],[88.45249,25.03666],[88.43835,25.02334],[88.44125,25.02032],[88.43774,25.01573],[88.4417,25.0134],[88.43521,25.01395],[88.43623,25.00659],[88.42705,25.00799],[88.42532,25.01663],[88.41978,24.99945],[88.41214,24.99865],[88.41178,24.98595],[88.41865,24.98303],[88.41213,24.98225],[88.41733,24.97461],[88.41123,24.97331],[88.4053,24.97956],[88.3951,24.96857],[88.39278,24.96122],[88.39872,24.95944],[88.40138,24.95062],[88.39761,24.94411],[88.38215,24.93886],[88.3654,24.94582],[88.36526,24.95328],[88.35844,24.9523],[88.35501,24.94284],[88.33977,24.94062],[88.33794,24.92628],[88.33445,24.92638],[88.33645,24.91861],[88.33029,24.92025],[88.32443,24.91551],[88.32809,24.90457],[88.33405,24.90446],[88.33272,24.89716],[88.34376,24.89976],[88.3467,24.89258],[88.32872,24.87049],[88.32151,24.87589],[88.32006,24.88365],[88.3022,24.87173],[88.298,24.88112],[88.30178,24.88557],[88.29277,24.88928],[88.28529,24.88632],[88.28164,24.89064],[88.27791,24.88764],[88.2765,24.89734],[88.26851,24.89118],[88.26708,24.87794],[88.25746,24.87741],[88.26415,24.89401],[88.26196,24.9165],[88.22575,24.9606],[88.18404,24.95414],[88.17537,24.94645],[88.17019,24.95054],[88.16433,24.94127],[88.15806,24.94175],[88.15742,24.9337],[88.13803,24.93625],[88.14021,24.91411],[88.14895,24.91163],[88.162,24.8936],[88.16883,24.89364],[88.16681,24.88821],[88.15764,24.89267],[88.15248,24.88463],[88.16405,24.8781],[88.159,24.8726],[88.16674,24.86331],[88.17542,24.86059],[88.16252,24.85782],[88.16086,24.84887],[88.14501,24.85143],[88.1468,24.84417],[88.14134,24.84196],[88.14107,24.83457],[88.13178,24.83622],[88.13623,24.80537],[88.13031,24.80579],[88.1233,24.82304],[88.10498,24.80022],[88.10607,24.78078],[88.0888,24.78296],[88.0781,24.76967],[88.07232,24.77324],[88.0686,24.76985],[88.06863,24.76395],[88.07455,24.76068],[88.06647,24.75127],[88.07191,24.74337],[88.06274,24.72188],[88.0082,24.66753],[88.04022,24.64342],[88.09314,24.56104],[88.14059,24.51114],[88.17192,24.49421],[88.19834,24.4621],[88.259,24.44753],[88.27428,24.43947],[88.28622,24.42114],[88.33616,24.37979],[88.35717,24.37339],[88.39055,24.37154],[88.42765,24.38308],[88.44347,24.37922],[88.47251,24.36173],[88.49528,24.35404],[88.50827,24.34269],[88.52703,24.34452],[88.55514,24.29354],[88.56805,24.32661],[88.58742,24.32442],[88.58841,24.31406],[88.5998,24.31083],[88.62387,24.31552],[88.62896,24.30509],[88.64886,24.31089],[88.65262,24.30506],[88.65931,24.3143],[88.69623,24.31546],[88.70686,24.31153],[88.72424,24.29821],[88.73363,24.282],[88.741,24.25304],[88.73478,24.21947],[88.74734,24.19927],[88.76658,24.18089],[88.77134,24.16885],[88.78216,24.16164],[88.77512,24.15326],[88.8,24.13257],[88.81526,24.12675],[88.83688,24.12638],[88.84506,24.13123],[88.85717,24.12101],[88.85772,24.11407],[88.8809,24.12093],[88.88048,24.10627],[88.90961,24.11688],[88.90639,24.12709],[88.91876,24.13293],[88.91671,24.12284],[88.92067,24.12092],[88.9367,24.13123],[88.95198,24.12361],[89.00627,24.11604],[89.02286,24.09444],[89.04137,24.03327],[89.06197,23.98864],[89.07073,23.97903],[89.09455,23.97303],[89.09435,23.96395],[89.14512,23.96408],[89.14937,23.9532],[89.16398,23.95334],[89.17511,23.96423],[89.17572,23.98716],[89.21326,23.98962],[89.21336,23.97215],[89.2251,23.97734],[89.23341,23.97383],[89.23183,23.94665],[89.24317,23.93803],[89.2533,23.90537],[89.26319,23.89852],[89.27996,23.89909],[89.30255,23.89041],[89.30911,23.87898],[89.33245,23.88457],[89.34574,23.89349],[89.35014,23.88612],[89.36661,23.88967],[89.36743,23.90888],[89.37851,23.90767],[89.39147,23.90461],[89.40921,23.88346],[89.46555,23.84509],[89.52729,23.81544],[89.55109,23.81602],[89.57719,23.80627],[89.58676,23.8137],[89.6376,23.80941],[89.64917,23.81692],[89.66522,23.80926],[89.70741,23.81502],[89.73579,23.83128],[89.73381,23.84011],[89.71452,23.85805],[89.70646,23.87683],[89.69875,23.86693],[89.70119,23.88842],[89.70623,23.89245],[89.70091,23.89774],[89.69863,23.9256],[89.6885,23.92701],[89.6871,23.94],[89.69741,23.9433],[89.69814,23.98767],[89.70727,23.99983],[89.73371,24.01903],[89.76738,24.02437],[89.78311,24.03153],[89.78616,24.04158],[89.79609,24.04449],[89.81795,24.06507],[89.82593,24.08308],[89.81912,24.10966],[89.82289,24.14201],[89.81233,24.14801],[89.80578,24.16106],[89.79038,24.15801],[89.78341,24.16551],[89.78852,24.17131],[89.80324,24.17413],[89.7871,24.23403],[89.79275,24.27482],[89.78949,24.29042],[89.77589,24.30531],[89.77388,24.33202],[89.75345,24.34991],[89.75452,24.36016],[89.76763,24.3763],[89.76476,24.39546],[89.77626,24.39495],[89.76857,24.40855],[89.75963,24.40719],[89.75091,24.42774],[89.75008,24.43916],[89.75746,24.45441],[89.74576,24.45511],[89.74502,24.47043],[89.75204,24.47244],[89.76071,24.48426],[89.75055,24.483],[89.75937,24.50025],[89.75688,24.5065],[89.7367,24.519],[89.74163,24.52384],[89.74955,24.5214],[89.7487,24.53888],[89.77085,24.54128],[89.76971,24.56194],[89.79028,24.57545],[89.76708,24.61616],[89.76812,24.62469],[89.78801,24.62826],[89.78551,24.67169],[89.80093,24.68204],[89.79188,24.68829],[89.79461,24.69217],[89.79033,24.69832],[89.79498,24.70494],[89.78561,24.70578],[89.77559,24.71956],[89.77476,24.72721],[89.78553,24.72572],[89.79239,24.7382],[89.77953,24.7455],[89.7848,24.75429],[89.78263,24.76705],[89.77447,24.7746],[89.76142,24.76824],[89.74556,24.77621],[89.73896,24.76241],[89.73687,24.77142],[89.72108,24.78009],[89.73261,24.79532],[89.75265,24.80006],[89.71956,24.80969],[89.68621,24.83819],[89.66382,24.89354],[89.67545,24.89795],[89.68032,24.90607],[89.68758,24.90527],[89.68506,24.91792],[89.67692,24.92137],[89.67449,24.93027],[89.67962,24.94572],[89.67747,24.96484],[89.66126,24.98799],[89.66105,25.00739],[89.64838,25.04285],[89.64286,25.03609],[89.61267,25.04955],[89.57668,25.04444],[89.57515,25.03923],[89.56676,25.03772],[89.53543,25.04106],[89.5317,25.04718],[89.52442,25.04278],[89.51165,25.04403],[89.49417,25.0522],[89.48938,25.06217],[89.47568,25.06164],[89.47387,25.05539],[89.46393,25.0547],[89.46683,25.06096],[89.45494,25.06496],[89.45482,25.05551],[89.45149,25.06091],[89.45617,25.06917],[89.45412,25.07494],[89.44309,25.07262],[89.44573,25.06915],[89.44182,25.06787],[89.43943,25.07228],[89.43171,25.07215],[89.42689,25.06511],[89.42428,25.07531],[89.41352,25.08158],[89.41003,25.0764],[89.39974,25.07808],[89.40404,25.06734],[89.39181,25.06639],[89.39139,25.04917],[89.38326,25.06189],[89.37233,25.06868],[89.36337,25.06806],[89.3584,25.08215],[89.36224,25.08876],[89.35574,25.0896],[89.34712,25.10119],[89.34193,25.09791],[89.33948,25.10233],[89.33344,25.10123],[89.34286,25.10999],[89.33374,25.12247],[89.31959,25.11695],[89.29762,25.11954],[89.28062,25.09195],[89.26433,25.09789],[89.26416,25.10178],[89.25138,25.10146],[89.24712,25.12047],[89.23676,25.13014],[89.22997,25.14634],[89.21569,25.14764],[89.22034,25.15774],[89.21498,25.16757],[89.19726,25.17228],[89.1958,25.18353],[89.18454,25.18429],[89.19335,25.19536],[89.19294,25.21466],[89.20789,25.22824],[89.2079,25.23486],[89.19795,25.23545],[89.19742,25.24387],[89.17784,25.23605],[89.17634,25.24123],[89.16082,25.24819],[89.1649,25.25235],[89.15616,25.25861],[89.14185,25.25869],[89.14447,25.24829],[89.13343,25.24652],[89.1262,25.25526],[89.12122,25.24409],[89.10124,25.24063],[89.07161,25.26957],[89.05999,25.25955],[89.05767,25.26455],[89.04483,25.26942],[89.04622,25.26539],[89.02787,25.27668],[89.02778,25.27684]]]},"id":"BD50"},{"type":"Feature","properties":{"code":"BD55","name":"Rangpur","parent_code":"BD"},"geometry":{"type":"MultiPolygon","coordinates":[[[[88.41501,26.63199],[88.41034,26.6345],[88.39958,26.6273],[88.39725,26.61783],[88.38826,26.61266],[88.39847,26.60299],[88.3769,26.59574],[88.37135,26.56126],[88.35793,26.54351],[88.35918,26.53043],[88.35201,26.52422],[88.35043,26.51104],[88.33221,26.49318],[88.33204,26.48202],[88.3408,26.47827],[88.34072,26.46893],[88.34724,26.46828],[88.35405,26.44594],[88.3615,26.45439],[88.36031,26.46534],[88.36472,26.46996],[88.36062,26.48373],[88.37293,26.48897],[88.3886,26.47856],[88.40396,26.48608],[88.41997,26.46558],[88.42301,26.47251],[88.42829,26.47295],[88.43811,26.46531],[88.46166,26.46592],[88.48457,26.46031],[88.47804,26.45182],[88.48564,26.45007],[88.49577,26.4353],[88.48832,26.43021],[88.49692,26.42611],[88.49373,26.41687],[88.50187,26.4175],[88.49468,26.40919],[88.50283,26.40224],[88.50964,26.40641],[88.51006,26.40147],[88.50452,26.39852],[88.51284,26.38757],[88.51882,26.39016],[88.51262,26.37749],[88.51729,26.37091],[88.52415,26.37559],[88.52101,26.36664],[88.51498,26.36548],[88.52292,26.36048],[88.51825,26.35173],[88.50469,26.34872],[88.50585,26.36362],[88.50145,26.35972],[88.4881,26.36024],[88.49126,26.35134],[88.48284,26.34964],[88.47684,26.35793],[88.46237,26.35807],[88.45706,26.36453],[88.45756,26.37678],[88.44563,26.36499],[88.43537,26.33641],[88.41262,26.33769],[88.40385,26.32984],[88.40691,26.3239],[88.41522,26.32427],[88.41455,26.31575],[88.38397,26.31377],[88.38393,26.30919],[88.36911,26.30498],[88.34926,26.28289],[88.34771,26.2691],[88.35163,26.2671],[88.34773,26.24997],[88.35962,26.24188],[88.35421,26.2374],[88.3507,26.22051],[88.33144,26.21702],[88.33143,26.2129],[88.32314,26.21005],[88.32591,26.20542],[88.31971,26.20282],[88.3085,26.20409],[88.29987,26.19788],[88.29245,26.19933],[88.29311,26.20256],[88.28762,26.19757],[88.28598,26.20027],[88.28395,26.19467],[88.26939,26.18657],[88.26388,26.1905],[88.25409,26.18547],[88.24874,26.19046],[88.24536,26.18624],[88.2426,26.18866],[88.23308,26.18308],[88.23751,26.17681],[88.226,26.17252],[88.22766,26.16818],[88.22085,26.1659],[88.21457,26.17003],[88.21493,26.16198],[88.20452,26.15873],[88.19629,26.16317],[88.19179,26.15658],[88.1961,26.15226],[88.18975,26.15474],[88.17769,26.14833],[88.17973,26.13822],[88.17382,26.1291],[88.17831,26.12314],[88.15825,26.09493],[88.16495,26.08665],[88.15925,26.08304],[88.16043,26.0775],[88.16831,26.08312],[88.17285,26.07573],[88.18339,26.07199],[88.18136,26.06727],[88.18592,26.06351],[88.17547,26.05817],[88.17901,26.04628],[88.17354,26.04946],[88.16913,26.04504],[88.17496,26.03966],[88.17109,26.03134],[88.18241,26.02663],[88.17625,26.02128],[88.13894,26.01275],[88.14381,26.00093],[88.12967,25.99687],[88.12787,25.97695],[88.11938,25.97158],[88.12398,25.96633],[88.115,25.96262],[88.12222,25.94824],[88.11229,25.94357],[88.11088,25.93349],[88.09734,25.93428],[88.08572,25.91671],[88.09358,25.91115],[88.09036,25.89605],[88.10281,25.88919],[88.09369,25.87409],[88.1017,25.87169],[88.103,25.86122],[88.1064,25.86742],[88.11122,25.86664],[88.11384,25.8531],[88.10113,25.84365],[88.10826,25.83718],[88.10073,25.8291],[88.11122,25.82173],[88.10734,25.81475],[88.11998,25.81228],[88.11462,25.79817],[88.1444,25.79375],[88.14167,25.78037],[88.14859,25.78152],[88.14644,25.77643],[88.15151,25.77607],[88.1596,25.78788],[88.17308,25.78726],[88.1838,25.80185],[88.19338,25.8017],[88.20006,25.78991],[88.20832,25.78771],[88.21504,25.80099],[88.23088,25.79718],[88.23555,25.80849],[88.24681,25.80605],[88.2486,25.81339],[88.25975,25.81345],[88.26941,25.80763],[88.27191,25.79187],[88.26844,25.78072],[88.27829,25.774],[88.29037,25.77377],[88.28871,25.76772],[88.31673,25.75265],[88.31506,25.74672],[88.3204,25.74505],[88.32093,25.73767],[88.33776,25.7378],[88.34408,25.72965],[88.35884,25.7283],[88.35694,25.7214],[88.37441,25.71719],[88.36985,25.7093],[88.37132,25.69684],[88.39151,25.69366],[88.39049,25.68385],[88.4038,25.68532],[88.40174,25.67245],[88.45359,25.66504],[88.45528,25.62862],[88.44722,25.62151],[88.44509,25.61422],[88.44986,25.60476],[88.44451,25.597],[88.45741,25.59883],[88.4695,25.58349],[88.49985,25.58401],[88.49368,25.55917],[88.50875,25.54434],[88.51738,25.54639],[88.52254,25.5353],[88.52728,25.54331],[88.53246,25.54208],[88.53234,25.53229],[88.5394,25.53455],[88.53961,25.50832],[88.54639,25.5084],[88.54765,25.51802],[88.55413,25.52117],[88.55667,25.51345],[88.59653,25.50613],[88.60285,25.51549],[88.60898,25.51663],[88.607,25.5087],[88.61304,25.50998],[88.62303,25.49702],[88.64054,25.50001],[88.64834,25.49627],[88.6427,25.49266],[88.64644,25.47797],[88.66045,25.48188],[88.66331,25.47361],[88.68617,25.47584],[88.69843,25.47109],[88.71002,25.48079],[88.70751,25.49992],[88.71293,25.50006],[88.71352,25.49539],[88.7145,25.49964],[88.74181,25.50511],[88.74374,25.49583],[88.73969,25.48958],[88.74382,25.48832],[88.74842,25.49368],[88.76499,25.49471],[88.77112,25.50475],[88.76013,25.51075],[88.75891,25.52562],[88.78283,25.51535],[88.79237,25.52296],[88.81022,25.52335],[88.80749,25.51459],[88.81287,25.49016],[88.82952,25.49014],[88.83907,25.4589],[88.82589,25.44353],[88.83451,25.43163],[88.83462,25.42754],[88.82888,25.42635],[88.83021,25.41731],[88.81895,25.41826],[88.81336,25.41049],[88.82368,25.40913],[88.82467,25.40084],[88.83774,25.40195],[88.84102,25.39767],[88.83751,25.38421],[88.84248,25.38183],[88.83896,25.38094],[88.84136,25.36395],[88.85443,25.36329],[88.85663,25.35453],[88.86949,25.35272],[88.8672,25.34312],[88.88568,25.3257],[88.88897,25.32645],[88.88813,25.33685],[88.90674,25.33789],[88.90759,25.3263],[88.91593,25.31278],[88.92438,25.31226],[88.92871,25.317],[88.92907,25.30472],[88.93959,25.30053],[88.9598,25.30105],[88.96068,25.30587],[88.97254,25.30104],[88.97601,25.3056],[88.98524,25.3056],[88.98519,25.29859],[88.99677,25.29558],[89.00784,25.3027],[89.00796,25.26751],[89.01826,25.265],[89.03105,25.2768],[89.06035,25.25956],[89.07056,25.27003],[89.0868,25.25157],[89.09696,25.24896],[89.09597,25.24271],[89.10124,25.24063],[89.12122,25.24409],[89.1262,25.25526],[89.13343,25.24652],[89.14447,25.24829],[89.14185,25.25869],[89.15616,25.25861],[89.1649,25.25235],[89.16082,25.24819],[89.17634,25.24123],[89.17784,25.23605],[89.19088,25.23875],[89.19585,25.24494],[89.19805,25.2353],[89.20809,25.23471],[89.20789,25.22824],[89.19294,25.21466],[89.19335,25.19536],[89.18454,25.18429],[89.1958,25.18353],[89.19726,25.17228],[89.21498,25.16757],[89.22034,25.15774],[89.21569,25.14764],[89.22997,25.14634],[89.23676,25.13014],[89.24712,25.12047],[89.25138,25.10146],[89.26416,25.10178],[89.26433,25.09789],[89.28062,25.09195],[89.29762,25.11954],[89.31959,25.11695],[89.33374,25.12247],[89.34286,25.10999],[89.33344,25.10123],[89.33948,25.10233],[89.34193,25.09791],[89.34712,25.10119],[89.35574,25.0896],[89.36224,25.08876],[89.3584,25.08215],[89.36337,25.06806],[89.37233,25.06868],[89.38326,25.06189],[89.39139,25.04917],[89.39181,25.06639],[89.40404,25.06734],[89.39974,25.07808],[89.41003,25.0764],[89.41352,25.08158],[89.42428,25.07531],[89.42689,25.06511],[89.43171,25.07215],[89.43943,25.07228],[89.44182,25.06787],[89.44573,25.06915],[89.44309,25.07262],[89.45412,25.07494],[89.45617,25.06917],[89.45149,25.06091],[89.45482,25.05551],[89.45494,25.06496],[89.46683,25.06096],[89.46393,25.0547],[89.47387,25.05539],[89.47568,25.06164],[89.48938,25.06217],[89.49417,25.0522],[89.51165,25.04403],[89.52442,25.04278],[89.5317,25.04718],[89.53543,25.04106],[89.56676,25.03772],[89.57515,25.03923],[89.57668,25.04444],[89.61267,25.04955],[89.64385,25.03634],[89.65666,25.05124],[89.65343,25.07817],[89.63911,25.09009],[89.64535,25.10576],[89.65042,25.10631],[89.6524,25.14378],[89.67351,25.17131],[89.70019,25.23137],[89.71297,25.23555],[89.73541,25.23371],[89.74019,25.25021],[89.75163,25.25173],[89.75114,25.26734],[89.75671,25.28115],[89.74494,25.29948],[89.74292,25.31937],[89.7373,25.31856],[89.71905,25.35565],[89.741,25.3709],[89.74344,25.38043],[89.77692,25.38758],[89.77948,25.41206],[89.76939,25.41736],[89.77232,25.4246],[89.76439,25.43416],[89.78445,25.43143],[89.7954,25.4239],[89.82567,25.4153],[89.83606,25.44602],[89.85182,25.46665],[89.84893,25.49237],[89.85453,25.49727],[89.86013,25.51728],[89.85129,25.53854],[89.86616,25.54608],[89.88239,25.61613],[89.87129,25.66218],[89.86396,25.6649],[89.84703,25.69553],[89.8511,25.71278],[89.8355,25.71545],[89.82717,25.73193],[89.82707,25.74012],[89.841,25.76122],[89.82652,25.80997],[89.81681,25.81533],[89.83496,25.84087],[89.83217,25.87044],[89.87834,25.92395],[89.88668,25.94543],[89.8423,25.94001],[89.83923,25.94104],[89.84217,25.94414],[89.82512,25.94524],[89.82949,25.95491],[89.84948,25.94902],[89.83812,25.96743],[89.84179,25.97074],[89.85797,25.96867],[89.87291,25.97666],[89.85085,25.98983],[89.84393,26.00646],[89.83531,26.01346],[89.83029,26.01075],[89.83003,26.00393],[89.83619,25.98274],[89.82056,25.9871],[89.8149,25.99723],[89.82056,25.99781],[89.82156,26.01033],[89.81473,26.01986],[89.81881,26.02633],[89.80871,26.04415],[89.80475,26.04467],[89.80191,26.03303],[89.79032,26.01853],[89.78728,26.02198],[89.79277,26.02307],[89.80147,26.04079],[89.79297,26.04284],[89.79115,26.03497],[89.78723,26.03708],[89.78941,26.04082],[89.77402,26.03803],[89.78855,26.04979],[89.78543,26.0576],[89.79854,26.05995],[89.79676,26.07671],[89.79041,26.07657],[89.7952,26.08681],[89.79089,26.08958],[89.78173,26.08391],[89.78636,26.09665],[89.78177,26.09897],[89.78589,26.10279],[89.77988,26.10788],[89.77082,26.10407],[89.76562,26.10943],[89.75685,26.10814],[89.75587,26.11335],[89.76702,26.13035],[89.76305,26.13704],[89.75489,26.13849],[89.74849,26.15637],[89.71951,26.15573],[89.71852,26.16593],[89.71417,26.16849],[89.70853,26.15455],[89.7007,26.15134],[89.6967,26.15817],[89.68137,26.16365],[89.68408,26.1697],[89.70154,26.17316],[89.6861,26.18366],[89.68167,26.19194],[89.68464,26.19765],[89.67379,26.19986],[89.67604,26.20911],[89.68504,26.20672],[89.69155,26.2129],[89.6842,26.20811],[89.67951,26.21444],[89.67899,26.22369],[89.68921,26.2218],[89.68359,26.223],[89.68713,26.22636],[89.68567,26.23023],[89.68123,26.22757],[89.679,26.23758],[89.67208,26.22861],[89.6718,26.21993],[89.65574,26.219],[89.63441,26.22895],[89.63246,26.21029],[89.63816,26.20973],[89.63911,26.19957],[89.64983,26.19029],[89.64444,26.18453],[89.62989,26.19537],[89.62773,26.18327],[89.63848,26.1785],[89.64302,26.18235],[89.65536,26.18124],[89.65856,26.17624],[89.6464,26.16414],[89.63172,26.17187],[89.63687,26.17854],[89.62533,26.17646],[89.62353,26.1708],[89.62332,26.17895],[89.61438,26.17612],[89.60821,26.18],[89.60854,26.17592],[89.61507,26.17555],[89.61079,26.17389],[89.61139,26.16784],[89.6188,26.16653],[89.61348,26.16584],[89.60836,26.15335],[89.59912,26.16086],[89.5915,26.15747],[89.59826,26.15274],[89.59624,26.13481],[89.60712,26.12431],[89.60095,26.12273],[89.60431,26.1169],[89.61151,26.12751],[89.61885,26.11931],[89.62531,26.12845],[89.62937,26.11719],[89.61429,26.10676],[89.60502,26.10669],[89.59741,26.11256],[89.6003,26.10838],[89.59502,26.10739],[89.60002,26.10707],[89.59959,26.10306],[89.59326,26.10188],[89.60826,26.08795],[89.60912,26.09584],[89.61691,26.09487],[89.61309,26.10293],[89.62045,26.09988],[89.62361,26.1077],[89.62973,26.10666],[89.63548,26.09896],[89.63156,26.09512],[89.63838,26.08988],[89.63303,26.08011],[89.64948,26.06337],[89.62876,26.06213],[89.61858,26.05319],[89.61703,26.06005],[89.60457,26.06345],[89.60711,26.05716],[89.61241,26.05712],[89.61159,26.05219],[89.59154,26.04455],[89.59654,26.03699],[89.5921,26.03456],[89.58687,26.03851],[89.58386,26.02447],[89.57767,26.02537],[89.57777,26.00649],[89.58587,25.99731],[89.587,25.97962],[89.5845,25.97526],[89.57569,25.981],[89.57694,25.9683],[89.56838,25.96782],[89.5665,25.97985],[89.55789,25.96506],[89.54,25.97014],[89.54233,25.98304],[89.53576,25.98911],[89.54852,25.99999],[89.53971,26.00572],[89.53286,26.00502],[89.5385,26.00488],[89.536,26.00192],[89.51982,26.00843],[89.50695,26.00145],[89.49161,26.00625],[89.48358,25.99919],[89.4836,25.98975],[89.47358,25.98191],[89.48182,25.9903],[89.47983,25.99706],[89.46166,25.99867],[89.44847,26.00791],[89.42774,26.01395],[89.43422,26.03171],[89.42418,26.04745],[89.41964,26.0427],[89.40699,26.04172],[89.40688,26.03198],[89.3911,26.02296],[89.39324,26.00813],[89.3491,26.0109],[89.34549,26.01344],[89.34955,26.01646],[89.33544,26.02033],[89.33801,26.02393],[89.3253,26.03669],[89.31601,26.03723],[89.30037,26.05095],[89.29638,26.04575],[89.27612,26.04955],[89.2815,26.05533],[89.2806,26.06598],[89.27112,26.06047],[89.25494,26.06484],[89.25722,26.08035],[89.26712,26.09305],[89.2522,26.09213],[89.25188,26.10139],[89.24125,26.10439],[89.24001,26.11285],[89.22916,26.11576],[89.22907,26.12477],[89.22698,26.12089],[89.20097,26.12814],[89.19184,26.12319],[89.17538,26.13133],[89.16678,26.12943],[89.16003,26.1392],[89.15484,26.13863],[89.14822,26.15809],[89.15682,26.16234],[89.14883,26.16971],[89.14064,26.16921],[89.14095,26.17529],[89.13424,26.18196],[89.1391,26.198],[89.14947,26.20859],[89.14162,26.21487],[89.13984,26.23706],[89.13421,26.23675],[89.13599,26.24004],[89.1305,26.24254],[89.13092,26.24725],[89.13808,26.24748],[89.1324,26.25202],[89.13071,26.24798],[89.12037,26.25182],[89.12477,26.26356],[89.10877,26.27584],[89.10556,26.27415],[89.10583,26.28118],[89.10015,26.27954],[89.10716,26.29108],[89.10344,26.29629],[89.1074,26.30062],[89.09959,26.30446],[89.10503,26.31607],[89.12142,26.28681],[89.13231,26.29882],[89.12724,26.3018],[89.13131,26.30073],[89.13071,26.30488],[89.1247,26.30555],[89.13615,26.30792],[89.13459,26.3128],[89.12965,26.31268],[89.13583,26.31505],[89.13611,26.32196],[89.11273,26.31838],[89.10751,26.3267],[89.10061,26.323],[89.09733,26.32914],[89.0916,26.32036],[89.08295,26.32191],[89.10103,26.33701],[89.09329,26.35303],[89.09832,26.35913],[89.07967,26.36304],[89.08003,26.36657],[89.08812,26.36604],[89.08999,26.38562],[89.09572,26.39079],[89.08003,26.39153],[89.08743,26.39754],[89.07527,26.3958],[89.07412,26.3914],[89.07419,26.3963],[89.06656,26.40005],[89.06332,26.39687],[89.06292,26.40111],[89.05796,26.39551],[89.04051,26.4005],[89.03376,26.3954],[89.02987,26.4071],[89.01968,26.40425],[89.02225,26.41377],[89.00735,26.41302],[89.00322,26.42236],[88.99352,26.42227],[88.99886,26.41246],[88.99416,26.4118],[88.98084,26.4243],[88.98311,26.42947],[88.97887,26.435],[88.98321,26.43701],[88.98357,26.44516],[88.96669,26.44997],[88.96604,26.45588],[88.95803,26.45817],[88.96007,26.4511],[88.96562,26.45078],[88.96056,26.44725],[88.95168,26.45098],[88.94676,26.44689],[88.95207,26.43358],[88.94332,26.4309],[88.94509,26.4249],[88.92642,26.43135],[88.92608,26.427],[88.93326,26.42523],[88.92292,26.42218],[88.93158,26.41377],[88.92623,26.40619],[88.90485,26.40772],[88.91032,26.40015],[88.91822,26.39977],[88.9163,26.38444],[88.90885,26.37968],[88.92149,26.37686],[88.91132,26.372],[88.91178,26.36581],[88.92012,26.36585],[88.91912,26.35893],[88.92749,26.36463],[88.93655,26.35607],[88.94715,26.35495],[88.95293,26.36539],[88.95826,26.35667],[88.95062,26.35415],[88.94585,26.34354],[88.95832,26.343],[88.95171,26.33896],[88.95609,26.32959],[88.96037,26.32954],[88.96228,26.33561],[88.96114,26.35168],[88.97844,26.34587],[88.98507,26.34951],[88.98918,26.33791],[88.98091,26.34041],[88.98488,26.33276],[89.00035,26.32917],[88.99491,26.32031],[88.99086,26.32148],[88.99586,26.31303],[88.98369,26.31705],[88.98425,26.30026],[88.99402,26.2966],[88.99676,26.29973],[88.99442,26.29206],[88.99942,26.29059],[89.00716,26.30485],[89.01779,26.28943],[89.0199,26.2943],[89.01434,26.29998],[89.02127,26.3089],[89.02639,26.30699],[89.02118,26.28756],[89.02765,26.28282],[89.03946,26.28582],[89.03852,26.27727],[89.04495,26.27511],[89.04315,26.27961],[89.04803,26.27958],[89.05002,26.28822],[89.04498,26.28381],[89.04606,26.28913],[89.04225,26.28981],[89.04592,26.29528],[89.05865,26.2932],[89.05728,26.28543],[89.0622,26.27857],[89.05391,26.27654],[89.06236,26.26987],[89.06268,26.25378],[89.05089,26.25489],[89.05063,26.24108],[89.03708,26.24689],[89.03573,26.24187],[89.03017,26.24678],[89.02515,26.24325],[89.0234,26.24846],[89.01903,26.24216],[88.99188,26.24582],[88.96389,26.23899],[88.9529,26.24222],[88.92548,26.28374],[88.91782,26.28804],[88.883,26.2876],[88.87062,26.28438],[88.86101,26.27291],[88.86464,26.26872],[88.86136,26.25216],[88.86744,26.24977],[88.87206,26.23975],[88.87754,26.24234],[88.87746,26.23318],[88.85929,26.23147],[88.85085,26.23519],[88.84239,26.23021],[88.8382,26.23828],[88.82741,26.24001],[88.82845,26.24988],[88.81343,26.25503],[88.81533,26.26756],[88.81026,26.27656],[88.81943,26.29541],[88.79449,26.31058],[88.78348,26.30409],[88.76032,26.30103],[88.75656,26.32184],[88.76127,26.33502],[88.75375,26.33933],[88.74925,26.3547],[88.73232,26.35481],[88.73411,26.3494],[88.7254,26.34374],[88.71307,26.34473],[88.70977,26.33468],[88.70413,26.33302],[88.70393,26.34137],[88.69446,26.34594],[88.69829,26.35701],[88.69154,26.3608],[88.69611,26.36206],[88.68917,26.36526],[88.6863,26.37871],[88.68076,26.3804],[88.70188,26.38863],[88.68726,26.38692],[88.68908,26.39602],[88.67835,26.39341],[88.67006,26.39762],[88.68696,26.40171],[88.68553,26.41377],[88.68025,26.41363],[88.68113,26.40865],[88.66802,26.40761],[88.65927,26.41699],[88.64468,26.41896],[88.65079,26.42173],[88.64935,26.43005],[88.62341,26.43499],[88.6275,26.44153],[88.62235,26.47097],[88.59516,26.47091],[88.59177,26.44995],[88.58421,26.45038],[88.58248,26.45589],[88.5591,26.45775],[88.56274,26.4602],[88.55909,26.46233],[88.56182,26.46746],[88.55776,26.46704],[88.55981,26.47324],[88.55456,26.47175],[88.5562,26.4759],[88.55235,26.47609],[88.55599,26.48527],[88.5265,26.48109],[88.51803,26.50118],[88.52102,26.51003],[88.51016,26.51074],[88.50711,26.51611],[88.48972,26.51054],[88.48987,26.52527],[88.48561,26.52692],[88.49002,26.53274],[88.48272,26.53237],[88.48421,26.54172],[88.45954,26.54752],[88.45676,26.53711],[88.44859,26.5355],[88.44309,26.54371],[88.43329,26.54733],[88.42138,26.56961],[88.41529,26.63177],[88.41501,26.63199]]],[[[88.92731,26.33172],[88.91903,26.33417],[88.92236,26.3141],[88.92838,26.30711],[88.92376,26.30105],[88.92594,26.29244],[88.93588,26.2919],[88.95265,26.2754],[88.97018,26.27825],[88.97444,26.28464],[88.98059,26.28318],[88.98259,26.30098],[88.95944,26.29518],[88.96293,26.30358],[88.95324,26.30467],[88.95613,26.30863],[88.95204,26.31718],[88.93624,26.31321],[88.94004,26.33271],[88.9277,26.33164],[88.92731,26.33172]]]]},"id":"BD55"},{"type":"Feature","properties":{"code":"BD60","name":"Sylhet","parent_code":"BD"},"geometry":{"type":"Polygon","coordinates":[[[91.27023,25.20411],[91.26052,25.20409],[91.25054,25.19507],[91.19808,25.20178],[91.13226,25.19378],[91.07334,25.19829],[91.07045,25.1916],[91.03111,25.18503],[91.02018,25.18766],[91.01975,25.18393],[91.00709,25.18042],[90.96245,25.17202],[90.95969,25.16797],[90.96854,25.16222],[90.9593,25.14881],[90.95149,25.14944],[90.94978,25.13648],[90.9576,25.12773],[90.95645,25.11972],[90.94804,25.11165],[90.97149,25.09445],[90.9693,25.08108],[90.97372,25.07234],[90.9574,25.06942],[90.94405,25.08107],[90.92963,25.0784],[90.93616,25.06497],[90.93074,25.06379],[90.9295,25.05129],[90.93375,25.04995],[90.9313,25.04253],[90.95143,25.0433],[90.96471,25.03461],[90.93826,25.02772],[90.9349,25.02128],[90.9368,25.00943],[90.94824,25.00475],[90.94765,24.99506],[90.94066,24.98634],[90.94531,24.98253],[90.94415,24.97545],[90.94869,24.97109],[90.96234,24.97128],[90.97319,24.95882],[90.96319,24.94123],[90.95018,24.93913],[90.9571,24.93816],[90.95423,24.91908],[90.95791,24.91291],[90.96604,24.91032],[90.98057,24.9168],[90.99407,24.91376],[90.99849,24.89136],[91.01477,24.89763],[91.02174,24.8902],[91.01678,24.88623],[91.02491,24.88844],[91.02738,24.8828],[91.03911,24.89927],[91.03771,24.90515],[91.04483,24.90812],[91.05391,24.90071],[91.07447,24.90292],[91.08791,24.88973],[91.10097,24.88694],[91.10815,24.87393],[91.103,24.86554],[91.10887,24.86211],[91.11399,24.84866],[91.12361,24.85005],[91.1297,24.8423],[91.11781,24.83528],[91.11321,24.81821],[91.11852,24.80777],[91.13105,24.80082],[91.13066,24.7939],[91.14194,24.79794],[91.15272,24.81173],[91.14267,24.82668],[91.15277,24.84034],[91.17097,24.82828],[91.17212,24.8091],[91.16027,24.79426],[91.16944,24.79196],[91.17122,24.78067],[91.16685,24.78032],[91.16061,24.76613],[91.13698,24.76007],[91.14961,24.75852],[91.15142,24.75188],[91.15745,24.75338],[91.16062,24.74931],[91.15706,24.743],[91.147,24.74863],[91.15214,24.73314],[91.14225,24.72676],[91.15941,24.72612],[91.16302,24.71881],[91.16987,24.73008],[91.1771,24.72956],[91.19843,24.71388],[91.20123,24.7168],[91.20791,24.71216],[91.20762,24.71696],[91.21329,24.71622],[91.22591,24.72887],[91.2302,24.72419],[91.22695,24.70697],[91.22123,24.70218],[91.24226,24.6952],[91.24341,24.6831],[91.23885,24.67802],[91.22373,24.679],[91.22353,24.67316],[91.23375,24.66975],[91.22742,24.65394],[91.21022,24.65414],[91.20634,24.63503],[91.19462,24.63219],[91.19562,24.62538],[91.17761,24.63118],[91.17998,24.61717],[91.20111,24.60985],[91.20529,24.59553],[91.19746,24.59034],[91.20657,24.58723],[91.20667,24.5784],[91.22602,24.57675],[91.23393,24.57057],[91.22584,24.56164],[91.21877,24.53262],[91.1875,24.49734],[91.18119,24.49367],[91.1721,24.50131],[91.15067,24.47958],[91.15574,24.47634],[91.1661,24.48407],[91.19384,24.48014],[91.19599,24.47701],[91.1892,24.47675],[91.18483,24.47025],[91.1908,24.46408],[91.20056,24.46608],[91.20683,24.47939],[91.21943,24.47421],[91.21648,24.48338],[91.22774,24.48191],[91.23804,24.45965],[91.24337,24.42811],[91.22894,24.43433],[91.21746,24.43326],[91.22054,24.41948],[91.21472,24.40363],[91.2212,24.40413],[91.22018,24.4114],[91.23887,24.40801],[91.24279,24.39513],[91.25663,24.38082],[91.24291,24.38063],[91.23178,24.36722],[91.21997,24.36778],[91.21361,24.36249],[91.23615,24.33522],[91.23691,24.31728],[91.19316,24.3229],[91.17474,24.32069],[91.16093,24.29668],[91.15838,24.28289],[91.19756,24.2934],[91.19527,24.2799],[91.17528,24.26552],[91.19611,24.24028],[91.22203,24.23832],[91.2213,24.23453],[91.22759,24.23825],[91.23771,24.23102],[91.26861,24.22419],[91.27313,24.22826],[91.28736,24.22556],[91.28727,24.23054],[91.2816,24.23193],[91.28504,24.24543],[91.30248,24.26686],[91.31283,24.26824],[91.32538,24.26216],[91.32898,24.25127],[91.32401,24.23114],[91.31459,24.23196],[91.30571,24.22144],[91.30085,24.22484],[91.29761,24.21441],[91.28528,24.21918],[91.28435,24.20978],[91.27505,24.20488],[91.28639,24.19646],[91.31332,24.20523],[91.31415,24.1856],[91.30803,24.19242],[91.27755,24.18277],[91.27574,24.15852],[91.26854,24.15966],[91.26822,24.14943],[91.26167,24.14564],[91.27097,24.14285],[91.27112,24.12471],[91.29344,24.11975],[91.28394,24.11852],[91.28408,24.11201],[91.26953,24.11279],[91.26801,24.09467],[91.27927,24.09071],[91.29271,24.09451],[91.2848,24.0752],[91.28563,24.06085],[91.29275,24.0626],[91.30421,24.05729],[91.30398,24.04545],[91.3127,24.04123],[91.31358,24.03141],[91.30394,24.02615],[91.30905,24.02375],[91.30905,24.01775],[91.29753,24.00988],[91.29579,24.00128],[91.31272,23.9906],[91.33013,23.99228],[91.34128,23.98165],[91.3616,23.98561],[91.37414,23.97473],[91.37993,23.97519],[91.37302,24.00214],[91.39092,24.02498],[91.39649,24.04914],[91.37732,24.07916],[91.37465,24.10759],[91.40106,24.11077],[91.42906,24.10793],[91.43171,24.09902],[91.44139,24.1012],[91.44337,24.09576],[91.45098,24.09975],[91.46295,24.09462],[91.47396,24.10003],[91.49583,24.09418],[91.49351,24.0889],[91.49888,24.08571],[91.54661,24.07354],[91.57359,24.07362],[91.57569,24.07875],[91.58697,24.0715],[91.59961,24.08274],[91.59278,24.09106],[91.59657,24.09535],[91.61261,24.09051],[91.6375,24.10018],[91.64252,24.11294],[91.63599,24.1366],[91.64815,24.15518],[91.64602,24.1756],[91.65554,24.17585],[91.65913,24.18298],[91.65902,24.19476],[91.65322,24.19602],[91.64771,24.21452],[91.66637,24.23279],[91.6681,24.20918],[91.68008,24.19335],[91.6855,24.1655],[91.69278,24.15986],[91.70347,24.16325],[91.7065,24.15444],[91.72113,24.15214],[91.72737,24.14387],[91.75941,24.14196],[91.74615,24.24731],[91.7907,24.22156],[91.80748,24.22121],[91.82037,24.21045],[91.83833,24.21947],[91.83885,24.22724],[91.84534,24.2263],[91.84322,24.22179],[91.85012,24.22153],[91.84656,24.21832],[91.85543,24.21258],[91.85072,24.21316],[91.84958,24.204],[91.84282,24.20176],[91.84818,24.18616],[91.87373,24.17458],[91.87528,24.15608],[91.88426,24.13922],[91.90552,24.13954],[91.91382,24.15396],[91.91168,24.16993],[91.94005,24.2696],[91.91968,24.33757],[91.94077,24.34302],[91.94253,24.34869],[91.95631,24.35665],[91.96805,24.35031],[91.96551,24.34731],[91.98222,24.32478],[91.99585,24.32333],[91.99632,24.3396],[91.97823,24.35792],[91.98436,24.36206],[91.97687,24.37315],[91.9707,24.37396],[91.97188,24.3799],[91.96613,24.38006],[91.97214,24.38528],[91.98568,24.37754],[91.9919,24.38754],[91.98956,24.39073],[91.99503,24.38922],[91.99666,24.39426],[92.00711,24.38251],[92.02301,24.38697],[92.02732,24.38051],[92.04387,24.37622],[92.09064,24.373],[92.09983,24.37725],[92.10208,24.38351],[92.12187,24.38338],[92.1189,24.39087],[92.13471,24.40827],[92.13628,24.42578],[92.14753,24.42252],[92.15387,24.42662],[92.16386,24.42038],[92.16772,24.42704],[92.15142,24.48989],[92.15207,24.50214],[92.1588,24.50656],[92.15339,24.51155],[92.15736,24.51405],[92.1579,24.52902],[92.16793,24.53204],[92.17492,24.52318],[92.18398,24.52298],[92.20213,24.5074],[92.22945,24.50079],[92.23326,24.58179],[92.24918,24.64169],[92.24645,24.65625],[92.25542,24.66732],[92.26011,24.68689],[92.29629,24.73678],[92.28007,24.74582],[92.28972,24.76055],[92.28114,24.76599],[92.28942,24.78511],[92.27355,24.79957],[92.27666,24.81206],[92.27361,24.82741],[92.24974,24.82984],[92.25028,24.83656],[92.25495,24.83811],[92.243,24.8403],[92.24016,24.85784],[92.23536,24.86126],[92.23884,24.86827],[92.24636,24.86702],[92.2474,24.88496],[92.23676,24.89215],[92.23314,24.90117],[92.24752,24.90894],[92.27303,24.90509],[92.30015,24.91466],[92.30669,24.90063],[92.31568,24.89456],[92.32559,24.89605],[92.33855,24.87819],[92.34879,24.88916],[92.36186,24.87255],[92.37501,24.87196],[92.38546,24.85209],[92.39925,24.84967],[92.40575,24.85913],[92.42575,24.85292],[92.43749,24.85677],[92.44429,24.87239],[92.47525,24.86837],[92.49281,24.87566],[92.49102,24.89175],[92.49706,24.90184],[92.49309,24.90569],[92.49454,24.91619],[92.48402,24.93007],[92.48756,24.94751],[92.44916,24.9389],[92.45127,24.95196],[92.46641,24.95753],[92.46824,24.96374],[92.45911,24.97073],[92.44776,24.9661],[92.41996,24.96742],[92.42251,24.98834],[92.41636,24.99088],[92.42469,25.01274],[92.42506,25.02892],[92.39856,25.03282],[92.38347,25.04224],[92.38277,25.03886],[92.37324,25.04372],[92.36912,25.04075],[92.36295,25.04982],[92.36033,25.04662],[92.33953,25.04994],[92.34838,25.06174],[92.34639,25.07458],[92.33063,25.07922],[92.32179,25.07796],[92.31862,25.06997],[92.30058,25.07126],[92.23152,25.09711],[92.22741,25.09435],[92.22336,25.10339],[92.21535,25.10661],[92.19661,25.10788],[92.20041,25.11991],[92.22129,25.11673],[92.19456,25.12569],[92.18938,25.13625],[92.18323,25.118],[92.17207,25.12857],[92.16396,25.12425],[92.15961,25.12751],[92.16492,25.13064],[92.15888,25.13297],[92.16569,25.13583],[92.15611,25.13321],[92.15196,25.13805],[92.14323,25.13563],[92.13624,25.13915],[92.14569,25.13975],[92.13458,25.14317],[92.13976,25.15443],[92.13281,25.16015],[92.10502,25.17594],[92.08344,25.18234],[92.04951,25.18695],[92.02628,25.17909],[92.01636,25.18745],[92.0053,25.18641],[91.98013,25.17219],[91.93068,25.18149],[91.89885,25.18052],[91.88056,25.17338],[91.87601,25.17765],[91.85564,25.17276],[91.82765,25.17789],[91.81722,25.17162],[91.80445,25.1719],[91.80619,25.16851],[91.77481,25.16343],[91.75874,25.16837],[91.75566,25.17743],[91.7445,25.16999],[91.7496,25.15861],[91.74232,25.1447],[91.74696,25.13995],[91.73637,25.14388],[91.73518,25.14943],[91.70409,25.15969],[91.70345,25.15001],[91.69497,25.14598],[91.69183,25.13731],[91.66962,25.13798],[91.66407,25.13545],[91.66494,25.1285],[91.66036,25.12717],[91.65743,25.13208],[91.63744,25.12293],[91.62288,25.12829],[91.62098,25.14362],[91.6122,25.14112],[91.61128,25.14616],[91.60218,25.1422],[91.59961,25.15152],[91.60375,25.15918],[91.60009,25.15972],[91.60449,25.16798],[91.61545,25.17058],[91.61081,25.17706],[91.57723,25.17208],[91.57164,25.16526],[91.57596,25.15966],[91.56298,25.16055],[91.55576,25.14947],[91.52649,25.14462],[91.50901,25.14741],[91.50136,25.14303],[91.50024,25.13576],[91.49394,25.13857],[91.47146,25.1338],[91.46427,25.13555],[91.47063,25.14024],[91.46915,25.15151],[91.44072,25.14975],[91.43281,25.15685],[91.42524,25.15695],[91.41424,25.17042],[91.4106,25.1639],[91.39834,25.16458],[91.36847,25.16998],[91.36365,25.17768],[91.35365,25.17159],[91.35145,25.17563],[91.32749,25.17622],[91.31894,25.18323],[91.29307,25.1834],[91.28657,25.18545],[91.29235,25.19202],[91.27038,25.20393],[91.27023,25.20411]]]},"id":"BD60"}],"bbox":[88.0082,20.59061,92.68005,26.6345]}