{"type":"FeatureCollection","features":[{"type":"Feature","properties":{},"geometry":{"type":"Polygon","coordinates":[[[-180.0,-86.0],[180.0,-86.0],[180.0,86.0],[-180.0,86.0],[-180.0,-86.0]],[[88.41501,26.63199],[88.39958,26.6273],[88.38826,26.61266],[88.39847,26.60299],[88.3769,26.59574],[88.37135,26.56126],[88.35793,26.54351],[88.35918,26.53043],[88.35043,26.51104],[88.33221,26.49318],[88.33204,26.48202],[88.34724,26.46828],[88.35405,26.44594],[88.36472,26.46996],[88.36062,26.48373],[88.37293,26.48897],[88.3886,26.47856],[88.40396,26.48608],[88.41997,26.46558],[88.42829,26.47295],[88.43811,26.46531],[88.48457,26.46031],[88.47804,26.45182],[88.49577,26.4353],[88.48832,26.43021],[88.49692,26.42611],[88.49373,26.41687],[88.50187,26.4175],[88.49468,26.40919],[88.50283,26.40224],[88.50964,26.40641],[88.50452,26.39852],[88.51284,26.38757],[88.51882,26.39016],[88.51262,26.37749],[88.51729,26.37091],[88.52449,26.37504],[88.51498,26.36548],[88.52286,26.3603],[88.51825,26.35173],[88.50469,26.34872],[88.50585,26.36362],[88.4881,26.36024],[88.49126,26.35134],[88.48284,26.34964],[88.47684,26.35793],[88.46237,26.35807],[88.45756,26.37678],[88.44563,26.36499],[88.43537,26.33641],[88.41262,26.33769],[88.40385,26.32984],[88.41522,26.32427],[88.41455,26.31575],[88.38397,26.31377],[88.34926,26.28289],[88.34773,26.24997],[88.35962,26.24188],[88.3507,26.22051],[88.33144,26.21702],[88.31971,26.20282],[88.28598,26.20027],[88.26939,26.18657],[88.2426,26.18866],[88.23308,26.18308],[88.23751,26.17681],[88.226,26.17252],[88.22766,26.16818],[88.21457,26.17003],[88.21493,26.16198],[88.20452,26.15873],[88.19629,26.16317],[88.19179,26.15658],[88.1961,26.15226],[88.17769,26.14833],[88.17382,26.1291],[88.17831,26.12314],[88.15825,26.09493],[88.16495,26.08665],[88.16043,26.0775],[88.16831,26.08312],[88.18339,26.07199],[88.18592,26.06351],[88.17547,26.05817],[88.17901,26.04628],[88.16913,26.04504],[88.17496,26.03966],[88.17109,26.03134],[88.18241,26.02663],[88.13894,26.01275],[88.14381,26.00093],[88.12967,25.99687],[88.12787,25.97695],[88.11938,25.97158],[88.12398,25.96633],[88.115,25.96262],[88.12222,25.94824],[88.11229,25.94357],[88.11088,25.93349],[88.09734,25.93428],[88.08572,25.91671],[88.09358,25.91115],[88.09036,25.89605],[88.10281,25.88919],[88.09369,25.87409],[88.1017,25.87169],[88.103,25.86122],[88.11066,25.86827],[88.11389,25.85354],[88.10113,25.84365],[88.10826,25.83718],[88.10073,25.8291],[88.11122,25.82173],[88.10734,25.81475],[88.11998,25.81228],[88.11462,25.79817],[88.1444,25.79375],[88.14167,25.78037],[88.14859,25.78152],[88.14675,25.77634],[88.15499,25.77738],[88.1596,25.78788],[88.17308,25.78726],[88.1838,25.80185],[88.19338,25.8017],[88.20006,25.78991],[88.20832,25.78771],[88.21504,25.80099],[88.23088,25.79718],[88.23555,25.80849],[88.24681,25.80605],[88.2486,25.81339],[88.26941,25.80763],[88.26844,25.78072],[88.29037,25.77377],[88.28871,25.76772],[88.31673,25.75265],[88.32093,25.73767],[88.33776,25.7378],[88.34408,25.72965],[88.35884,25.7283],[88.35694,25.7214],[88.37441,25.71719],[88.37132,25.69684],[88.39151,25.69366],[88.39049,25.68385],[88.4038,25.68532],[88.40174,25.67245],[88.45359,25.66504],[88.45528,25.62862],[88.44722,25.62151],[88.44986,25.60476],[88.44451,25.597],[88.45741,25.59883],[88.4695,25.58349],[88.49985,25.58401],[88.49368,25.55917],[88.50875,25.54434],[88.51738,25.54639],[88.52254,25.5353],[88.52728,25.54331],[88.53246,25.54208],[88.53234,25.53229],[88.5394,25.53455],[88.53961,25.50832],[88.54639,25.5084],[88.55413,25.52117],[88.55667,25.51345],[88.59653,25.50613],[88.60898,25.51663],[88.607,25.5087],[88.61304,25.50998],[88.62303,25.49702],[88.64834,25.49627],[88.6427,25.49266],[88.64644,25.47797],[88.66045,25.48188],[88.66331,25.47361],[88.69843,25.47109],[88.71002,25.48079],[88.70751,25.49992],[88.71352,25.49539],[88.74181,25.50511],[88.74382,25.48832],[88.76499,25.49471],[88.77112,25.50475],[88.76013,25.51075],[88.75891,25.52562],[88.78283,25.51535],[88.79237,25.52296],[88.81022,25.52335],[88.81287,25.49016],[88.82952,25.49014],[88.83907,25.4589],[88.82589,25.44353],[88.83451,25.43163],[88.83021,25.41731],[88.81895,25.41826],[88.81336,25.41049],[88.84102,25.39767],[88.84084,25.36446],[88.85443,25.36329],[88.85663,25.35453],[88.86949,25.35272],[88.8672,25.34312],[88.88568,25.3257],[88.88813,25.33685],[88.90674,25.33789],[88.91593,25.31278],[88.92871,25.317],[88.92907,25.30472],[88.93959,25.30053],[88.98524,25.3056],[88.98519,25.29859],[88.99677,25.29558],[89.00784,25.3027],[89.00745,25.26441],[88.98749,25.27408],[88.98211,25.26445],[88.95606,25.25435],[88.94984,25.23608],[88.95874,25.22776],[88.96248,25.2117],[88.94592,25.20775],[88.93699,25.21331],[88.9342,25.19797],[88.94746,25.19446],[88.94351,25.18321],[88.94847,25.17691],[88.9413,25.17358],[88.93434,25.18158],[88.92306,25.16453],[88.91192,25.16899],[88.91071,25.18052],[88.89021,25.18506],[88.88953,25.17852],[88.87525,25.1795],[88.87463,25.19636],[88.86432,25.19049],[88.8647,25.20046],[88.85161,25.20068],[88.8436,25.21429],[88.831,25.20686],[88.82721,25.19228],[88.81761,25.18911],[88.81385,25.17513],[88.80617,25.17119],[88.77428,25.17999],[88.7728,25.19039],[88.74939,25.17755],[88.75103,25.1834],[88.73456,25.18494],[88.73318,25.19925],[88.71127,25.20792],[88.68015,25.20927],[88.66906,25.19841],[88.64294,25.2065],[88.61325,25.20434],[88.60771,25.19621],[88.59091,25.19307],[88.59109,25.18589],[88.57964,25.17711],[88.56389,25.17544],[88.55596,25.1796],[88.55741,25.19304],[88.54234,25.19422],[88.53421,25.18793],[88.53755,25.19816],[88.50022,25.20361],[88.49902,25.21048],[88.47565,25.21394],[88.47218,25.19825],[88.46327,25.19531],[88.43733,25.1988],[88.43928,25.20944],[88.43616,25.19908],[88.44291,25.19692],[88.44573,25.17992],[88.44202,25.17495],[88.45713,25.16527],[88.46114,25.15069],[88.45747,25.13526],[88.44125,25.12747],[88.44733,25.10912],[88.44632,25.08213],[88.45308,25.07926],[88.43505,25.05606],[88.43763,25.04306],[88.45249,25.03666],[88.43835,25.02334],[88.4417,25.0134],[88.43521,25.01395],[88.43623,25.00659],[88.42705,25.00799],[88.42532,25.01663],[88.41978,24.99945],[88.41214,24.99865],[88.41733,24.97461],[88.4053,24.97956],[88.3951,24.96857],[88.39278,24.96122],[88.40138,24.95062],[88.39761,24.94411],[88.38215,24.93886],[88.3654,24.94582],[88.36526,24.95328],[88.35844,24.9523],[88.35501,24.94284],[88.33977,24.94062],[88.33645,24.91861],[88.32443,24.91551],[88.32809,24.90457],[88.33405,24.90446],[88.33272,24.89716],[88.34376,24.89976],[88.3467,24.89258],[88.32872,24.87049],[88.32006,24.88365],[88.3022,24.87173],[88.30178,24.88557],[88.27791,24.88764],[88.2765,24.89734],[88.26851,24.89118],[88.26708,24.87794],[88.25746,24.87741],[88.26415,24.89401],[88.26196,24.9165],[88.22575,24.9606],[88.18404,24.95414],[88.17537,24.94645],[88.17019,24.95054],[88.16433,24.94127],[88.15806,24.94175],[88.15742,24.9337],[88.13803,24.93625],[88.14021,24.91411],[88.14895,24.91163],[88.162,24.8936],[88.16883,24.89364],[88.16681,24.88821],[88.15764,24.89267],[88.15248,24.88463],[88.16405,24.8781],[88.159,24.8726],[88.16674,24.86331],[88.17542,24.86059],[88.16252,24.85782],[88.16086,24.84887],[88.14501,24.85143],[88.14107,24.83457],[88.13178,24.83622],[88.13623,24.80537],[88.13031,24.80579],[88.1233,24.82304],[88.10498,24.80022],[88.10607,24.78078],[88.0888,24.78296],[88.0781,24.76967],[88.0686,24.76985],[88.07455,24.76068],[88.06647,24.75127],[88.07191,24.74337],[88.06274,24.72188],[88.0082,24.66753],[88.04022,24.64342],[88.09314,24.56104],[88.14059,24.51114],[88.17192,24.49421],[88.19834,24.4621],[88.27428,24.43947],[88.28622,24.42114],[88.33616,24.37979],[88.39055,24.37154],[88.42765,24.38308],[88.44347,24.37922],[88.50827,24.34269],[88.52703,24.34452],[88.55514,24.29354],[88.57163,24.32649],[88.58742,24.32442],[88.58841,24.31406],[88.5998,24.31083],[88.62387,24.31552],[88.62896,24.30509],[88.64886,24.31089],[88.65262,24.30506],[88.65931,24.3143],[88.69665,24.31543],[88.72366,24.29883],[88.73509,24.27805],[88.741,24.25304],[88.73122,24.17277],[88.74645,24.14695],[88.70787,24.11912],[88.6985,24.12008],[88.69414,24.11064],[88.7007,24.10749],[88.70098,24.09436],[88.72045,24.1041],[88.72866,24.09946],[88.72342,24.06917],[88.73753,24.06182],[88.72679,24.05417],[88.73651,24.04864],[88.72421,24.04797],[88.72383,24.04302],[88.74214,24.03329],[88.72848,23.99654],[88.7585,24.00609],[88.76847,23.98208],[88.73744,23.98234],[88.73275,23.96108],[88.74238,23.95146],[88.74334,23.93007],[88.73492,23.93315],[88.73553,23.9143],[88.70663,23.91643],[88.69932,23.91024],[88.7044,23.89959],[88.68828,23.9013],[88.68323,23.88909],[88.66434,23.88229],[88.66743,23.86962],[88.65349,23.86571],[88.63748,23.87131],[88.62757,23.86518],[88.6186,23.87674],[88.60955,23.87298],[88.60733,23.86258],[88.58763,23.87138],[88.57573,23.86207],[88.57805,23.85114],[88.59138,23.85272],[88.58653,23.83131],[88.60224,23.81705],[88.594,23.80943],[88.58496,23.81358],[88.59621,23.80545],[88.59166,23.79802],[88.58115,23.79658],[88.57699,23.78586],[88.55672,23.78495],[88.57907,23.77526],[88.58073,23.75946],[88.57059,23.74859],[88.57668,23.73341],[88.56524,23.71384],[88.57412,23.66779],[88.55808,23.6496],[88.56225,23.63734],[88.59352,23.64097],[88.59371,23.61728],[88.58544,23.61618],[88.58096,23.60291],[88.59695,23.60189],[88.6062,23.6105],[88.60185,23.60708],[88.60822,23.60496],[88.60584,23.60005],[88.64565,23.60874],[88.63871,23.5911],[88.65071,23.58377],[88.65394,23.55618],[88.68292,23.54187],[88.68443,23.52958],[88.69134,23.53102],[88.69553,23.51733],[88.70578,23.51701],[88.71371,23.5086],[88.72429,23.51231],[88.72931,23.49624],[88.74389,23.48354],[88.74109,23.47985],[88.76107,23.47873],[88.75682,23.48675],[88.76083,23.49042],[88.77483,23.48058],[88.76848,23.48864],[88.77026,23.4976],[88.78675,23.50728],[88.78409,23.49799],[88.7943,23.50247],[88.80062,23.49816],[88.79582,23.48627],[88.80137,23.48668],[88.80017,23.48226],[88.78747,23.46988],[88.78919,23.44804],[88.79553,23.44333],[88.78535,23.44472],[88.77871,23.43765],[88.78223,23.44137],[88.77291,23.44901],[88.76483,23.44848],[88.75461,23.41613],[88.76145,23.40854],[88.74998,23.40082],[88.75306,23.38944],[88.76206,23.38743],[88.75932,23.37494],[88.76473,23.36664],[88.75839,23.36035],[88.74749,23.36177],[88.74604,23.34902],[88.73171,23.35154],[88.73852,23.34342],[88.73226,23.32759],[88.74897,23.32175],[88.74439,23.30679],[88.73105,23.30885],[88.7299,23.31993],[88.72478,23.3178],[88.72514,23.29917],[88.70658,23.30374],[88.71114,23.3127],[88.69655,23.30248],[88.69767,23.29205],[88.70838,23.29062],[88.71187,23.27746],[88.72373,23.27286],[88.7184,23.25465],[88.75201,23.24061],[88.76941,23.2452],[88.77834,23.23537],[88.77437,23.22513],[88.7907,23.2186],[88.81132,23.22156],[88.80603,23.23861],[88.81161,23.25672],[88.828,23.24539],[88.8246,23.23331],[88.83667,23.24377],[88.84493,23.23119],[88.87312,23.23455],[88.88587,23.22613],[88.8868,23.23168],[88.90613,23.23643],[88.91467,23.22847],[88.91535,23.21281],[88.92112,23.21626],[88.91658,23.21946],[88.92632,23.2179],[88.9413,23.20642],[88.97027,23.22257],[88.97805,23.21513],[88.97507,23.22431],[88.97931,23.21598],[88.98283,23.2215],[88.99509,23.21354],[88.97975,23.21218],[88.98735,23.20395],[88.97967,23.18291],[88.97412,23.19281],[88.96184,23.19313],[88.95569,23.18234],[88.93868,23.1765],[88.93403,23.16233],[88.92792,23.16286],[88.93095,23.14409],[88.92302,23.14491],[88.91785,23.12969],[88.91033,23.12986],[88.89229,23.10796],[88.88332,23.1109],[88.88317,23.10447],[88.86833,23.10124],[88.8746,23.09009],[88.86119,23.07742],[88.8736,23.06594],[88.87527,23.0449],[88.88414,23.04034],[88.87287,23.01802],[88.88098,23.00773],[88.87624,23.0035],[88.84597,23.01019],[88.86543,22.99885],[88.87105,22.9783],[88.85697,22.96751],[88.85944,22.94292],[88.86936,22.9511],[88.89406,22.95233],[88.88708,22.93308],[88.90816,22.9194],[88.89523,22.91242],[88.90941,22.87934],[88.92289,22.87968],[88.92828,22.87194],[88.94513,22.87985],[88.96733,22.84375],[88.95546,22.81138],[88.95856,22.79728],[88.93797,22.79293],[88.93541,22.78191],[88.92395,22.7796],[88.9256,22.76985],[88.91772,22.77021],[88.91078,22.75814],[88.92074,22.75278],[88.9158,22.73619],[88.92798,22.71841],[88.95297,22.70577],[88.96156,22.69305],[88.96117,22.68539],[88.94783,22.67811],[88.94479,22.66223],[88.92754,22.64918],[88.93625,22.62503],[88.9571,22.6171],[88.9592,22.61105],[88.93943,22.591],[88.94449,22.56867],[88.91908,22.56707],[88.96142,22.55072],[88.97533,22.49648],[88.99593,22.46974],[88.98875,22.446],[88.99997,22.43009],[88.97112,22.40931],[88.99171,22.38984],[88.98254,22.37521],[88.98924,22.36416],[88.98539,22.32578],[89.00057,22.32371],[89.02454,22.29676],[88.99894,22.29683],[88.99552,22.28541],[89.01988,22.26921],[89.01334,22.25447],[89.03382,22.25898],[89.04025,22.22897],[89.07062,22.19732],[89.06148,22.17042],[89.07144,22.14818],[89.07771,22.14669],[89.09029,22.16032],[89.09763,22.15479],[89.09281,22.14452],[89.05355,22.11934],[89.03937,22.09693],[89.04891,22.0563],[89.08007,22.01748],[89.08348,22.00301],[89.08124,21.95675],[89.07276,21.92769],[89.03173,21.92268],[89.02363,21.90687],[89.02369,21.88932],[89.04434,21.86119],[89.0422,21.82791],[89.02883,21.79296],[89.03269,21.77593],[89.13553,21.64717],[89.16171,21.6455],[89.17426,21.65371],[89.1975,21.65654],[89.26631,21.6542],[89.3205,21.6734],[89.32594,21.68527],[89.34887,21.6709],[89.43384,21.67258],[89.46865,21.67698],[89.49747,21.69245],[89.50834,21.67925],[89.54169,21.66351],[89.63747,21.66376],[89.61306,21.70547],[89.62227,21.74587],[89.65042,21.72932],[89.69649,21.74448],[89.7157,21.76272],[89.75362,21.83992],[89.83152,21.78572],[89.87926,21.7775],[89.90818,21.7804],[89.90983,21.8318],[89.90264,21.87625],[89.90669,21.911],[89.89565,21.96094],[89.95427,21.96647],[89.98334,21.98117],[90.02634,21.98672],[90.03036,21.97596],[90.05876,21.97025],[90.02203,21.95044],[90.01336,21.93428],[90.00742,21.89129],[90.01791,21.86022],[90.04025,21.84915],[90.07846,21.84509],[90.1038,21.8111],[90.14725,21.79715],[90.17735,21.79441],[90.21915,21.8065],[90.25153,21.82918],[90.30634,21.82593],[90.31582,21.83162],[90.41266,21.8151],[90.43609,21.81729],[90.47538,21.79881],[90.48592,21.80339],[90.53398,21.87014],[90.59606,21.89478],[90.59527,21.84434],[90.85742,21.83853],[90.85578,22.04881],[90.95623,22.02756],[90.9929,22.12158],[91.02107,22.11843],[91.02374,22.10336],[91.04771,22.08758],[91.10128,22.13597],[91.12553,22.14246],[91.1681,22.18134],[91.17654,22.19329],[91.18925,22.24254],[91.18811,22.27174],[91.20815,22.26938],[91.18726,22.37431],[91.22753,22.36121],[91.2214,22.453],[91.21395,22.45888],[91.18953,22.45944],[91.18415,22.50749],[91.25253,22.50669],[91.26329,22.5188],[91.23808,22.54275],[91.26971,22.54313],[91.26578,22.52043],[91.29086,22.48353],[91.31877,22.49929],[91.30985,22.50736],[91.32778,22.5014],[91.33489,22.50861],[91.32637,22.51704],[91.33184,22.51663],[91.32992,22.52064],[91.34357,22.51689],[91.33473,22.53223],[91.34058,22.53073],[91.34462,22.54414],[91.34293,22.53143],[91.35305,22.5259],[91.35486,22.55168],[91.34589,22.55357],[91.3526,22.55969],[91.33817,22.5649],[91.32361,22.55854],[91.29965,22.60529],[91.27213,22.63804],[91.28534,22.65125],[91.3112,22.6618],[91.31735,22.65555],[91.33287,22.65988],[91.3664,22.65444],[91.37566,22.686],[91.40037,22.67048],[91.40681,22.68386],[91.39223,22.70481],[91.37949,22.70434],[91.38136,22.71662],[91.45305,22.69067],[91.51788,22.63161],[91.52106,22.61778],[91.55723,22.57919],[91.61573,22.4966],[91.63491,22.4509],[91.64397,22.40669],[91.73902,22.40889],[91.7451,22.39931],[91.75158,22.3771],[91.74246,22.37346],[91.75497,22.28509],[91.77332,22.26296],[91.77853,22.23213],[91.81217,22.20784],[91.81135,22.17293],[91.83797,22.11622],[91.85769,22.10821],[91.86843,22.06225],[91.88035,22.04537],[91.87808,22.0308],[91.88511,22.0126],[91.8781,21.9438],[91.89799,21.94146],[91.9066,21.93104],[91.9044,21.91246],[91.91272,21.87946],[91.91432,21.85778],[91.90401,21.8591],[91.85575,21.73149],[91.87282,21.72224],[91.85598,21.6906],[91.84356,21.64766],[91.84645,21.58704],[91.85306,21.5713],[91.84989,21.54481],[91.8419,21.53389],[91.84727,21.51895],[91.89394,21.47446],[91.91764,21.47415],[91.92183,21.49096],[91.94425,21.50348],[91.9528,21.4976],[91.96177,21.49994],[91.97564,21.4806],[91.97543,21.47482],[91.96248,21.47417],[91.9463,21.46188],[92.01879,21.36602],[92.04248,21.30461],[92.04799,21.28624],[92.04618,21.18457],[92.05444,21.16703],[92.18524,21.0108],[92.21746,20.92668],[92.28077,20.82699],[92.31427,20.74364],[92.34563,20.72015],[92.36869,20.71779],[92.31586,20.88471],[92.27087,20.94044],[92.27155,20.98079],[92.26364,21.01175],[92.25402,21.02366],[92.26459,21.06226],[92.25883,21.07917],[92.23406,21.09706],[92.22391,21.12044],[92.20749,21.11898],[92.20135,21.12406],[92.19975,21.1615],[92.17743,21.15949],[92.17342,21.1699],[92.17484,21.18276],[92.20035,21.20076],[92.22068,21.23355],[92.21198,21.24813],[92.21988,21.25747],[92.21747,21.27822],[92.1984,21.30946],[92.19735,21.3284],[92.22434,21.3519],[92.23117,21.34915],[92.25863,21.36338],[92.25376,21.38544],[92.26956,21.40004],[92.26348,21.40872],[92.26921,21.4277],[92.29161,21.43096],[92.29728,21.41905],[92.30156,21.42382],[92.31086,21.41704],[92.3295,21.41922],[92.32685,21.43151],[92.33705,21.43587],[92.3435,21.46705],[92.35212,21.46224],[92.36682,21.47959],[92.37972,21.48122],[92.42653,21.43222],[92.43178,21.40715],[92.42781,21.37997],[92.43904,21.36556],[92.45757,21.36922],[92.4741,21.35445],[92.48481,21.35755],[92.49735,21.35147],[92.50919,21.36172],[92.50712,21.37767],[92.5251,21.3715],[92.55793,21.38338],[92.59533,21.24453],[92.62039,21.24952],[92.63522,21.27241],[92.68005,21.28947],[92.65186,21.35703],[92.6493,21.39121],[92.62701,21.46227],[92.60849,21.58369],[92.6096,21.62192],[92.6015,21.65721],[92.60608,21.68922],[92.59996,21.70178],[92.6109,21.77566],[92.60716,21.80215],[92.60919,21.81622],[92.62116,21.82464],[92.61461,21.83105],[92.61327,21.85016],[92.62087,21.86106],[92.63128,21.86217],[92.63238,21.8751],[92.60435,21.97899],[92.61044,21.99255],[92.59731,22.00836],[92.5993,22.02705],[92.59178,22.04091],[92.59924,22.06031],[92.59077,22.06686],[92.57282,22.11754],[92.56143,22.12829],[92.57882,22.14327],[92.59118,22.14011],[92.59074,22.12914],[92.59872,22.12404],[92.61006,22.13593],[92.60745,22.1712],[92.59459,22.17501],[92.58763,22.21852],[92.58994,22.25418],[92.57628,22.27155],[92.58103,22.27504],[92.57678,22.28396],[92.5803,22.31775],[92.55903,22.38138],[92.56027,22.4024],[92.5509,22.41941],[92.55449,22.43049],[92.54274,22.4975],[92.54966,22.50188],[92.55101,22.51304],[92.54371,22.51305],[92.53965,22.54052],[92.5218,22.55985],[92.52723,22.57327],[92.53765,22.57494],[92.5325,22.58704],[92.53906,22.58925],[92.53017,22.60469],[92.53536,22.61156],[92.52754,22.62125],[92.53221,22.63332],[92.5248,22.64027],[92.52867,22.6651],[92.5134,22.70869],[92.51726,22.71688],[92.50934,22.72931],[92.51249,22.73283],[92.47781,22.74965],[92.47013,22.79869],[92.45588,22.8202],[92.46236,22.83206],[92.45383,22.84332],[92.46457,22.84222],[92.45828,22.85198],[92.4647,22.85612],[92.45474,22.86629],[92.45965,22.87133],[92.44803,22.87806],[92.44694,22.89637],[92.43408,22.88577],[92.42184,22.90516],[92.42076,22.91957],[92.40384,22.91742],[92.40177,22.9123],[92.39718,22.93054],[92.37617,22.92942],[92.37198,22.93519],[92.37746,22.94756],[92.37437,22.97167],[92.38452,22.98322],[92.38261,23.03705],[92.39246,23.05237],[92.379,23.08667],[92.37231,23.0872],[92.35775,23.10694],[92.36718,23.12639],[92.35675,23.13408],[92.36383,23.15583],[92.3552,23.17917],[92.36004,23.18137],[92.353,23.18601],[92.35001,23.23502],[92.40051,23.23994],[92.39211,23.24922],[92.38684,23.26523],[92.39287,23.26538],[92.38237,23.28559],[92.38702,23.30537],[92.37772,23.32035],[92.36547,23.32343],[92.3811,23.35034],[92.37895,23.3634],[92.36994,23.37254],[92.36382,23.36672],[92.35789,23.37036],[92.36469,23.37981],[92.35422,23.38126],[92.3585,23.3895],[92.35135,23.4045],[92.35582,23.40887],[92.34707,23.41212],[92.34421,23.43259],[92.33009,23.42819],[92.32697,23.44812],[92.33207,23.45453],[92.325,23.45919],[92.32958,23.46601],[92.31865,23.46966],[92.32684,23.47812],[92.31753,23.48688],[92.32281,23.49094],[92.31816,23.49357],[92.31813,23.5184],[92.31347,23.51793],[92.31733,23.52833],[92.3072,23.53587],[92.31291,23.55492],[92.30736,23.57861],[92.3007,23.59397],[92.29587,23.58801],[92.28597,23.59661],[92.28738,23.61861],[92.29668,23.62402],[92.2809,23.63234],[92.27901,23.62576],[92.28147,23.63951],[92.27355,23.64376],[92.28918,23.67494],[92.2892,23.70116],[92.26561,23.72506],[92.24099,23.71982],[92.23691,23.71188],[92.24286,23.69557],[92.23239,23.68452],[92.23266,23.66692],[92.22556,23.6546],[92.21262,23.65246],[92.20603,23.67282],[92.21392,23.68406],[92.21135,23.69279],[92.20022,23.70702],[92.17681,23.70809],[92.16988,23.72275],[92.17248,23.73704],[92.16077,23.73906],[92.14471,23.73339],[92.12294,23.69604],[92.10708,23.68921],[92.09904,23.67609],[92.08281,23.68011],[92.07704,23.66778],[92.0796,23.64821],[92.06287,23.64539],[92.04147,23.64812],[92.02263,23.65806],[92.02438,23.66268],[92.0153,23.65942],[92.00839,23.66416],[92.00057,23.67137],[91.97842,23.73378],[91.96763,23.7297],[91.95665,23.73393],[91.94846,23.71398],[91.95122,23.69905],[91.95766,23.69493],[91.94241,23.69399],[91.9342,23.68552],[91.94628,23.64617],[91.94109,23.63464],[91.95301,23.60847],[91.95733,23.55131],[91.96473,23.53445],[91.95643,23.52276],[91.97077,23.50282],[91.96372,23.49754],[91.96565,23.46592],[91.95091,23.46549],[91.9398,23.44998],[91.92004,23.45241],[91.84983,23.40099],[91.84231,23.39059],[91.83699,23.36034],[91.82091,23.35915],[91.82833,23.3753],[91.82521,23.40107],[91.81597,23.39868],[91.81237,23.38536],[91.78963,23.39773],[91.79749,23.36363],[91.7843,23.35201],[91.78749,23.33916],[91.74315,23.3075],[91.76546,23.29932],[91.75964,23.28228],[91.77561,23.26769],[91.77495,23.24275],[91.78284,23.23984],[91.78992,23.21929],[91.78734,23.20494],[91.8087,23.16451],[91.80537,23.15747],[91.81264,23.14518],[91.80682,23.13484],[91.81314,23.13319],[91.80993,23.12146],[91.81688,23.10604],[91.81205,23.09767],[91.83376,23.09408],[91.81455,23.0807],[91.81682,23.07353],[91.80567,23.06382],[91.7945,23.06299],[91.78989,23.07139],[91.77312,23.06756],[91.78343,23.03891],[91.77909,23.02963],[91.77407,23.02816],[91.77448,23.03898],[91.76796,23.04117],[91.77078,23.03383],[91.71373,22.98456],[91.69854,22.98974],[91.6806,22.97721],[91.67669,22.98438],[91.67457,22.9792],[91.65809,22.98121],[91.6523,22.97599],[91.64644,22.98534],[91.63619,22.96292],[91.62435,22.96207],[91.62135,22.94223],[91.61462,22.95305],[91.60749,22.95174],[91.60927,22.95741],[91.6007,22.95502],[91.60569,22.96204],[91.61362,22.95894],[91.60604,22.97247],[91.59063,22.97778],[91.57713,22.9672],[91.55633,22.97895],[91.5567,22.99659],[91.5429,22.99816],[91.54793,23.01914],[91.53842,23.01981],[91.55015,23.03866],[91.5306,23.03869],[91.53667,23.0546],[91.52523,23.05547],[91.5354,23.06383],[91.52561,23.08319],[91.53041,23.0914],[91.51944,23.09442],[91.52271,23.1042],[91.51145,23.10447],[91.51253,23.1131],[91.52036,23.11457],[91.51533,23.11776],[91.51781,23.12559],[91.504,23.12739],[91.51527,23.14493],[91.49976,23.14247],[91.49518,23.14715],[91.50718,23.1544],[91.49427,23.15234],[91.49096,23.15778],[91.49822,23.17178],[91.49164,23.1777],[91.50746,23.18381],[91.50096,23.18537],[91.50318,23.19224],[91.48491,23.18836],[91.47078,23.19653],[91.48242,23.19858],[91.48441,23.20936],[91.47537,23.2205],[91.45837,23.21334],[91.45049,23.21899],[91.47026,23.22779],[91.45787,23.24617],[91.44784,23.24385],[91.45415,23.2604],[91.42113,23.26196],[91.41831,23.25574],[91.41947,23.27319],[91.41149,23.28414],[91.40964,23.25584],[91.3971,23.26508],[91.39708,23.25621],[91.40697,23.24779],[91.39132,23.24675],[91.39845,23.22945],[91.3855,23.22765],[91.39023,23.2201],[91.37913,23.20857],[91.38594,23.20431],[91.37845,23.18473],[91.39623,23.11771],[91.40222,23.11351],[91.39964,23.09655],[91.40538,23.09686],[91.40726,23.08353],[91.41637,23.08309],[91.41058,23.06613],[91.41599,23.0638],[91.3957,23.05605],[91.37015,23.06957],[91.34712,23.10138],[91.34713,23.1184],[91.34154,23.11848],[91.33256,23.1531],[91.32352,23.15928],[91.32366,23.23761],[91.31867,23.24515],[91.32655,23.25253],[91.31764,23.25349],[91.3111,23.27185],[91.31669,23.28141],[91.30237,23.28627],[91.30025,23.29299],[91.30732,23.30061],[91.3153,23.29794],[91.31499,23.30339],[91.3098,23.31463],[91.29019,23.31952],[91.29645,23.34076],[91.31049,23.34261],[91.31093,23.35241],[91.31956,23.35993],[91.29115,23.35133],[91.29403,23.36129],[91.28633,23.36287],[91.28459,23.37027],[91.29383,23.37473],[91.2799,23.37695],[91.27598,23.41409],[91.26376,23.42322],[91.26984,23.42978],[91.25151,23.45296],[91.24917,23.48971],[91.2365,23.48965],[91.2355,23.50221],[91.21787,23.49966],[91.22315,23.51482],[91.2076,23.51249],[91.20026,23.52067],[91.21254,23.55098],[91.1942,23.54766],[91.19476,23.56342],[91.17485,23.5861],[91.17734,23.59253],[91.16345,23.59475],[91.15604,23.6709],[91.17154,23.65718],[91.18222,23.65981],[91.19261,23.65443],[91.19064,23.64706],[91.19847,23.64708],[91.20379,23.65054],[91.20695,23.68655],[91.19535,23.69195],[91.15317,23.68879],[91.14848,23.71186],[91.1558,23.73658],[91.16766,23.7502],[91.20589,23.75003],[91.21846,23.73682],[91.2261,23.75051],[91.23067,23.76686],[91.22645,23.79139],[91.23301,23.8109],[91.25448,23.83779],[91.22961,23.88084],[91.2289,23.89832],[91.24581,23.91305],[91.23337,23.92691],[91.2753,23.92468],[91.26431,23.946],[91.28507,23.98236],[91.28756,23.96782],[91.29936,23.9717],[91.30418,23.99689],[91.31598,23.98981],[91.33013,23.99228],[91.34128,23.98165],[91.3616,23.98561],[91.37993,23.97519],[91.37302,24.00214],[91.39092,24.02498],[91.39649,24.04914],[91.37732,24.07916],[91.37465,24.10759],[91.42627,24.10839],[91.43171,24.09902],[91.46295,24.09462],[91.47396,24.10003],[91.49583,24.09418],[91.49888,24.08571],[91.54673,24.07351],[91.57359,24.07362],[91.57548,24.07875],[91.58342,24.07191],[91.59285,24.07365],[91.59984,24.08358],[91.59278,24.09106],[91.59657,24.09535],[91.61261,24.09051],[91.63939,24.1023],[91.64252,24.11294],[91.63599,24.1366],[91.64815,24.15518],[91.64662,24.17783],[91.65579,24.17605],[91.6597,24.1896],[91.64771,24.21452],[91.66637,24.23279],[91.6681,24.20918],[91.68008,24.19335],[91.68573,24.16525],[91.69278,24.15986],[91.70347,24.16325],[91.7065,24.15444],[91.72113,24.15214],[91.72737,24.14387],[91.75934,24.14172],[91.74615,24.24731],[91.82037,24.21045],[91.83833,24.21947],[91.83885,24.22724],[91.84534,24.2263],[91.84322,24.22179],[91.85543,24.21258],[91.84282,24.20176],[91.84818,24.18616],[91.87373,24.17458],[91.88426,24.13922],[91.90572,24.1397],[91.91382,24.15396],[91.91168,24.16993],[91.94005,24.2696],[91.91968,24.33757],[91.94077,24.34302],[91.95631,24.35665],[91.96805,24.35031],[91.98222,24.32478],[91.99585,24.32333],[91.99632,24.3396],[91.97823,24.35792],[91.98436,24.36206],[91.9707,24.37396],[91.97188,24.3799],[91.96613,24.38006],[91.97214,24.38528],[91.98568,24.37754],[91.99666,24.39426],[92.00711,24.38251],[92.02301,24.38697],[92.04387,24.37622],[92.09064,24.373],[92.10208,24.38351],[92.12187,24.38338],[92.1189,24.39087],[92.13471,24.40827],[92.13628,24.42578],[92.15387,24.42662],[92.16386,24.42038],[92.16772,24.42704],[92.15142,24.48989],[92.15207,24.50214],[92.1588,24.50656],[92.15339,24.51155],[92.1579,24.52902],[92.16793,24.53204],[92.20213,24.5074],[92.22945,24.50079],[92.23326,24.58179],[92.24918,24.64169],[92.24645,24.65625],[92.26011,24.68689],[92.29629,24.73678],[92.28007,24.74582],[92.28972,24.76055],[92.28114,24.76599],[92.28942,24.78511],[92.27355,24.79957],[92.27361,24.82741],[92.24974,24.82984],[92.25495,24.83811],[92.243,24.8403],[92.23536,24.86126],[92.23884,24.86827],[92.24636,24.86702],[92.2474,24.88496],[92.23314,24.90117],[92.24896,24.90918],[92.28147,24.90607],[92.2999,24.91473],[92.30669,24.90063],[92.32559,24.89605],[92.33855,24.87819],[92.34842,24.88926],[92.36186,24.87255],[92.37472,24.87222],[92.38592,24.8518],[92.40131,24.84975],[92.40718,24.85927],[92.42614,24.85296],[92.43796,24.85716],[92.44429,24.87239],[92.47525,24.86837],[92.49281,24.87566],[92.49102,24.89175],[92.49706,24.90184],[92.48402,24.93007],[92.48756,24.94751],[92.44916,24.9389],[92.45159,24.95235],[92.46888,24.96248],[92.45911,24.97073],[92.42022,24.96698],[92.42251,24.98834],[92.41631,24.99033],[92.42506,25.02892],[92.39856,25.03282],[92.38347,25.04224],[92.36912,25.04075],[92.36295,25.04982],[92.33953,25.04994],[92.34838,25.06174],[92.34639,25.07458],[92.3224,25.07816],[92.31882,25.07006],[92.30991,25.06934],[92.22741,25.09435],[92.22259,25.10389],[92.19629,25.10815],[92.20041,25.11991],[92.22138,25.11636],[92.19456,25.12569],[92.19238,25.13465],[92.18323,25.118],[92.17207,25.12857],[92.16396,25.12425],[92.15961,25.12751],[92.16492,25.13064],[92.15888,25.13297],[92.16569,25.13583],[92.13624,25.13915],[92.14569,25.13975],[92.13458,25.14317],[92.13976,25.15443],[92.13281,25.16015],[92.10502,25.17594],[92.06237,25.18705],[92.02628,25.17909],[92.01636,25.18745],[92.00328,25.18617],[91.98071,25.17221],[91.93068,25.18149],[91.89885,25.18052],[91.88056,25.17338],[91.82765,25.17789],[91.77481,25.16343],[91.75874,25.16837],[91.75566,25.17743],[91.7445,25.16999],[91.7496,25.15861],[91.74232,25.1447],[91.74696,25.13995],[91.70409,25.15969],[91.70345,25.15001],[91.69183,25.13731],[91.66962,25.13798],[91.66494,25.1285],[91.65743,25.13208],[91.63744,25.12293],[91.62288,25.12829],[91.62098,25.14362],[91.60218,25.1422],[91.60009,25.15972],[91.60449,25.16798],[91.61545,25.17058],[91.61081,25.17706],[91.57723,25.17208],[91.57164,25.16526],[91.57596,25.15966],[91.56298,25.16055],[91.55576,25.14947],[91.50901,25.14741],[91.50024,25.13576],[91.47127,25.13382],[91.46427,25.13555],[91.47063,25.14024],[91.46915,25.15151],[91.44072,25.14975],[91.41424,25.17042],[91.4106,25.1639],[91.39834,25.16458],[91.36847,25.16998],[91.36365,25.17768],[91.35365,25.17159],[91.31894,25.18323],[91.29307,25.1834],[91.28657,25.18545],[91.29235,25.19202],[91.26777,25.2057],[91.25054,25.19507],[91.19808,25.20178],[91.13226,25.19378],[91.07318,25.19827],[91.07045,25.1916],[91.02018,25.18766],[90.92748,25.16381],[90.88351,25.16762],[90.85821,25.15893],[90.80702,25.16594],[90.79465,25.18135],[90.78471,25.17896],[90.78027,25.18658],[90.76311,25.17813],[90.7595,25.16837],[90.73423,25.16653],[90.74172,25.16037],[90.73216,25.15479],[90.71065,25.1679],[90.69774,25.15698],[90.68287,25.16386],[90.68594,25.17451],[90.67508,25.17639],[90.66625,25.16575],[90.6639,25.1979],[90.6588,25.18522],[90.64836,25.19448],[90.65288,25.18691],[90.64895,25.1806],[90.64071,25.18356],[90.64204,25.17455],[90.61847,25.17258],[90.60983,25.17885],[90.57604,25.17133],[90.50953,25.17511],[90.51011,25.16983],[90.4994,25.1716],[90.44137,25.14412],[90.4059,25.15916],[90.37045,25.1625],[90.32966,25.19304],[90.30992,25.18827],[90.23862,25.20478],[90.2276,25.20033],[90.173,25.22203],[90.1175,25.22303],[90.0749,25.24416],[90.0562,25.26122],[90.03762,25.26114],[90.00724,25.28028],[89.98324,25.28097],[89.97942,25.29649],[89.96791,25.30452],[89.94907,25.2932],[89.94434,25.30424],[89.93891,25.29915],[89.90777,25.30804],[89.87634,25.28558],[89.8332,25.29473],[89.8412,25.31528],[89.82286,25.34824],[89.81973,25.38117],[89.83258,25.43878],[89.85182,25.46665],[89.84893,25.49237],[89.86013,25.51728],[89.85129,25.53854],[89.86616,25.54608],[89.88239,25.61626],[89.87129,25.66218],[89.86396,25.6649],[89.84703,25.69553],[89.8511,25.71278],[89.8355,25.71545],[89.82717,25.73193],[89.841,25.76122],[89.82652,25.80997],[89.81681,25.81533],[89.83496,25.84087],[89.83217,25.87044],[89.87834,25.92395],[89.88668,25.94543],[89.8423,25.94001],[89.82512,25.94524],[89.82949,25.95491],[89.84948,25.94902],[89.83819,25.968],[89.86627,25.97141],[89.87293,25.97522],[89.87074,25.98139],[89.85085,25.98983],[89.83485,26.01353],[89.83004,26.00368],[89.83619,25.98274],[89.82078,25.98688],[89.8149,25.99723],[89.82056,25.99781],[89.82156,26.01033],[89.81473,26.01986],[89.81881,26.02633],[89.80871,26.04415],[89.79032,26.01853],[89.78728,26.02198],[89.80147,26.04079],[89.79297,26.04284],[89.79115,26.03497],[89.78941,26.04082],[89.77402,26.03803],[89.78855,26.04979],[89.78543,26.0576],[89.79854,26.05995],[89.79676,26.07671],[89.79041,26.07657],[89.79451,26.08896],[89.78193,26.08376],[89.78511,26.10457],[89.75685,26.10814],[89.76702,26.13035],[89.75489,26.13849],[89.74849,26.15637],[89.71951,26.15573],[89.71417,26.16849],[89.70853,26.15455],[89.7007,26.15134],[89.68137,26.16365],[89.68408,26.1697],[89.70154,26.17316],[89.6861,26.18366],[89.68464,26.19765],[89.67379,26.19986],[89.67604,26.20911],[89.68504,26.20672],[89.69155,26.2129],[89.6842,26.20811],[89.67951,26.21444],[89.67899,26.22369],[89.68921,26.2218],[89.68359,26.223],[89.68713,26.22636],[89.68123,26.22757],[89.679,26.23758],[89.6718,26.21993],[89.65574,26.219],[89.63408,26.22845],[89.63246,26.21029],[89.64983,26.19029],[89.64444,26.18453],[89.62989,26.19537],[89.62773,26.18327],[89.65536,26.18124],[89.65856,26.17624],[89.64937,26.16437],[89.63172,26.17187],[89.63647,26.1787],[89.62353,26.1708],[89.62332,26.17895],[89.60862,26.18039],[89.61507,26.17555],[89.61139,26.16784],[89.61875,26.16772],[89.60787,26.1586],[89.61048,26.15529],[89.59885,26.1609],[89.5915,26.15747],[89.59826,26.15274],[89.59624,26.13481],[89.60712,26.12431],[89.60095,26.12273],[89.60404,26.11708],[89.61151,26.12751],[89.61885,26.11931],[89.62499,26.12845],[89.62947,26.11821],[89.6147,26.10683],[89.59741,26.11256],[89.59959,26.10306],[89.59347,26.10112],[89.60826,26.08795],[89.60912,26.09584],[89.61691,26.09487],[89.61309,26.10293],[89.62045,26.09988],[89.62361,26.1077],[89.62973,26.10666],[89.63838,26.08988],[89.63316,26.07982],[89.64954,26.06367],[89.62876,26.06213],[89.61858,26.05319],[89.61703,26.06005],[89.60457,26.06345],[89.61159,26.05219],[89.59154,26.04455],[89.59654,26.03699],[89.58687,26.03851],[89.58386,26.02447],[89.57767,26.02537],[89.587,25.97962],[89.5845,25.97526],[89.5755,25.98078],[89.5777,25.96869],[89.56845,25.96774],[89.5665,25.97985],[89.55789,25.96506],[89.54034,25.9699],[89.54233,25.98304],[89.53568,25.9888],[89.54852,25.99999],[89.51982,26.00843],[89.50695,26.00145],[89.49161,26.00625],[89.47358,25.98191],[89.48182,25.9903],[89.47983,25.99706],[89.46166,25.99867],[89.42774,26.01395],[89.43422,26.03171],[89.42418,26.04745],[89.40699,26.04172],[89.40688,26.03198],[89.3911,26.02296],[89.39324,26.00813],[89.3491,26.0109],[89.34955,26.01646],[89.33544,26.02033],[89.33801,26.02393],[89.3253,26.03669],[89.31601,26.03723],[89.30037,26.05095],[89.29638,26.04575],[89.27612,26.04955],[89.2806,26.06598],[89.27112,26.06047],[89.25494,26.06484],[89.25722,26.08035],[89.26712,26.09305],[89.2522,26.09213],[89.25188,26.10139],[89.22916,26.11576],[89.22907,26.12477],[89.22698,26.12089],[89.20097,26.12814],[89.19184,26.12319],[89.15484,26.13863],[89.14822,26.15809],[89.15682,26.16234],[89.14064,26.16921],[89.13424,26.18196],[89.14947,26.20859],[89.14162,26.21487],[89.13984,26.23706],[89.1305,26.24254],[89.13808,26.24748],[89.12037,26.25182],[89.12477,26.26356],[89.10556,26.27415],[89.10583,26.28118],[89.10015,26.27954],[89.10716,26.29108],[89.1074,26.30062],[89.09959,26.30446],[89.10503,26.31607],[89.12142,26.28681],[89.13231,26.29882],[89.1247,26.30555],[89.13615,26.30792],[89.12965,26.31268],[89.13611,26.32196],[89.11273,26.31838],[89.09733,26.32914],[89.0916,26.32036],[89.08295,26.32191],[89.10103,26.33701],[89.09329,26.35303],[89.09832,26.35913],[89.07967,26.36304],[89.08812,26.36604],[89.09572,26.39079],[89.08003,26.39153],[89.08743,26.39754],[89.07412,26.3914],[89.06292,26.40111],[89.05796,26.39551],[89.04051,26.4005],[89.03376,26.3954],[89.02987,26.4071],[89.01968,26.40425],[89.02225,26.41377],[89.00735,26.41302],[89.00322,26.42236],[88.99352,26.42227],[88.99886,26.41246],[88.99416,26.4118],[88.98084,26.4243],[88.98357,26.44516],[88.95803,26.45817],[88.96562,26.45078],[88.94676,26.44689],[88.95207,26.43358],[88.94332,26.4309],[88.94509,26.4249],[88.92642,26.43135],[88.93326,26.42523],[88.92292,26.42218],[88.93158,26.41377],[88.92623,26.40619],[88.90485,26.40772],[88.91822,26.39977],[88.9163,26.38444],[88.90885,26.37968],[88.92149,26.37686],[88.91132,26.372],[88.91178,26.36581],[88.92012,26.36585],[88.91912,26.35893],[88.92749,26.36463],[88.94715,26.35495],[88.95293,26.36539],[88.95826,26.35667],[88.94585,26.34354],[88.95832,26.343],[88.95171,26.33896],[88.95609,26.32959],[88.96228,26.33561],[88.96114,26.35168],[88.97844,26.34587],[88.98507,26.34951],[88.98918,26.33791],[88.98091,26.34041],[88.98488,26.33276],[89.00035,26.32917],[88.99086,26.32148],[88.99586,26.31303],[88.98369,26.31705],[88.98425,26.30026],[88.99676,26.29973],[88.99442,26.29206],[88.99942,26.29059],[89.00716,26.30485],[89.01779,26.28943],[89.01434,26.29998],[89.02127,26.3089],[89.02639,26.30699],[89.02118,26.28756],[89.02765,26.28282],[89.03946,26.28582],[89.03852,26.27727],[89.04495,26.27511],[89.05002,26.28822],[89.04498,26.28381],[89.04592,26.29528],[89.05865,26.2932],[89.0622,26.27857],[89.05391,26.27654],[89.06236,26.26987],[89.06268,26.25378],[89.05089,26.25489],[89.05063,26.24108],[89.03708,26.24689],[89.03573,26.24187],[89.03017,26.24678],[89.02515,26.24325],[89.0234,26.24846],[89.01903,26.24216],[88.99188,26.24582],[88.96389,26.23899],[88.9529,26.24222],[88.92548,26.28374],[88.883,26.2876],[88.87062,26.28438],[88.86101,26.27291],[88.86136,26.25216],[88.87206,26.23975],[88.87754,26.24234],[88.87746,26.23318],[88.85085,26.23519],[88.84239,26.23021],[88.8382,26.23828],[88.82741,26.24001],[88.82845,26.24988],[88.81343,26.25503],[88.81026,26.27656],[88.81943,26.29541],[88.79449,26.31058],[88.76032,26.30103],[88.75656,26.32184],[88.76127,26.33502],[88.75375,26.33933],[88.74925,26.3547],[88.73232,26.35481],[88.73411,26.3494],[88.71307,26.34473],[88.70413,26.33302],[88.70393,26.34137],[88.69446,26.34594],[88.69829,26.35701],[88.69154,26.3608],[88.69611,26.36206],[88.68076,26.3804],[88.70188,26.38863],[88.68726,26.38692],[88.68908,26.39602],[88.67006,26.39762],[88.68696,26.40171],[88.68553,26.41377],[88.66802,26.40761],[88.65927,26.41699],[88.64468,26.41896],[88.65079,26.42173],[88.64935,26.43005],[88.62341,26.43499],[88.6275,26.44153],[88.62235,26.47097],[88.59516,26.47091],[88.59177,26.44995],[88.5591,26.45775],[88.55981,26.47324],[88.55235,26.47609],[88.55599,26.48527],[88.5265,26.48109],[88.51803,26.50118],[88.52102,26.51003],[88.50711,26.51611],[88.48972,26.51054],[88.48561,26.52692],[88.49002,26.53274],[88.48272,26.53237],[88.48421,26.54172],[88.45954,26.54752],[88.45676,26.53711],[88.44859,26.5355],[88.43329,26.54733],[88.42138,26.56961],[88.41529,26.63177],[88.41501,26.63199]],[[92.32343,20.63698],[92.31505,20.62813],[92.32495,20.61825],[92.32457,20.59456],[92.33029,20.59061],[92.32958,20.63596],[92.32364,20.63693],[92.32343,20.63698]],[[91.87018,21.92309],[91.84634,21.89935],[91.8409,21.85845],[91.85116,21.82446],[91.84213,21.80511],[91.84472,21.7754],[91.83312,21.76028],[91.82943,21.74271],[91.83361,21.72114],[91.84572,21.72429],[91.84523,21.74056],[91.89463,21.86081],[91.89266,21.89581],[91.87981,21.92114],[91.87059,21.92302],[91.87018,21.92309]],[[91.07206,22.0193],[91.0783,22.02402],[91.0758,22.02639],[91.07096,22.02149],[91.07206,22.0193]],[[91.08274,22.05355],[91.08272,22.06411],[91.07102,22.06371],[91.04929,22.05467],[91.04837,22.04861],[91.05645,22.05176],[91.05862,22.03028],[91.08258,22.05312],[91.08274,22.05355]],[[91.03375,22.08376],[91.00332,22.10052],[90.98021,22.08154],[90.97471,22.05152],[90.98343,22.02793],[90.9927,22.0231],[91.02474,22.04398],[91.02016,22.03449],[91.03419,22.03857],[91.04976,22.07195],[91.04405,22.08337],[91.03584,22.08365],[91.03375,22.08376]],[[91.37673,22.35207],[91.39841,22.37501],[91.39694,22.38894],[91.36319,22.37038],[91.37551,22.3519],[91.37673,22.35207]],[[91.25624,22.40976],[91.26637,22.42316],[91.25648,22.43548],[91.24575,22.42629],[91.25511,22.40968],[91.25624,22.40976]],[[91.2771,22.4411],[91.27794,22.44358],[91.27598,22.44833],[91.27072,22.44636],[91.2771,22.4411]],[[91.35719,22.60175],[91.35557,22.60448],[91.35243,22.60924],[91.34865,22.60727],[91.35719,22.60175]],[[91.35339,22.59951],[91.34389,22.61149],[91.33707,22.60846],[91.33659,22.59908],[91.33489,22.61121],[91.32349,22.61039],[91.34364,22.58331],[91.3536,22.58603],[91.3533,22.59879],[91.35339,22.59951]],[[91.559,22.47908],[91.50225,22.56668],[91.45609,22.61334],[91.43943,22.61813],[91.42818,22.61032],[91.41014,22.58245],[91.41382,22.56561],[91.39039,22.56552],[91.38469,22.55881],[91.38293,22.48655],[91.39874,22.44347],[91.38271,22.4395],[91.40666,22.42836],[91.4073,22.42212],[91.4409,22.39737],[91.46072,22.39381],[91.47676,22.40059],[91.51574,22.38579],[91.56345,22.39878],[91.57831,22.42602],[91.56318,22.46966],[91.559,22.47908]],[[88.92731,26.33172],[88.91903,26.33417],[88.92838,26.30711],[88.92594,26.29244],[88.93588,26.2919],[88.95265,26.2754],[88.98059,26.28318],[88.98259,26.30098],[88.95944,26.29518],[88.96293,26.30358],[88.95324,26.30467],[88.95204,26.31718],[88.93624,26.31321],[88.94004,26.33271],[88.9277,26.33164],[88.92731,26.33172]]]}}]}