{"type":"FeatureCollection","features":[{"type":"Feature","properties":{"name":"Dhaka","level":0,"division_name":"Dhaka"},"geometry":{"type":"Point","coordinates":[90.40861,23.72306]}},{"type":"Feature","properties":{"name":"Jhalokathi","level":2,"district_name":"Jhalokathi","division_name":"Barishal"},"geometry":{"type":"Point","coordinates":[90.19903,22.64262]}},{"type":"Feature","properties":{"name":"Dinajpur","level":2,"district_name":"Dinajpur","division_name":"Rangpur"},"geometry":{"type":"Point","coordinates":[88.63462,25.62607]}},{"type":"Feature","properties":{"name":"Chapainawabganj","level":2,"district_name":"Chapainawabganj","division_name":"Rajshahi"},"geometry":{"type":"Point","coordinates":[88.27076,24.59544]}},{"type":"Feature","properties":{"name":"Satkhira","level":2,"district_name":"Satkhira","division_name":"Khulna"},"geometry":{"type":"Point","coordinates":[89.07499,22.71665]}},{"type":"Feature","properties":{"name":"Lalmonirhat","level":2,"district_name":"Lalmonirhat","division_name":"Rangpur"},"geometry":{"type":"Point","coordinates":[89.44614,25.91635]}},{"type":"Feature","properties":{"name":"Kishoreganj","level":2,"district_name":"Kishoreganj","division_name":"Dhaka"},"geometry":{"type":"Point","coordinates":[90.78572,24.43398]}},{"type":"Feature","properties":{"name":"Faridpur","level":2,"district_name":"Faridpur","division_name":"Dhaka"},"geometry":{"type":"Point","coordinates":[89.84155,23.60402]}},{"type":"Feature","properties":{"name":"Jashore","level":2,"district_name":"Jashore","division_name":"Khulna"},"geometry":{"type":"Point","coordinates":[89.20944,23.16653]}},{"type":"Feature","properties":{"name":"Cox's Bazar","level":2,"district_name":"Cox's Bazar","division_name":"Chattogram"},"geometry":{"type":"Point","coordinates":[91.98125,21.442]}},{"type":"Feature","properties":{"name":"Netrokona","level":2,"district_name":"Netrakona","division_name":"Mymensingh"},"geometry":{"type":"Point","coordinates":[90.73324,24.88557]}},{"type":"Feature","properties":{"name":"Joypurhat","level":2,"district_name":"Joypurhat","division_name":"Rajshahi"},"geometry":{"type":"Point","coordinates":[89.02291,25.1038]}},{"type":"Feature","properties":{"name":"Naogaon","level":2,"district_name":"Naogaon","division_name":"Rajshahi"},"geometry":{"type":"Point","coordinates":[88.94454,24.80732]}},{"type":"Feature","properties":{"name":"Sunamganj","level":2,"district_name":"Sunamganj","division_name":"Sylhet"},"geometry":{"type":"Point","coordinates":[91.39858,25.0671]}},{"type":"Feature","properties":{"name":"Habiganj","level":2,"district_name":"Habiganj","division_name":"Sylhet"},"geometry":{"type":"Point","coordinates":[91.41205,24.38753]}},{"type":"Feature","properties":{"name":"Sirajganj","level":2,"district_name":"Sirajganj","division_name":"Rajshahi"},"geometry":{"type":"Point","coordinates":[89.7057,24.45722]}},{"type":"Feature","properties":{"name":"Jamalpur","level":2,"district_name":"Jamalpur","division_name":"Mymensingh"},"geometry":{"type":"Point","coordinates":[89.94367,24.92559]}},{"type":"Feature","properties":{"name":"Panchagarh","level":2,"district_name":"Panchagarh","division_name":"Rangpur"},"geometry":{"type":"Point","coordinates":[88.55594,26.33186]}},{"type":"Feature","properties":{"name":"Bogura","level":2,"district_name":"Bogura","division_name":"Rajshahi"},"geometry":{"type":"Point","coordinates":[89.37284,24.85007]}},{"type":"Feature","properties":{"name":"Gaibandha","level":2,"district_name":"Gaibandha","division_name":"Rangpur"},"geometry":{"type":"Point","coordinates":[89.54797,25.3313]}},{"type":"Feature","properties":{"name":"Bandarban","level":2,"district_name":"Bandarban","division_name":"Chattogram"},"geometry":{"type":"Point","coordinates":[92.22175,22.19729]}},{"type":"Feature","properties":{"name":"Gopalganj","level":2,"district_name":"Gopalganj","division_name":"Dhaka"},"geometry":{"type":"Point","coordinates":[89.83032,23.00499]}},{"type":"Feature","properties":{"name":"Madaripur","level":2,"district_name":"Madaripur","division_name":"Dhaka"},"geometry":{"type":"Point","coordinates":[90.20473,23.16752]}},{"type":"Feature","properties":{"name":"Narail","level":2,"district_name":"Narail","division_name":"Khulna"},"geometry":{"type":"Point","coordinates":[89.505,23.175]}},{"type":"Feature","properties":{"name":"Magura","level":2,"district_name":"Magura","division_name":"Khulna"},"geometry":{"type":"Point","coordinates":[89.42018,23.48808]}},{"type":"Feature","properties":{"name":"Rajbari","level":2,"district_name":"Rajbari","division_name":"Dhaka"},"geometry":{"type":"Point","coordinates":[89.6478,23.7539]}},{"type":"Feature","properties":{"name":"Rangamati","level":2,"district_name":"Rangamati","division_name":"Chattogram"},"geometry":{"type":"Point","coordinates":[92.18143,22.65092]}},{"type":"Feature","properties":{"name":"Narsingdi","level":2,"district_name":"Narsingdi","division_name":"Dhaka"},"geometry":{"type":"Point","coordinates":[90.7153,23.91972]}},{"type":"Feature","properties":{"name":"Lakshmipur","level":2,"district_name":"Lakshmipur","division_name":"Chattogram"},"geometry":{"type":"Point","coordinates":[90.82763,22.94454]}},{"type":"Feature","properties":{"name":"Chandpur","level":2,"district_name":"Chandpur","division_name":"Chattogram"},"geometry":{"type":"Point","coordinates":[90.6531,23.22418]}},{"type":"Feature","properties":{"name":"Khagrachhari","level":2,"district_name":"Khagrachhari","division_name":"Chattogram"},"geometry":{"type":"Point","coordinates":[91.989,23.1078]}},{"type":"Feature","properties":{"name":"Bhola","level":2,"district_name":"Bhola","division_name":"Barishal"},"geometry":{"type":"Point","coordinates":[90.64058,22.6891]}},{"type":"Feature","properties":{"name":"Meherpur","level":2,"district_name":"Meherpur","division_name":"Khulna"},"geometry":{"type":"Point","coordinates":[88.63114,23.77515]}},{"type":"Feature","properties":{"name":"Manikganj","level":2,"district_name":"Manikganj","division_name":"Dhaka"},"geometry":{"type":"Point","coordinates":[89.99951,23.8696]}},{"type":"Feature","properties":{"name":"Munshiganj","level":2,"district_name":"Munshiganj","division_name":"Dhaka"},"geometry":{"type":"Point","coordinates":[90.53497,23.54838]}},{"type":"Feature","properties":{"name":"Pirojpur","level":2,"district_name":"Pirojpur","division_name":"Barishal"},"geometry":{"type":"Point","coordinates":[89.96922,22.57858]}},{"type":"Feature","properties":{"name":"Patuakhali","level":2,"district_name":"Patuakhali","division_name":"Barishal"},"geometry":{"type":"Point","coordinates":[90.33105,22.35897]}},{"type":"Feature","properties":{"name":"Thakurgaon","level":2,"district_name":"Thakurgaon","division_name":"Rangpur"},"geometry":{"type":"Point","coordinates":[88.46888,26.01996]}},{"type":"Feature","properties":{"name":"Bagerhat","level":2,"district_name":"Bagerhat","division_name":"Khulna"},"geometry":{"type":"Point","coordinates":[89.79418,22.65548]}},{"type":"Feature","properties":{"name":"Sherpur","level":2,"district_name":"Sherpur","division_name":"Mymensingh"},"geometry":{"type":"Point","coordinates":[90.01497,25.02284]}},{"type":"Feature","properties":{"name":"Nilphamari","level":2,"district_name":"Nilphamari","division_name":"Rangpur"},"geometry":{"type":"Point","coordinates":[88.85346,25.93393]}},{"type":"Feature","properties":{"name":"Feni","level":2,"district_name":"Feni","division_name":"Chattogram"},"geometry":{"type":"Point","coordinates":[91.39653,23.00682]}},{"type":"Feature","properties":{"name":"Barguna","level":2,"district_name":"Barguna","division_name":"Barishal"},"geometry":{"type":"Point","coordinates":[90.11781,22.15908]}},{"type":"Feature","properties":{"name":"Shariatpur","level":2,"district_name":"Shariatpur","division_name":"Dhaka"},"geometry":{"type":"Point","coordinates":[90.34812,23.21328]}},{"type":"Feature","properties":{"name":"Jhenaidah","level":2,"district_name":"Jhenaidah","division_name":"Khulna"},"geometry":{"type":"Point","coordinates":[89.17319,23.5447]}},{"type":"Feature","properties":{"name":"Moulvibazar","level":2,"district_name":"Moulvibazar","division_name":"Sylhet"},"geometry":{"type":"Point","coordinates":[91.76302,24.48808]}},{"type":"Feature","properties":{"name":"Brahmanbaria","level":2,"district_name":"Brahmanbaria","division_name":"Chattogram"},"geometry":{"type":"Point","coordinates":[91.11045,23.96915]}},{"type":"Feature","properties":{"name":"Natore","level":2,"district_name":"Natore","division_name":"Rajshahi"},"geometry":{"type":"Point","coordinates":[88.98667,24.41318]}},{"type":"Feature","properties":{"name":"Pabna","level":2,"district_name":"Pabna","division_name":"Rajshahi"},"geometry":{"type":"Point","coordinates":[89.24483,24.00681]}},{"type":"Feature","properties":{"name":"Gazipur","level":2,"district_name":"Gazipur","division_name":"Dhaka"},"geometry":{"type":"Point","coordinates":[90.41736,23.99976]}},{"type":"Feature","properties":{"name":"Cumilla","level":2,"district_name":"Cumilla","division_name":"Chattogram"},"geometry":{"type":"Point","coordinates":[91.18087,23.46106]}},{"type":"Feature","properties":{"name":"Narayanganj","level":2,"district_name":"Narayanganj","division_name":"Dhaka"},"geometry":{"type":"Point","coordinates":[90.49881,23.62367]}},{"type":"Feature","properties":{"name":"Kushtia","level":2,"district_name":"Kushtia","division_name":"Khulna"},"geometry":{"type":"Point","coordinates":[89.12955,23.8988]}},{"type":"Feature","properties":{"name":"Kurigram","level":2,"district_name":"Kurigram","division_name":"Rangpur"},"geometry":{"type":"Point","coordinates":[89.64305,25.81301]}},{"type":"Feature","properties":{"name":"Chuadanga","level":2,"district_name":"Chuadanga","division_name":"Khulna"},"geometry":{"type":"Point","coordinates":[88.84645,23.64366]}},{"type":"Feature","properties":{"name":"Tangail","level":2,"district_name":"Tangail","division_name":"Dhaka"},"geometry":{"type":"Point","coordinates":[89.91515,24.25075]}},{"type":"Feature","properties":{"name":"Noakhali","level":2,"district_name":"Noakhali","division_name":"Chattogram"},"geometry":{"type":"Point","coordinates":[91.10106,22.82042]}},{"type":"Feature","properties":{"name":"Barisal","level":1,"division_name":"Barishal"},"geometry":{"type":"Point","coordinates":[90.37982,22.70605]}},{"type":"Feature","properties":{"name":"Chattogram","level":1,"division_name":"Chattogram"},"geometry":{"type":"Point","coordinates":[91.83391,22.32915]}},{"type":"Feature","properties":{"name":"Khulna","level":1,"division_name":"Khulna"},"geometry":{"type":"Point","coordinates":[89.54947,22.84664]}},{"type":"Feature","properties":{"name":"Mymensingh","level":1,"division_name":"Mymensingh"},"geometry":{"type":"Point","coordinates":[90.40257,24.73952]}},{"type":"Feature","properties":{"name":"Rajshahi","level":1,"division_name":"Rajshahi"},"geometry":{"type":"Point","coordinates":[88.60069,24.38174]}},{"type":"Feature","properties":{"name":"Rangpur","level":1,"division_name":"Rangpur"},"geometry":{"type":"Point","coordinates":[89.26058,25.74024]}},{"type":"Feature","properties":{"name":"Sylhet","level":1,"division_name":"Sylhet"},"geometry":{"type":"Point","coordinates":[91.86861,24.90745]}},{"type":"Feature","properties":{"name":"Sadar Dakkhin","level":3,"district_name":"Cumilla","division_name":"Chattogram"},"geometry":{"type":"Point","coordinates":[91.24076,23.37653]}},{"type":"Feature","properties":{"name":"Nesarabad (Swarupkathi)","level":3,"district_name":"Pirojpur","division_name":"Barishal"},"geometry":{"type":"Point","coordinates":[90.10144,22.74734]}},{"type":"Feature","properties":{"name":"Tongibari","level":3,"district_name":"Munshiganj","division_name":"Dhaka"},"geometry":{"type":"Point","coordinates":[90.46597,23.51029]}},{"type":"Feature","properties":{"name":"Nazirpur","level":3,"district_name":"Pirojpur","division_name":"Barishal"},"geometry":{"type":"Point","coordinates":[89.96088,22.72937]}},{"type":"Feature","properties":{"name":"Bahubal","level":3,"district_name":"Habiganj","division_name":"Sylhet"},"geometry":{"type":"Point","coordinates":[91.53863,24.33862]}},{"type":"Feature","properties":{"name":"Chunarughat","level":3,"district_name":"Habiganj","division_name":"Sylhet"},"geometry":{"type":"Point","coordinates":[91.52024,24.19732]}},{"type":"Feature","properties":{"name":"Sirajdikhan","level":3,"district_name":"Munshiganj","division_name":"Dhaka"},"geometry":{"type":"Point","coordinates":[90.38022,23.57291]}},{"type":"Feature","properties":{"name":"Atrai","level":3,"district_name":"Naogaon","division_name":"Rajshahi"},"geometry":{"type":"Point","coordinates":[88.97671,24.61413]}},{"type":"Feature","properties":{"name":"Dimla","level":3,"district_name":"Nilphamari","division_name":"Rangpur"},"geometry":{"type":"Point","coordinates":[88.92032,26.15049]}},{"type":"Feature","properties":{"name":"Nababganj","level":3,"district_name":"Dinajpur","division_name":"Rangpur"},"geometry":{"type":"Point","coordinates":[89.0777,25.41912]}},{"type":"Feature","properties":{"name":"Bhangura","level":3,"district_name":"Pabna","division_name":"Rajshahi"},"geometry":{"type":"Point","coordinates":[89.37868,24.21694]}},{"type":"Feature","properties":{"name":"Faridpur","level":3,"district_name":"Pabna","division_name":"Rajshahi"},"geometry":{"type":"Point","coordinates":[89.44275,24.16063]}},{"type":"Feature","properties":{"name":"Mohammadpur","level":3,"district_name":"Magura","division_name":"Khulna"},"geometry":{"type":"Point","coordinates":[89.59746,23.40033]}},{"type":"Feature","properties":{"name":"Keshabpur","level":3,"district_name":"Jashore","division_name":"Khulna"},"geometry":{"type":"Point","coordinates":[89.21871,22.90697]}},{"type":"Feature","properties":{"name":"Bamna","level":3,"district_name":"Barguna","division_name":"Barishal"},"geometry":{"type":"Point","coordinates":[90.09382,22.30885]}},{"type":"Feature","properties":{"name":"Kanthalia","level":3,"district_name":"Jhalokati","division_name":"Barishal"},"geometry":{"type":"Point","coordinates":[90.12283,22.4019]}},{"type":"Feature","properties":{"name":"Amtali","level":3,"district_name":"Barguna","division_name":"Barishal"},"geometry":{"type":"Point","coordinates":[90.22974,22.13415]}},{"type":"Feature","properties":{"name":"Hossainpur","level":3,"district_name":"Kishoreganj","division_name":"Dhaka"},"geometry":{"type":"Point","coordinates":[90.65537,24.41687]}},{"type":"Feature","properties":{"name":"Baliadangi","level":3,"district_name":"Thakurgaon","division_name":"Rangpur"},"geometry":{"type":"Point","coordinates":[88.2764,26.08561]}},{"type":"Feature","properties":{"name":"Madan","level":3,"district_name":"Netrakona","division_name":"Mymensingh"},"geometry":{"type":"Point","coordinates":[90.94748,24.71586]}},{"type":"Feature","properties":{"name":"Tarail","level":3,"district_name":"Kishoreganj","division_name":"Dhaka"},"geometry":{"type":"Point","coordinates":[90.89129,24.54923]}},{"type":"Feature","properties":{"name":"Batiaghata","level":3,"district_name":"Khulna","division_name":"Khulna"},"geometry":{"type":"Point","coordinates":[89.51803,22.74035]}},{"type":"Feature","properties":{"name":"Dowarabazar","level":3,"district_name":"Sunamganj","division_name":"Sylhet"},"geometry":{"type":"Point","coordinates":[91.55795,25.0492]}},{"type":"Feature","properties":{"name":"Fatikchhari","level":3,"district_name":"Chattogram","division_name":"Chattogram"},"geometry":{"type":"Point","coordinates":[91.79026,22.68736]}},{"type":"Feature","properties":{"name":"Savar","level":3,"district_name":"Dhaka","division_name":"Dhaka"},"geometry":{"type":"Point","coordinates":[90.2587,23.8477]}},{"type":"Feature","properties":{"name":"Goalanda","level":3,"district_name":"Rajbari","division_name":"Dhaka"},"geometry":{"type":"Point","coordinates":[89.75893,23.72003]}},{"type":"Feature","properties":{"name":"Santhia","level":3,"district_name":"Pabna","division_name":"Rajshahi"},"geometry":{"type":"Point","coordinates":[89.54988,24.05511]}},{"type":"Feature","properties":{"name":"Kalapara","level":3,"district_name":"Patuakhali","division_name":"Barishal"},"geometry":{"type":"Point","coordinates":[90.22322,21.98601]}},{"type":"Feature","properties":{"name":"Raninagar","level":3,"district_name":"Naogaon","division_name":"Rajshahi"},"geometry":{"type":"Point","coordinates":[88.96608,24.7359]}},{"type":"Feature","properties":{"name":"Chaugachha","level":3,"district_name":"Jashore","division_name":"Khulna"},"geometry":{"type":"Point","coordinates":[89.0219,23.27016]}},{"type":"Feature","properties":{"name":"Katiadi","level":3,"district_name":"Kishoreganj","division_name":"Dhaka"},"geometry":{"type":"Point","coordinates":[90.79622,24.2503]}},{"type":"Feature","properties":{"name":"Parashuram","level":3,"district_name":"Feni","division_name":"Chattogram"},"geometry":{"type":"Point","coordinates":[91.44372,23.21511]}},{"type":"Feature","properties":{"name":"Belabo","level":3,"district_name":"Narsingdi","division_name":"Dhaka"},"geometry":{"type":"Point","coordinates":[90.85205,24.10485]}},{"type":"Feature","properties":{"name":"Belkuchi","level":3,"district_name":"Sirajganj","division_name":"Rajshahi"},"geometry":{"type":"Point","coordinates":[89.69678,24.2933]}},{"type":"Feature","properties":{"name":"Mithamain","level":3,"district_name":"Kishoreganj","division_name":"Dhaka"},"geometry":{"type":"Point","coordinates":[91.05476,24.41485]}},{"type":"Feature","properties":{"name":"Lohagara","level":3,"district_name":"Narail","division_name":"Khulna"},"geometry":{"type":"Point","coordinates":[89.64991,23.18819]}},{"type":"Feature","properties":{"name":"Sharsha","level":3,"district_name":"Jashore","division_name":"Khulna"},"geometry":{"type":"Point","coordinates":[88.90406,23.04461]}},{"type":"Feature","properties":{"name":"Dhamrai","level":3,"district_name":"Dhaka","division_name":"Dhaka"},"geometry":{"type":"Point","coordinates":[90.21421,23.91835]}},{"type":"Feature","properties":{"name":"Nangalkot","level":3,"district_name":"Cumilla","division_name":"Chattogram"},"geometry":{"type":"Point","coordinates":[91.19818,23.16959]}},{"type":"Feature","properties":{"name":"Tanore","level":3,"district_name":"Rajshahi","division_name":"Rajshahi"},"geometry":{"type":"Point","coordinates":[88.57613,24.58915]}},{"type":"Feature","properties":{"name":"Lalpur","level":3,"district_name":"Natore","division_name":"Rajshahi"},"geometry":{"type":"Point","coordinates":[88.9565,24.18246]}},{"type":"Feature","properties":{"name":"Dhamoirhat","level":3,"district_name":"Naogaon","division_name":"Rajshahi"},"geometry":{"type":"Point","coordinates":[88.83289,25.15599]}},{"type":"Feature","properties":{"name":"Kalai","level":3,"district_name":"Joypurhat","division_name":"Rajshahi"},"geometry":{"type":"Point","coordinates":[89.16595,25.0615]}},{"type":"Feature","properties":{"name":"Gurudaspur","level":3,"district_name":"Natore","division_name":"Rajshahi"},"geometry":{"type":"Point","coordinates":[89.23251,24.36795]}},{"type":"Feature","properties":{"name":"Adamdighi","level":3,"district_name":"Bogura","division_name":"Rajshahi"},"geometry":{"type":"Point","coordinates":[88.98503,24.81128]}},{"type":"Feature","properties":{"name":"Dumki","level":3,"district_name":"Patuakhali","division_name":"Barishal"},"geometry":{"type":"Point","coordinates":[90.38775,22.46036]}},{"type":"Feature","properties":{"name":"Dashmina","level":3,"district_name":"Patuakhali","division_name":"Barishal"},"geometry":{"type":"Point","coordinates":[90.5622,22.28325]}},{"type":"Feature","properties":{"name":"Kachua","level":3,"district_name":"Bagerhat","division_name":"Khulna"},"geometry":{"type":"Point","coordinates":[89.88024,22.64994]}},{"type":"Feature","properties":{"name":"Nalchhity","level":3,"district_name":"Jhalokati","division_name":"Barishal"},"geometry":{"type":"Point","coordinates":[90.27033,22.63474]}},{"type":"Feature","properties":{"name":"Bauphal","level":3,"district_name":"Patuakhali","division_name":"Barishal"},"geometry":{"type":"Point","coordinates":[90.55895,22.41681]}},{"type":"Feature","properties":{"name":"Gangni","level":3,"district_name":"Meherpur","division_name":"Khulna"},"geometry":{"type":"Point","coordinates":[88.74971,23.81787]}},{"type":"Feature","properties":{"name":"Tala","level":3,"district_name":"Satkhira","division_name":"Khulna"},"geometry":{"type":"Point","coordinates":[89.16465,22.76794]}},{"type":"Feature","properties":{"name":"Dacope","level":3,"district_name":"Khulna","division_name":"Khulna"},"geometry":{"type":"Point","coordinates":[89.52106,22.60385]}},{"type":"Feature","properties":{"name":"Koyra","level":3,"district_name":"Khulna","division_name":"Khulna"},"geometry":{"type":"Point","coordinates":[89.28927,22.34857]}},{"type":"Feature","properties":{"name":"Kaliganj","level":3,"district_name":"Jhenaidah","division_name":"Khulna"},"geometry":{"type":"Point","coordinates":[89.13596,23.40793]}},{"type":"Feature","properties":{"name":"Mirpur","level":3,"district_name":"Kushtia","division_name":"Khulna"},"geometry":{"type":"Point","coordinates":[88.99776,23.9363]}},{"type":"Feature","properties":{"name":"Nagarkanda","level":3,"district_name":"Faridpur","division_name":"Dhaka"},"geometry":{"type":"Point","coordinates":[89.89021,23.41702]}},{"type":"Feature","properties":{"name":"Maheshpur","level":3,"district_name":"Jhenaidah","division_name":"Khulna"},"geometry":{"type":"Point","coordinates":[88.918,23.35648]}},{"type":"Feature","properties":{"name":"Jhikargachha","level":3,"district_name":"Jashore","division_name":"Khulna"},"geometry":{"type":"Point","coordinates":[89.10072,23.10292]}},{"type":"Feature","properties":{"name":"Singair","level":3,"district_name":"Manikganj","division_name":"Dhaka"},"geometry":{"type":"Point","coordinates":[90.13843,23.81521]}},{"type":"Feature","properties":{"name":"Damurhuda","level":3,"district_name":"Chuadanga","division_name":"Khulna"},"geometry":{"type":"Point","coordinates":[88.80023,23.53107]}},{"type":"Feature","properties":{"name":"Pangsha","level":3,"district_name":"Rajbari","division_name":"Dhaka"},"geometry":{"type":"Point","coordinates":[89.41664,23.78743]}},{"type":"Feature","properties":{"name":"Alamdanga","level":3,"district_name":"Chuadanga","division_name":"Khulna"},"geometry":{"type":"Point","coordinates":[88.94474,23.76565]}},{"type":"Feature","properties":{"name":"Kalkini","level":3,"district_name":"Madaripur","division_name":"Dhaka"},"geometry":{"type":"Point","coordinates":[90.22174,23.07813]}},{"type":"Feature","properties":{"name":"Agailjhara","level":3,"district_name":"Barishal","division_name":"Barishal"},"geometry":{"type":"Point","coordinates":[90.15879,22.97185]}},{"type":"Feature","properties":{"name":"Kotalipara","level":3,"district_name":"Gopalganj","division_name":"Dhaka"},"geometry":{"type":"Point","coordinates":[90.00035,22.99201]}},{"type":"Feature","properties":{"name":"Abhaynagar","level":3,"district_name":"Jashore","division_name":"Khulna"},"geometry":{"type":"Point","coordinates":[89.39683,23.02879]}},{"type":"Feature","properties":{"name":"Chitalmari","level":3,"district_name":"Bagerhat","division_name":"Khulna"},"geometry":{"type":"Point","coordinates":[89.87858,22.78823]}},{"type":"Feature","properties":{"name":"Fakirhat","level":3,"district_name":"Bagerhat","division_name":"Khulna"},"geometry":{"type":"Point","coordinates":[89.71236,22.77535]}},{"type":"Feature","properties":{"name":"Kalia","level":3,"district_name":"Narail","division_name":"Khulna"},"geometry":{"type":"Point","coordinates":[89.63052,23.04486]}},{"type":"Feature","properties":{"name":"Terokhada","level":3,"district_name":"Khulna","division_name":"Khulna"},"geometry":{"type":"Point","coordinates":[89.6683,22.94022]}},{"type":"Feature","properties":{"name":"Tungipara","level":3,"district_name":"Gopalganj","division_name":"Dhaka"},"geometry":{"type":"Point","coordinates":[89.89908,22.90537]}},{"type":"Feature","properties":{"name":"Borhanuddin","level":3,"district_name":"Bhola","division_name":"Barishal"},"geometry":{"type":"Point","coordinates":[90.72933,22.50125]}},{"type":"Feature","properties":{"name":"Charfasson","level":3,"district_name":"Bhola","division_name":"Barishal"},"geometry":{"type":"Point","coordinates":[90.76006,22.1863]}},{"type":"Feature","properties":{"name":"Daulatkhan","level":3,"district_name":"Bhola","division_name":"Barishal"},"geometry":{"type":"Point","coordinates":[90.74601,22.60143]}},{"type":"Feature","properties":{"name":"Lalmohan","level":3,"district_name":"Bhola","division_name":"Barishal"},"geometry":{"type":"Point","coordinates":[90.73343,22.34106]}},{"type":"Feature","properties":{"name":"Mirzaganj","level":3,"district_name":"Patuakhali","division_name":"Barishal"},"geometry":{"type":"Point","coordinates":[90.22095,22.35529]}},{"type":"Feature","properties":{"name":"Patharghata","level":3,"district_name":"Barguna","division_name":"Barishal"},"geometry":{"type":"Point","coordinates":[89.96871,22.03729]}},{"type":"Feature","properties":{"name":"Harinakundu","level":3,"district_name":"Jhenaidah","division_name":"Khulna"},"geometry":{"type":"Point","coordinates":[89.0487,23.65138]}},{"type":"Feature","properties":{"name":"Kawkhali","level":3,"district_name":"Pirojpur","division_name":"Barishal"},"geometry":{"type":"Point","coordinates":[90.05928,22.62613]}},{"type":"Feature","properties":{"name":"Mehendiganj","level":3,"district_name":"Barishal","division_name":"Barishal"},"geometry":{"type":"Point","coordinates":[90.5276,22.82326]}},{"type":"Feature","properties":{"name":"Indurkani","level":3,"district_name":"Pirojpur","division_name":"Barishal"},"geometry":{"type":"Point","coordinates":[89.96436,22.48396]}},{"type":"Feature","properties":{"name":"Gaurnadi","level":3,"district_name":"Barishal","division_name":"Barishal"},"geometry":{"type":"Point","coordinates":[90.23097,22.97513]}},{"type":"Feature","properties":{"name":"Banaripara","level":3,"district_name":"Barishal","division_name":"Barishal"},"geometry":{"type":"Point","coordinates":[90.15941,22.78349]}},{"type":"Feature","properties":{"name":"Jagannathpur","level":3,"district_name":"Sunamganj","division_name":"Sylhet"},"geometry":{"type":"Point","coordinates":[91.55702,24.78191]}},{"type":"Feature","properties":{"name":"Sariakandi","level":3,"district_name":"Bogura","division_name":"Rajshahi"},"geometry":{"type":"Point","coordinates":[89.56891,24.88751]}},{"type":"Feature","properties":{"name":"Itna","level":3,"district_name":"Kishoreganj","division_name":"Dhaka"},"geometry":{"type":"Point","coordinates":[91.09704,24.52696]}},{"type":"Feature","properties":{"name":"Atpara","level":3,"district_name":"Netrakona","division_name":"Mymensingh"},"geometry":{"type":"Point","coordinates":[90.86066,24.81072]}},{"type":"Feature","properties":{"name":"Tentulia","level":3,"district_name":"Panchagarh","division_name":"Rangpur"},"geometry":{"type":"Point","coordinates":[88.34331,26.49208]}},{"type":"Feature","properties":{"name":"Akkelpur","level":3,"district_name":"Joypurhat","division_name":"Rajshahi"},"geometry":{"type":"Point","coordinates":[89.01694,24.9667]}},{"type":"Feature","properties":{"name":"Kishoreganj","level":3,"district_name":"Nilphamari","division_name":"Rangpur"},"geometry":{"type":"Point","coordinates":[89.01692,25.8993]}},{"type":"Feature","properties":{"name":"Bhandaria","level":3,"district_name":"Pirojpur","division_name":"Barishal"},"geometry":{"type":"Point","coordinates":[90.06438,22.48768]}},{"type":"Feature","properties":{"name":"Lakhai","level":3,"district_name":"Habiganj","division_name":"Sylhet"},"geometry":{"type":"Point","coordinates":[91.25069,24.2848]}},{"type":"Feature","properties":{"name":"Chilmari","level":3,"district_name":"Kurigram","division_name":"Rangpur"},"geometry":{"type":"Point","coordinates":[89.66224,25.58506]}},{"type":"Feature","properties":{"name":"Taraganj","level":3,"district_name":"Rangpur","division_name":"Rangpur"},"geometry":{"type":"Point","coordinates":[89.00955,25.81605]}},{"type":"Feature","properties":{"name":"Sreemangal","level":3,"district_name":"Moulvibazar","division_name":"Sylhet"},"geometry":{"type":"Point","coordinates":[91.73087,24.30986]}},{"type":"Feature","properties":{"name":"Bhurungamari","level":3,"district_name":"Kurigram","division_name":"Rangpur"},"geometry":{"type":"Point","coordinates":[89.66385,26.11046]}},{"type":"Feature","properties":{"name":"Beanibazar","level":3,"district_name":"Sylhet","division_name":"Sylhet"},"geometry":{"type":"Point","coordinates":[92.15901,24.82155]}},{"type":"Feature","properties":{"name":"Golapganj","level":3,"district_name":"Sylhet","division_name":"Sylhet"},"geometry":{"type":"Point","coordinates":[92.013,24.85688]}},{"type":"Feature","properties":{"name":"Ujirpur","level":3,"district_name":"Barishal","division_name":"Barishal"},"geometry":{"type":"Point","coordinates":[90.25056,22.82378]}},{"type":"Feature","properties":{"name":"Birganj","level":3,"district_name":"Dinajpur","division_name":"Rangpur"},"geometry":{"type":"Point","coordinates":[88.65323,25.86234]}},{"type":"Feature","properties":{"name":"Kaharole","level":3,"district_name":"Dinajpur","division_name":"Rangpur"},"geometry":{"type":"Point","coordinates":[88.60354,25.79491]}},{"type":"Feature","properties":{"name":"Mohanpur","level":3,"district_name":"Rajshahi","division_name":"Rajshahi"},"geometry":{"type":"Point","coordinates":[88.64756,24.54746]}},{"type":"Feature","properties":{"name":"Birol","level":3,"district_name":"Dinajpur","division_name":"Rangpur"},"geometry":{"type":"Point","coordinates":[88.54662,25.63636]}},{"type":"Feature","properties":{"name":"Niamatpur","level":3,"district_name":"Naogaon","division_name":"Rajshahi"},"geometry":{"type":"Point","coordinates":[88.5785,24.82601]}},{"type":"Feature","properties":{"name":"Godagari","level":3,"district_name":"Rajshahi","division_name":"Rajshahi"},"geometry":{"type":"Point","coordinates":[88.32854,24.45817]}},{"type":"Feature","properties":{"name":"Pirganj","level":3,"district_name":"Thakurgaon","division_name":"Rangpur"},"geometry":{"type":"Point","coordinates":[88.36175,25.85229]}},{"type":"Feature","properties":{"name":"Parbatipur","level":3,"district_name":"Dinajpur","division_name":"Rangpur"},"geometry":{"type":"Point","coordinates":[88.91637,25.65751]}},{"type":"Feature","properties":{"name":"Pirgachha","level":3,"district_name":"Rangpur","division_name":"Rangpur"},"geometry":{"type":"Point","coordinates":[89.40589,25.65831]}},{"type":"Feature","properties":{"name":"Pirganj","level":3,"district_name":"Rangpur","division_name":"Rangpur"},"geometry":{"type":"Point","coordinates":[89.31641,25.41629]}},{"type":"Feature","properties":{"name":"Sreebardi","level":3,"district_name":"Sherpur","division_name":"Mymensingh"},"geometry":{"type":"Point","coordinates":[89.93448,25.15109]}},{"type":"Feature","properties":{"name":"Khansama","level":3,"district_name":"Dinajpur","division_name":"Rangpur"},"geometry":{"type":"Point","coordinates":[88.7332,25.92266]}},{"type":"Feature","properties":{"name":"Gomastapur","level":3,"district_name":"Chapainababganj","division_name":"Rajshahi"},"geometry":{"type":"Point","coordinates":[88.3242,24.81965]}},{"type":"Feature","properties":{"name":"Porsha","level":3,"district_name":"Naogaon","division_name":"Rajshahi"},"geometry":{"type":"Point","coordinates":[88.45172,25.02379]}},{"type":"Feature","properties":{"name":"Sreepur","level":3,"district_name":"Gazipur","division_name":"Dhaka"},"geometry":{"type":"Point","coordinates":[90.4782,24.19888]}},{"type":"Feature","properties":{"name":"Gangachara","level":3,"district_name":"Rangpur","division_name":"Rangpur"},"geometry":{"type":"Point","coordinates":[89.22036,25.85302]}},{"type":"Feature","properties":{"name":"Badarganj","level":3,"district_name":"Rangpur","division_name":"Rangpur"},"geometry":{"type":"Point","coordinates":[89.06087,25.67514]}},{"type":"Feature","properties":{"name":"Bochaganj","level":3,"district_name":"Dinajpur","division_name":"Rangpur"},"geometry":{"type":"Point","coordinates":[88.45948,25.80166]}},{"type":"Feature","properties":{"name":"Chirirbandar","level":3,"district_name":"Dinajpur","division_name":"Rangpur"},"geometry":{"type":"Point","coordinates":[88.7762,25.65699]}},{"type":"Feature","properties":{"name":"Domar","level":3,"district_name":"Nilphamari","division_name":"Rangpur"},"geometry":{"type":"Point","coordinates":[88.81913,26.10542]}},{"type":"Feature","properties":{"name":"Aditmari","level":3,"district_name":"Lalmonirhat","division_name":"Rangpur"},"geometry":{"type":"Point","coordinates":[89.35097,25.92225]}},{"type":"Feature","properties":{"name":"Bhuanpur","level":3,"district_name":"Tangail","division_name":"Dhaka"},"geometry":{"type":"Point","coordinates":[89.87281,24.46125]}},{"type":"Feature","properties":{"name":"Kazipur","level":3,"district_name":"Sirajganj","division_name":"Rajshahi"},"geometry":{"type":"Point","coordinates":[89.64194,24.64795]}},{"type":"Feature","properties":{"name":"Kaunia","level":3,"district_name":"Rangpur","division_name":"Rangpur"},"geometry":{"type":"Point","coordinates":[89.41904,25.77331]}},{"type":"Feature","properties":{"name":"Phulbari","level":3,"district_name":"Kurigram","division_name":"Rangpur"},"geometry":{"type":"Point","coordinates":[89.554,25.94873]}},{"type":"Feature","properties":{"name":"Sherpur","level":3,"district_name":"Bogura","division_name":"Rajshahi"},"geometry":{"type":"Point","coordinates":[89.42026,24.66487]}},{"type":"Feature","properties":{"name":"Trishal","level":3,"district_name":"Mymensingh","division_name":"Mymensingh"},"geometry":{"type":"Point","coordinates":[90.39518,24.58232]}},{"type":"Feature","properties":{"name":"Nagarpur","level":3,"district_name":"Tangail","division_name":"Dhaka"},"geometry":{"type":"Point","coordinates":[89.87398,24.05326]}},{"type":"Feature","properties":{"name":"Ranishankail","level":3,"district_name":"Thakurgaon","division_name":"Rangpur"},"geometry":{"type":"Point","coordinates":[88.25439,25.90152]}},{"type":"Feature","properties":{"name":"Birampur","level":3,"district_name":"Dinajpur","division_name":"Rangpur"},"geometry":{"type":"Point","coordinates":[88.99128,25.39055]}},{"type":"Feature","properties":{"name":"Dewanganj","level":3,"district_name":"Jamalpur","division_name":"Mymensingh"},"geometry":{"type":"Point","coordinates":[89.76279,25.16484]}},{"type":"Feature","properties":{"name":"Melandaha","level":3,"district_name":"Jamalpur","division_name":"Mymensingh"},"geometry":{"type":"Point","coordinates":[89.82826,24.9811]}},{"type":"Feature","properties":{"name":"Islampur","level":3,"district_name":"Jamalpur","division_name":"Mymensingh"},"geometry":{"type":"Point","coordinates":[89.79179,25.07996]}},{"type":"Feature","properties":{"name":"Shibganj","level":3,"district_name":"Bogura","division_name":"Rajshahi"},"geometry":{"type":"Point","coordinates":[89.35979,25.01403]}},{"type":"Feature","properties":{"name":"Panchbibi","level":3,"district_name":"Joypurhat","division_name":"Rajshahi"},"geometry":{"type":"Point","coordinates":[89.01967,25.18728]}},{"type":"Feature","properties":{"name":"Patnitala","level":3,"district_name":"Naogaon","division_name":"Rajshahi"},"geometry":{"type":"Point","coordinates":[88.75964,25.04267]}},{"type":"Feature","properties":{"name":"Delduar","level":3,"district_name":"Tangail","division_name":"Dhaka"},"geometry":{"type":"Point","coordinates":[89.96834,24.16916]}},{"type":"Feature","properties":{"name":"Nalitabari","level":3,"district_name":"Sherpur","division_name":"Mymensingh"},"geometry":{"type":"Point","coordinates":[90.1943,25.08966]}},{"type":"Feature","properties":{"name":"Haluaghat","level":3,"district_name":"Mymensingh","division_name":"Mymensingh"},"geometry":{"type":"Point","coordinates":[90.33956,25.12226]}},{"type":"Feature","properties":{"name":"Dhobaura","level":3,"district_name":"Mymensingh","division_name":"Mymensingh"},"geometry":{"type":"Point","coordinates":[90.52069,25.08997]}},{"type":"Feature","properties":{"name":"Fulpur","level":3,"district_name":"Mymensingh","division_name":"Mymensingh"},"geometry":{"type":"Point","coordinates":[90.35883,24.95245]}},{"type":"Feature","properties":{"name":"Nakla","level":3,"district_name":"Sherpur","division_name":"Mymensingh"},"geometry":{"type":"Point","coordinates":[90.18332,24.96922]}},{"type":"Feature","properties":{"name":"Dhanbari","level":3,"district_name":"Tangail","division_name":"Dhaka"},"geometry":{"type":"Point","coordinates":[89.95188,24.67741]}},{"type":"Feature","properties":{"name":"Gopalpur","level":3,"district_name":"Tangail","division_name":"Dhaka"},"geometry":{"type":"Point","coordinates":[89.92826,24.5638]}},{"type":"Feature","properties":{"name":"Gobindaganj","level":3,"district_name":"Gaibandha","division_name":"Rangpur"},"geometry":{"type":"Point","coordinates":[89.38578,25.13391]}},{"type":"Feature","properties":{"name":"Sonatala","level":3,"district_name":"Bogura","division_name":"Rajshahi"},"geometry":{"type":"Point","coordinates":[89.49766,25.04395]}},{"type":"Feature","properties":{"name":"Sadullapur","level":3,"district_name":"Gaibandha","division_name":"Rangpur"},"geometry":{"type":"Point","coordinates":[89.46689,25.39427]}},{"type":"Feature","properties":{"name":"Kahaloo","level":3,"district_name":"Bogura","division_name":"Rajshahi"},"geometry":{"type":"Point","coordinates":[89.26586,24.83065]}},{"type":"Feature","properties":{"name":"Bagmara","level":3,"district_name":"Rajshahi","division_name":"Rajshahi"},"geometry":{"type":"Point","coordinates":[88.82235,24.58334]}},{"type":"Feature","properties":{"name":"Kaliganj","level":3,"district_name":"Lalmonirhat","division_name":"Rangpur"},"geometry":{"type":"Point","coordinates":[89.20823,25.96787]}},{"type":"Feature","properties":{"name":"Chatmohar","level":3,"district_name":"Pabna","division_name":"Rajshahi"},"geometry":{"type":"Point","coordinates":[89.29021,24.23138]}},{"type":"Feature","properties":{"name":"Jhenaigati","level":3,"district_name":"Sherpur","division_name":"Mymensingh"},"geometry":{"type":"Point","coordinates":[90.06709,25.1845]}},{"type":"Feature","properties":{"name":"Mirzapur","level":3,"district_name":"Tangail","division_name":"Dhaka"},"geometry":{"type":"Point","coordinates":[90.09789,24.10429]}},{"type":"Feature","properties":{"name":"Zajira","level":3,"district_name":"Shariatpur","division_name":"Dhaka"},"geometry":{"type":"Point","coordinates":[90.32189,23.33463]}},{"type":"Feature","properties":{"name":"Palash","level":3,"district_name":"Narsingdi","division_name":"Dhaka"},"geometry":{"type":"Point","coordinates":[90.61998,23.93959]}},{"type":"Feature","properties":{"name":"Hatibandha","level":3,"district_name":"Lalmonirhat","division_name":"Rangpur"},"geometry":{"type":"Point","coordinates":[89.1425,26.12305]}},{"type":"Feature","properties":{"name":"Tahirpur","level":3,"district_name":"Sunamganj","division_name":"Sylhet"},"geometry":{"type":"Point","coordinates":[91.1797,25.09892]}},{"type":"Feature","properties":{"name":"Fenchuganj","level":3,"district_name":"Sylhet","division_name":"Sylhet"},"geometry":{"type":"Point","coordinates":[91.93922,24.69425]}},{"type":"Feature","properties":{"name":"Chhatak","level":3,"district_name":"Sunamganj","division_name":"Sylhet"},"geometry":{"type":"Point","coordinates":[91.66183,25.03375]}},{"type":"Feature","properties":{"name":"Companiganj","level":3,"district_name":"Sylhet","division_name":"Sylhet"},"geometry":{"type":"Point","coordinates":[91.75682,25.08589]}},{"type":"Feature","properties":{"name":"Rajnagar","level":3,"district_name":"Moulvibazar","division_name":"Sylhet"},"geometry":{"type":"Point","coordinates":[91.87223,24.52286]}},{"type":"Feature","properties":{"name":"Gowainghat","level":3,"district_name":"Sylhet","division_name":"Sylhet"},"geometry":{"type":"Point","coordinates":[91.98294,25.09349]}},{"type":"Feature","properties":{"name":"Bishwanath","level":3,"district_name":"Sylhet","division_name":"Sylhet"},"geometry":{"type":"Point","coordinates":[91.7442,24.85446]}},{"type":"Feature","properties":{"name":"Austagram","level":3,"district_name":"Kishoreganj","division_name":"Dhaka"},"geometry":{"type":"Point","coordinates":[91.10498,24.27434]}},{"type":"Feature","properties":{"name":"Madhabpur","level":3,"district_name":"Habiganj","division_name":"Sylhet"},"geometry":{"type":"Point","coordinates":[91.2888,24.09573]}},{"type":"Feature","properties":{"name":"Nabiganj","level":3,"district_name":"Habiganj","division_name":"Sylhet"},"geometry":{"type":"Point","coordinates":[91.51604,24.56695]}},{"type":"Feature","properties":{"name":"Balaganj","level":3,"district_name":"Sylhet","division_name":"Sylhet"},"geometry":{"type":"Point","coordinates":[91.84142,24.65787]}},{"type":"Feature","properties":{"name":"Atgharia","level":3,"district_name":"Pabna","division_name":"Rajshahi"},"geometry":{"type":"Point","coordinates":[89.24324,24.11437]}},{"type":"Feature","properties":{"name":"Juri","level":3,"district_name":"Moulvibazar","division_name":"Sylhet"},"geometry":{"type":"Point","coordinates":[92.11877,24.59731]}},{"type":"Feature","properties":{"name":"Baralekha","level":3,"district_name":"Moulvibazar","division_name":"Sylhet"},"geometry":{"type":"Point","coordinates":[92.19305,24.7049]}},{"type":"Feature","properties":{"name":"Bishwambharpur","level":3,"district_name":"Sunamganj","division_name":"Sylhet"},"geometry":{"type":"Point","coordinates":[91.30365,25.10549]}},{"type":"Feature","properties":{"name":"Jamalganj","level":3,"district_name":"Sunamganj","division_name":"Sylhet"},"geometry":{"type":"Point","coordinates":[91.23213,24.99705]}},{"type":"Feature","properties":{"name":"Sarail","level":3,"district_name":"Brahmanbaria","division_name":"Chattogram"},"geometry":{"type":"Point","coordinates":[91.11226,24.07424]}},{"type":"Feature","properties":{"name":"Nasirnagar","level":3,"district_name":"Brahmanbaria","division_name":"Chattogram"},"geometry":{"type":"Point","coordinates":[91.19464,24.19285]}},{"type":"Feature","properties":{"name":"Derai","level":3,"district_name":"Sunamganj","division_name":"Sylhet"},"geometry":{"type":"Point","coordinates":[91.35573,24.78653]}},{"type":"Feature","properties":{"name":"Dharmapasha","level":3,"district_name":"Sunamganj","division_name":"Sylhet"},"geometry":{"type":"Point","coordinates":[91.00878,24.89613]}},{"type":"Feature","properties":{"name":"Shalla","level":3,"district_name":"Sunamganj","division_name":"Sylhet"},"geometry":{"type":"Point","coordinates":[91.27022,24.67144]}},{"type":"Feature","properties":{"name":"Nikli","level":3,"district_name":"Kishoreganj","division_name":"Dhaka"},"geometry":{"type":"Point","coordinates":[90.93394,24.33139]}},{"type":"Feature","properties":{"name":"Ashuganj","level":3,"district_name":"Brahmanbaria","division_name":"Chattogram"},"geometry":{"type":"Point","coordinates":[91.01031,24.0369]}},{"type":"Feature","properties":{"name":"Daulatpur","level":3,"district_name":"Kushtia","division_name":"Khulna"},"geometry":{"type":"Point","coordinates":[88.87651,24.00333]}},{"type":"Feature","properties":{"name":"Shayestaganj","level":3,"district_name":"Habiganj","division_name":"Sylhet"},"geometry":{"type":"Point","coordinates":[91.45026,24.27721]}},{"type":"Feature","properties":{"name":"Kamalganj","level":3,"district_name":"Moulvibazar","division_name":"Sylhet"},"geometry":{"type":"Point","coordinates":[91.85557,24.35249]}},{"type":"Feature","properties":{"name":"Dohar","level":3,"district_name":"Dhaka","division_name":"Dhaka"},"geometry":{"type":"Point","coordinates":[90.12088,23.6174]}},{"type":"Feature","properties":{"name":"Rayganj","level":3,"district_name":"Sirajganj","division_name":"Rajshahi"},"geometry":{"type":"Point","coordinates":[89.53841,24.52695]}},{"type":"Feature","properties":{"name":"Dhunat","level":3,"district_name":"Bogura","division_name":"Rajshahi"},"geometry":{"type":"Point","coordinates":[89.53973,24.68359]}},{"type":"Feature","properties":{"name":"Kanaighat","level":3,"district_name":"Sylhet","division_name":"Sylhet"},"geometry":{"type":"Point","coordinates":[92.25592,25.00727]}},{"type":"Feature","properties":{"name":"Bera","level":3,"district_name":"Pabna","division_name":"Rajshahi"},"geometry":{"type":"Point","coordinates":[89.61035,24.07799]}},{"type":"Feature","properties":{"name":"Sakhipur","level":3,"district_name":"Tangail","division_name":"Dhaka"},"geometry":{"type":"Point","coordinates":[90.17099,24.31938]}},{"type":"Feature","properties":{"name":"Nandigram","level":3,"district_name":"Bogura","division_name":"Rajshahi"},"geometry":{"type":"Point","coordinates":[89.27086,24.65737]}},{"type":"Feature","properties":{"name":"Tarakanda","level":3,"district_name":"Mymensingh","division_name":"Mymensingh"},"geometry":{"type":"Point","coordinates":[90.42639,24.86288]}},{"type":"Feature","properties":{"name":"Muktagachha","level":3,"district_name":"Mymensingh","division_name":"Mymensingh"},"geometry":{"type":"Point","coordinates":[90.25837,24.76516]}},{"type":"Feature","properties":{"name":"Fulbaria","level":3,"district_name":"Mymensingh","division_name":"Mymensingh"},"geometry":{"type":"Point","coordinates":[90.27178,24.63609]}},{"type":"Feature","properties":{"name":"Gabtali","level":3,"district_name":"Bogura","division_name":"Rajshahi"},"geometry":{"type":"Point","coordinates":[89.45127,24.87702]}},{"type":"Feature","properties":{"name":"Mithapukur","level":3,"district_name":"Rangpur","division_name":"Rangpur"},"geometry":{"type":"Point","coordinates":[89.27669,25.56777]}},{"type":"Feature","properties":{"name":"Madarganj","level":3,"district_name":"Jamalpur","division_name":"Mymensingh"},"geometry":{"type":"Point","coordinates":[89.71696,24.90488]}},{"type":"Feature","properties":{"name":"Gafargaon","level":3,"district_name":"Mymensingh","division_name":"Mymensingh"},"geometry":{"type":"Point","coordinates":[90.54985,24.45508]}},{"type":"Feature","properties":{"name":"Sarishabari","level":3,"district_name":"Jamalpur","division_name":"Mymensingh"},"geometry":{"type":"Point","coordinates":[89.83317,24.74995]}},{"type":"Feature","properties":{"name":"Bhaluka","level":3,"district_name":"Mymensingh","division_name":"Mymensingh"},"geometry":{"type":"Point","coordinates":[90.38635,24.40446]}},{"type":"Feature","properties":{"name":"Sundarganj","level":3,"district_name":"Gaibandha","division_name":"Rangpur"},"geometry":{"type":"Point","coordinates":[89.52277,25.56697]}},{"type":"Feature","properties":{"name":"Fulbari","level":3,"district_name":"Dinajpur","division_name":"Rangpur"},"geometry":{"type":"Point","coordinates":[88.95567,25.49958]}},{"type":"Feature","properties":{"name":"Ishwarganj","level":3,"district_name":"Mymensingh","division_name":"Mymensingh"},"geometry":{"type":"Point","coordinates":[90.59655,24.6889]}},{"type":"Feature","properties":{"name":"Palashbari","level":3,"district_name":"Gaibandha","division_name":"Rangpur"},"geometry":{"type":"Point","coordinates":[89.35385,25.2757]}},{"type":"Feature","properties":{"name":"Ghoraghat","level":3,"district_name":"Dinajpur","division_name":"Rangpur"},"geometry":{"type":"Point","coordinates":[89.25996,25.26603]}},{"type":"Feature","properties":{"name":"Roumari","level":3,"district_name":"Kurigram","division_name":"Rangpur"},"geometry":{"type":"Point","coordinates":[89.83483,25.57682]}},{"type":"Feature","properties":{"name":"Raipur","level":3,"district_name":"Lakshmipur","division_name":"Chattogram"},"geometry":{"type":"Point","coordinates":[90.76807,23.03839]}},{"type":"Feature","properties":{"name":"Chhagalnaiya","level":3,"district_name":"Feni","division_name":"Chattogram"},"geometry":{"type":"Point","coordinates":[91.51483,23.03987]}},{"type":"Feature","properties":{"name":"Bakshiganj","level":3,"district_name":"Jamalpur","division_name":"Mymensingh"},"geometry":{"type":"Point","coordinates":[89.8701,25.18309]}},{"type":"Feature","properties":{"name":"Basail","level":3,"district_name":"Tangail","division_name":"Dhaka"},"geometry":{"type":"Point","coordinates":[90.05175,24.22975]}},{"type":"Feature","properties":{"name":"Ghatail","level":3,"district_name":"Tangail","division_name":"Dhaka"},"geometry":{"type":"Point","coordinates":[89.97351,24.47818]}},{"type":"Feature","properties":{"name":"Bagatipara","level":3,"district_name":"Natore","division_name":"Rajshahi"},"geometry":{"type":"Point","coordinates":[88.96273,24.30229]}},{"type":"Feature","properties":{"name":"Sharankhola","level":3,"district_name":"Bagerhat","division_name":"Khulna"},"geometry":{"type":"Point","coordinates":[89.84951,22.31251]}},{"type":"Feature","properties":{"name":"Shahjadpur","level":3,"district_name":"Sirajganj","division_name":"Rajshahi"},"geometry":{"type":"Point","coordinates":[89.593,24.17679]}},{"type":"Feature","properties":{"name":"Charghat","level":3,"district_name":"Rajshahi","division_name":"Rajshahi"},"geometry":{"type":"Point","coordinates":[88.75065,24.2819]}},{"type":"Feature","properties":{"name":"Manoharganj","level":3,"district_name":"Cumilla","division_name":"Chattogram"},"geometry":{"type":"Point","coordinates":[91.05716,23.16197]}},{"type":"Feature","properties":{"name":"Debiganj","level":3,"district_name":"Panchagarh","division_name":"Rangpur"},"geometry":{"type":"Point","coordinates":[88.75925,26.12019]}},{"type":"Feature","properties":{"name":"Ulipur","level":3,"district_name":"Kurigram","division_name":"Rangpur"},"geometry":{"type":"Point","coordinates":[89.6191,25.65588]}},{"type":"Feature","properties":{"name":"Badalgachhi","level":3,"district_name":"Naogaon","division_name":"Rajshahi"},"geometry":{"type":"Point","coordinates":[88.90418,24.9636]}},{"type":"Feature","properties":{"name":"Gouripur","level":3,"district_name":"Mymensingh","division_name":"Mymensingh"},"geometry":{"type":"Point","coordinates":[90.57039,24.76007]}},{"type":"Feature","properties":{"name":"Purbadhala","level":3,"district_name":"Netrakona","division_name":"Mymensingh"},"geometry":{"type":"Point","coordinates":[90.60231,24.93993]}},{"type":"Feature","properties":{"name":"Atowari","level":3,"district_name":"Panchagarh","division_name":"Rangpur"},"geometry":{"type":"Point","coordinates":[88.41536,26.24321]}},{"type":"Feature","properties":{"name":"Boda","level":3,"district_name":"Panchagarh","division_name":"Rangpur"},"geometry":{"type":"Point","coordinates":[88.55591,26.20072]}},{"type":"Feature","properties":{"name":"Rajarhat","level":3,"district_name":"Kurigram","division_name":"Rangpur"},"geometry":{"type":"Point","coordinates":[89.54466,25.79674]}},{"type":"Feature","properties":{"name":"Jaldhaka","level":3,"district_name":"Nilphamari","division_name":"Rangpur"},"geometry":{"type":"Point","coordinates":[89.01682,26.01987]}},{"type":"Feature","properties":{"name":"Jaintapur","level":3,"district_name":"Sylhet","division_name":"Sylhet"},"geometry":{"type":"Point","coordinates":[92.12339,25.13558]}},{"type":"Feature","properties":{"name":"Khaliajuri","level":3,"district_name":"Netrakona","division_name":"Mymensingh"},"geometry":{"type":"Point","coordinates":[91.14118,24.69126]}},{"type":"Feature","properties":{"name":"Rowangchhari","level":3,"district_name":"Bandarban","division_name":"Chattogram"},"geometry":{"type":"Point","coordinates":[92.33545,22.17862]}},{"type":"Feature","properties":{"name":"Kulaura","level":3,"district_name":"Moulvibazar","division_name":"Sylhet"},"geometry":{"type":"Point","coordinates":[92.03407,24.52263]}},{"type":"Feature","properties":{"name":"Kaliakair","level":3,"district_name":"Gazipur","division_name":"Dhaka"},"geometry":{"type":"Point","coordinates":[90.20973,24.07758]}},{"type":"Feature","properties":{"name":"Shalikha","level":3,"district_name":"Magura","division_name":"Khulna"},"geometry":{"type":"Point","coordinates":[89.37603,23.30127]}},{"type":"Feature","properties":{"name":"Sujanagar","level":3,"district_name":"Pabna","division_name":"Rajshahi"},"geometry":{"type":"Point","coordinates":[89.40716,23.94222]}},{"type":"Feature","properties":{"name":"Muksudpur","level":3,"district_name":"Gopalganj","division_name":"Dhaka"},"geometry":{"type":"Point","coordinates":[89.86968,23.31469]}},{"type":"Feature","properties":{"name":"Alfadanga","level":3,"district_name":"Faridpur","division_name":"Dhaka"},"geometry":{"type":"Point","coordinates":[89.7039,23.29154]}},{"type":"Feature","properties":{"name":"Galachipa","level":3,"district_name":"Patuakhali","division_name":"Barishal"},"geometry":{"type":"Point","coordinates":[90.4094,22.16705]}},{"type":"Feature","properties":{"name":"Bhanga","level":3,"district_name":"Faridpur","division_name":"Dhaka"},"geometry":{"type":"Point","coordinates":[89.98028,23.3849]}},{"type":"Feature","properties":{"name":"Eidgaon","level":3,"district_name":"Cox's Bazar","division_name":"Chattogram"},"geometry":{"type":"Point","coordinates":[92.06688,21.55364]}},{"type":"Feature","properties":{"name":"Ruma","level":3,"district_name":"Bandarban","division_name":"Chattogram"},"geometry":{"type":"Point","coordinates":[92.40925,22.04927]}},{"type":"Feature","properties":{"name":"Lama","level":3,"district_name":"Bandarban","division_name":"Chattogram"},"geometry":{"type":"Point","coordinates":[92.21286,21.75532]}},{"type":"Feature","properties":{"name":"Thanchi","level":3,"district_name":"Bandarban","division_name":"Chattogram"},"geometry":{"type":"Point","coordinates":[92.43096,21.82261]}},{"type":"Feature","properties":{"name":"Alikadam","level":3,"district_name":"Bandarban","division_name":"Chattogram"},"geometry":{"type":"Point","coordinates":[92.31859,21.65884]}},{"type":"Feature","properties":{"name":"Chakaria","level":3,"district_name":"Cox's Bazar","division_name":"Chattogram"},"geometry":{"type":"Point","coordinates":[92.07602,21.76627]}},{"type":"Feature","properties":{"name":"Ukhia","level":3,"district_name":"Cox's Bazar","division_name":"Chattogram"},"geometry":{"type":"Point","coordinates":[92.1399,21.24215]}},{"type":"Feature","properties":{"name":"Banshkhali","level":3,"district_name":"Chattogram","division_name":"Chattogram"},"geometry":{"type":"Point","coordinates":[91.94783,22.00849]}},{"type":"Feature","properties":{"name":"Lohagara","level":3,"district_name":"Chattogram","division_name":"Chattogram"},"geometry":{"type":"Point","coordinates":[92.10792,22.04426]}},{"type":"Feature","properties":{"name":"Satkania","level":3,"district_name":"Chattogram","division_name":"Chattogram"},"geometry":{"type":"Point","coordinates":[92.05762,22.07425]}},{"type":"Feature","properties":{"name":"Rajoir","level":3,"district_name":"Madaripur","division_name":"Dhaka"},"geometry":{"type":"Point","coordinates":[90.04741,23.2095]}},{"type":"Feature","properties":{"name":"Bagharpara","level":3,"district_name":"Jashore","division_name":"Khulna"},"geometry":{"type":"Point","coordinates":[89.3465,23.22053]}},{"type":"Feature","properties":{"name":"Manirampur","level":3,"district_name":"Jashore","division_name":"Khulna"},"geometry":{"type":"Point","coordinates":[89.23304,23.02456]}},{"type":"Feature","properties":{"name":"Teknaf","level":3,"district_name":"Cox's Bazar","division_name":"Chattogram"},"geometry":{"type":"Point","coordinates":[92.29875,20.86846]}},{"type":"Feature","properties":{"name":"Belaichhari","level":3,"district_name":"Rangamati","division_name":"Chattogram"},"geometry":{"type":"Point","coordinates":[92.33932,22.5046]}},{"type":"Feature","properties":{"name":"Daganbhuiyan","level":3,"district_name":"Feni","division_name":"Chattogram"},"geometry":{"type":"Point","coordinates":[91.30269,22.9372]}},{"type":"Feature","properties":{"name":"Barkal","level":3,"district_name":"Rangamati","division_name":"Chattogram"},"geometry":{"type":"Point","coordinates":[92.37434,22.72577]}},{"type":"Feature","properties":{"name":"Naniarchar","level":3,"district_name":"Rangamati","division_name":"Chattogram"},"geometry":{"type":"Point","coordinates":[92.10513,22.85263]}},{"type":"Feature","properties":{"name":"Sonargaon","level":3,"district_name":"Narayanganj","division_name":"Dhaka"},"geometry":{"type":"Point","coordinates":[90.60234,23.64216]}},{"type":"Feature","properties":{"name":"Karimganj","level":3,"district_name":"Kishoreganj","division_name":"Dhaka"},"geometry":{"type":"Point","coordinates":[90.86902,24.46512]}},{"type":"Feature","properties":{"name":"Mahalchhari","level":3,"district_name":"Khagrachhari","division_name":"Chattogram"},"geometry":{"type":"Point","coordinates":[92.02941,22.93601]}},{"type":"Feature","properties":{"name":"Shibchar","level":3,"district_name":"Madaripur","division_name":"Dhaka"},"geometry":{"type":"Point","coordinates":[90.16972,23.34728]}},{"type":"Feature","properties":{"name":"Dumuria","level":3,"district_name":"Khulna","division_name":"Khulna"},"geometry":{"type":"Point","coordinates":[89.41773,22.80633]}},{"type":"Feature","properties":{"name":"Boalmari","level":3,"district_name":"Faridpur","division_name":"Dhaka"},"geometry":{"type":"Point","coordinates":[89.68161,23.38546]}},{"type":"Feature","properties":{"name":"Sadarpur","level":3,"district_name":"Faridpur","division_name":"Dhaka"},"geometry":{"type":"Point","coordinates":[90.02514,23.47084]}},{"type":"Feature","properties":{"name":"Morelganj","level":3,"district_name":"Bagerhat","division_name":"Khulna"},"geometry":{"type":"Point","coordinates":[89.85512,22.45165]}},{"type":"Feature","properties":{"name":"Ghior","level":3,"district_name":"Manikganj","division_name":"Dhaka"},"geometry":{"type":"Point","coordinates":[89.87197,23.89959]}},{"type":"Feature","properties":{"name":"Daulatpur","level":3,"district_name":"Manikganj","division_name":"Dhaka"},"geometry":{"type":"Point","coordinates":[89.83375,23.96868]}},{"type":"Feature","properties":{"name":"Shibalay","level":3,"district_name":"Manikganj","division_name":"Dhaka"},"geometry":{"type":"Point","coordinates":[89.82085,23.84656]}},{"type":"Feature","properties":{"name":"Saturia","level":3,"district_name":"Manikganj","division_name":"Dhaka"},"geometry":{"type":"Point","coordinates":[90.03719,23.97143]}},{"type":"Feature","properties":{"name":"Harirampur","level":3,"district_name":"Manikganj","division_name":"Dhaka"},"geometry":{"type":"Point","coordinates":[89.97454,23.74953]}},{"type":"Feature","properties":{"name":"Sreepur","level":3,"district_name":"Magura","division_name":"Khulna"},"geometry":{"type":"Point","coordinates":[89.39586,23.59218]}},{"type":"Feature","properties":{"name":"Shailkupa","level":3,"district_name":"Jhenaidah","division_name":"Khulna"},"geometry":{"type":"Point","coordinates":[89.25407,23.68833]}},{"type":"Feature","properties":{"name":"Paikgachha","level":3,"district_name":"Khulna","division_name":"Khulna"},"geometry":{"type":"Point","coordinates":[89.31897,22.58935]}},{"type":"Feature","properties":{"name":"Rampal","level":3,"district_name":"Bagerhat","division_name":"Khulna"},"geometry":{"type":"Point","coordinates":[89.6723,22.58127]}},{"type":"Feature","properties":{"name":"Madhukhali","level":3,"district_name":"Faridpur","division_name":"Dhaka"},"geometry":{"type":"Point","coordinates":[89.62551,23.54344]}},{"type":"Feature","properties":{"name":"Phultala","level":3,"district_name":"Khulna","division_name":"Khulna"},"geometry":{"type":"Point","coordinates":[89.47457,22.97355]}},{"type":"Feature","properties":{"name":"Khoksa","level":3,"district_name":"Kushtia","division_name":"Khulna"},"geometry":{"type":"Point","coordinates":[89.28355,23.80639]}},{"type":"Feature","properties":{"name":"Kashiani","level":3,"district_name":"Gopalganj","division_name":"Dhaka"},"geometry":{"type":"Point","coordinates":[89.72045,23.23649]}},{"type":"Feature","properties":{"name":"Baliakandi","level":3,"district_name":"Rajbari","division_name":"Dhaka"},"geometry":{"type":"Point","coordinates":[89.5485,23.63519]}},{"type":"Feature","properties":{"name":"Mollahat","level":3,"district_name":"Bagerhat","division_name":"Khulna"},"geometry":{"type":"Point","coordinates":[89.80228,22.92749]}},{"type":"Feature","properties":{"name":"Hatiya","level":3,"district_name":"Noakhali","division_name":"Chattogram"},"geometry":{"type":"Point","coordinates":[91.12658,22.28773]}},{"type":"Feature","properties":{"name":"Rangunia","level":3,"district_name":"Chattogram","division_name":"Chattogram"},"geometry":{"type":"Point","coordinates":[92.05624,22.46934]}},{"type":"Feature","properties":{"name":"Kaptai","level":3,"district_name":"Rangamati","division_name":"Chattogram"},"geometry":{"type":"Point","coordinates":[92.2156,22.50012]}},{"type":"Feature","properties":{"name":"Baghaichhari","level":3,"district_name":"Rangamati","division_name":"Chattogram"},"geometry":{"type":"Point","coordinates":[92.19483,23.16781]}},{"type":"Feature","properties":{"name":"Jurachhari","level":3,"district_name":"Rangamati","division_name":"Chattogram"},"geometry":{"type":"Point","coordinates":[92.38111,22.67391]}},{"type":"Feature","properties":{"name":"Kawkhali","level":3,"district_name":"Rangamati","division_name":"Chattogram"},"geometry":{"type":"Point","coordinates":[92.03613,22.62743]}},{"type":"Feature","properties":{"name":"Rajasthali","level":3,"district_name":"Rangamati","division_name":"Chattogram"},"geometry":{"type":"Point","coordinates":[92.25205,22.36018]}},{"type":"Feature","properties":{"name":"Sandwip","level":3,"district_name":"Chattogram","division_name":"Chattogram"},"geometry":{"type":"Point","coordinates":[91.48481,22.48647]}},{"type":"Feature","properties":{"name":"Tazumuddin","level":3,"district_name":"Bhola","division_name":"Barishal"},"geometry":{"type":"Point","coordinates":[90.84169,22.41624]}},{"type":"Feature","properties":{"name":"Dighinala","level":3,"district_name":"Khagrachhari","division_name":"Chattogram"},"geometry":{"type":"Point","coordinates":[92.06673,23.24265]}},{"type":"Feature","properties":{"name":"Langadu","level":3,"district_name":"Rangamati","division_name":"Chattogram"},"geometry":{"type":"Point","coordinates":[92.19842,22.97299]}},{"type":"Feature","properties":{"name":"Bhairab","level":3,"district_name":"Kishoreganj","division_name":"Dhaka"},"geometry":{"type":"Point","coordinates":[90.98002,24.05677]}},{"type":"Feature","properties":{"name":"Bajitpur","level":3,"district_name":"Kishoreganj","division_name":"Dhaka"},"geometry":{"type":"Point","coordinates":[90.95235,24.21467]}},{"type":"Feature","properties":{"name":"Ramgati","level":3,"district_name":"Lakshmipur","division_name":"Chattogram"},"geometry":{"type":"Point","coordinates":[90.99545,22.59039]}},{"type":"Feature","properties":{"name":"Shibpur","level":3,"district_name":"Narsingdi","division_name":"Dhaka"},"geometry":{"type":"Point","coordinates":[90.73721,24.03878]}},{"type":"Feature","properties":{"name":"Nandail","level":3,"district_name":"Mymensingh","division_name":"Mymensingh"},"geometry":{"type":"Point","coordinates":[90.68667,24.57033]}},{"type":"Feature","properties":{"name":"Kuliarchar","level":3,"district_name":"Kishoreganj","division_name":"Dhaka"},"geometry":{"type":"Point","coordinates":[90.93223,24.15151]}},{"type":"Feature","properties":{"name":"Pakundia","level":3,"district_name":"Kishoreganj","division_name":"Dhaka"},"geometry":{"type":"Point","coordinates":[90.68056,24.32875]}},{"type":"Feature","properties":{"name":"Maheshkhali","level":3,"district_name":"Cox's Bazar","division_name":"Chattogram"},"geometry":{"type":"Point","coordinates":[91.95537,21.53985]}},{"type":"Feature","properties":{"name":"Anwara","level":3,"district_name":"Chattogram","division_name":"Chattogram"},"geometry":{"type":"Point","coordinates":[91.90222,22.22515]}},{"type":"Feature","properties":{"name":"Boalkhali","level":3,"district_name":"Chattogram","division_name":"Chattogram"},"geometry":{"type":"Point","coordinates":[91.9095,22.37174]}},{"type":"Feature","properties":{"name":"Banchharampur","level":3,"district_name":"Brahmanbaria","division_name":"Chattogram"},"geometry":{"type":"Point","coordinates":[90.80586,23.77828]}},{"type":"Feature","properties":{"name":"Araihazar","level":3,"district_name":"Narayanganj","division_name":"Dhaka"},"geometry":{"type":"Point","coordinates":[90.71099,23.80209]}},{"type":"Feature","properties":{"name":"Patiya","level":3,"district_name":"Chattogram","division_name":"Chattogram"},"geometry":{"type":"Point","coordinates":[91.97765,22.29906]}},{"type":"Feature","properties":{"name":"Laksam","level":3,"district_name":"Cumilla","division_name":"Chattogram"},"geometry":{"type":"Point","coordinates":[91.11983,23.23626]}},{"type":"Feature","properties":{"name":"Chandina","level":3,"district_name":"Cumilla","division_name":"Chattogram"},"geometry":{"type":"Point","coordinates":[91.00781,23.48838]}},{"type":"Feature","properties":{"name":"Gazaria","level":3,"district_name":"Munshiganj","division_name":"Dhaka"},"geometry":{"type":"Point","coordinates":[90.65238,23.55769]}},{"type":"Feature","properties":{"name":"Kaliganj","level":3,"district_name":"Gazipur","division_name":"Dhaka"},"geometry":{"type":"Point","coordinates":[90.56522,23.92151]}},{"type":"Feature","properties":{"name":"Narsingdi Sadar","level":3,"district_name":"Narsingdi","division_name":"Dhaka"},"geometry":{"type":"Point","coordinates":[90.67366,23.85171]}},{"type":"Feature","properties":{"name":"Faridganj","level":3,"district_name":"Chandpur","division_name":"Chattogram"},"geometry":{"type":"Point","coordinates":[90.7548,23.12829]}},{"type":"Feature","properties":{"name":"Chatkhil","level":3,"district_name":"Noakhali","division_name":"Chattogram"},"geometry":{"type":"Point","coordinates":[90.97236,23.06309]}},{"type":"Feature","properties":{"name":"Barhatta","level":3,"district_name":"Netrakona","division_name":"Mymensingh"},"geometry":{"type":"Point","coordinates":[90.89087,24.89167]}},{"type":"Feature","properties":{"name":"Begumganj","level":3,"district_name":"Noakhali","division_name":"Chattogram"},"geometry":{"type":"Point","coordinates":[91.12173,22.94639]}},{"type":"Feature","properties":{"name":"Lakkhichhari","level":3,"district_name":"Khagrachhari","division_name":"Chattogram"},"geometry":{"type":"Point","coordinates":[91.9099,22.79551]}},{"type":"Feature","properties":{"name":"Akhaura","level":3,"district_name":"Brahmanbaria","division_name":"Chattogram"},"geometry":{"type":"Point","coordinates":[91.20888,23.86812]}},{"type":"Feature","properties":{"name":"Brahmanpara","level":3,"district_name":"Cumilla","division_name":"Chattogram"},"geometry":{"type":"Point","coordinates":[91.10714,23.61485]}},{"type":"Feature","properties":{"name":"Fatikchhari","level":3,"district_name":"Chattogram","division_name":"Chattogram"},"geometry":{"type":"Point","coordinates":[91.79391,22.63093]}},{"type":"Feature","properties":{"name":"Raozan","level":3,"district_name":"Chattogram","division_name":"Chattogram"},"geometry":{"type":"Point","coordinates":[91.92076,22.52771]}},{"type":"Feature","properties":{"name":"Kasba","level":3,"district_name":"Brahmanbaria","division_name":"Chattogram"},"geometry":{"type":"Point","coordinates":[91.14589,23.74672]}},{"type":"Feature","properties":{"name":"Raipura","level":3,"district_name":"Narsingdi","division_name":"Dhaka"},"geometry":{"type":"Point","coordinates":[90.87612,23.98642]}},{"type":"Feature","properties":{"name":"Matlab Dakkhin","level":3,"district_name":"Chandpur","division_name":"Chattogram"},"geometry":{"type":"Point","coordinates":[90.70627,23.34597]}},{"type":"Feature","properties":{"name":"Nabinagar","level":3,"district_name":"Brahmanbaria","division_name":"Chattogram"},"geometry":{"type":"Point","coordinates":[90.96999,23.8847]}},{"type":"Feature","properties":{"name":"Burichang","level":3,"district_name":"Cumilla","division_name":"Chattogram"},"geometry":{"type":"Point","coordinates":[91.12593,23.55984]}},{"type":"Feature","properties":{"name":"Companiganj","level":3,"district_name":"Noakhali","division_name":"Chattogram"},"geometry":{"type":"Point","coordinates":[91.27845,22.87305]}},{"type":"Feature","properties":{"name":"Haimchar","level":3,"district_name":"Chandpur","division_name":"Chattogram"},"geometry":{"type":"Point","coordinates":[90.66271,23.09585]}},{"type":"Feature","properties":{"name":"Hajiganj","level":3,"district_name":"Chandpur","division_name":"Chattogram"},"geometry":{"type":"Point","coordinates":[90.85261,23.25129]}},{"type":"Feature","properties":{"name":"Kabirhat","level":3,"district_name":"Noakhali","division_name":"Chattogram"},"geometry":{"type":"Point","coordinates":[91.20334,22.83571]}},{"type":"Feature","properties":{"name":"Mirsarai","level":3,"district_name":"Chattogram","division_name":"Chattogram"},"geometry":{"type":"Point","coordinates":[91.53447,22.89367]}},{"type":"Feature","properties":{"name":"Sitakunda","level":3,"district_name":"Chattogram","division_name":"Chattogram"},"geometry":{"type":"Point","coordinates":[91.65866,22.61804]}},{"type":"Feature","properties":{"name":"Shahrasti","level":3,"district_name":"Chandpur","division_name":"Chattogram"},"geometry":{"type":"Point","coordinates":[90.95034,23.22903]}},{"type":"Feature","properties":{"name":"Hathazari","level":3,"district_name":"Chattogram","division_name":"Chattogram"},"geometry":{"type":"Point","coordinates":[91.80886,22.50511]}},{"type":"Feature","properties":{"name":"Panchhari","level":3,"district_name":"Khagrachhari","division_name":"Chattogram"},"geometry":{"type":"Point","coordinates":[91.89689,23.29511]}},{"type":"Feature","properties":{"name":"Ramgarh","level":3,"district_name":"Khagrachhari","division_name":"Chattogram"},"geometry":{"type":"Point","coordinates":[91.73766,22.99631]}},{"type":"Feature","properties":{"name":"Matiranga","level":3,"district_name":"Khagrachhari","division_name":"Chattogram"},"geometry":{"type":"Point","coordinates":[91.86849,23.04445]}},{"type":"Feature","properties":{"name":"Manikchhari","level":3,"district_name":"Khagrachhari","division_name":"Chattogram"},"geometry":{"type":"Point","coordinates":[91.83714,22.84733]}},{"type":"Feature","properties":{"name":"Fulgazi","level":3,"district_name":"Feni","division_name":"Chattogram"},"geometry":{"type":"Point","coordinates":[91.43265,23.15547]}},{"type":"Feature","properties":{"name":"Chauddagram","level":3,"district_name":"Cumilla","division_name":"Chattogram"},"geometry":{"type":"Point","coordinates":[91.31349,23.22477]}},{"type":"Feature","properties":{"name":"Ramu","level":3,"district_name":"Cox's Bazar","division_name":"Chattogram"},"geometry":{"type":"Point","coordinates":[92.09963,21.44549]}},{"type":"Feature","properties":{"name":"Naikkhongchhari","level":3,"district_name":"Bandarban","division_name":"Chattogram"},"geometry":{"type":"Point","coordinates":[92.17805,21.42756]}},{"type":"Feature","properties":{"name":"Char Bhadrasan","level":3,"district_name":"Faridpur","division_name":"Dhaka"},"geometry":{"type":"Point","coordinates":[89.99298,23.56443]}},{"type":"Feature","properties":{"name":"Bakerganj","level":3,"district_name":"Barishal","division_name":"Barishal"},"geometry":{"type":"Point","coordinates":[90.33222,22.54032]}},{"type":"Feature","properties":{"name":"Hijla","level":3,"district_name":"Barishal","division_name":"Barishal"},"geometry":{"type":"Point","coordinates":[90.55495,22.92612]}},{"type":"Feature","properties":{"name":"Kapasia","level":3,"district_name":"Gazipur","division_name":"Dhaka"},"geometry":{"type":"Point","coordinates":[90.5663,24.11192]}},{"type":"Feature","properties":{"name":"Keraniganj","level":3,"district_name":"Dhaka","division_name":"Dhaka"},"geometry":{"type":"Point","coordinates":[90.38264,23.7005]}},{"type":"Feature","properties":{"name":"Louhajang","level":3,"district_name":"Munshiganj","division_name":"Dhaka"},"geometry":{"type":"Point","coordinates":[90.33574,23.46912]}},{"type":"Feature","properties":{"name":"Sreenagar","level":3,"district_name":"Munshiganj","division_name":"Dhaka"},"geometry":{"type":"Point","coordinates":[90.29209,23.54369]}},{"type":"Feature","properties":{"name":"Bhedarganj","level":3,"district_name":"Shariatpur","division_name":"Dhaka"},"geometry":{"type":"Point","coordinates":[90.44541,23.19676]}},{"type":"Feature","properties":{"name":"Damudya","level":3,"district_name":"Shariatpur","division_name":"Dhaka"},"geometry":{"type":"Point","coordinates":[90.44044,23.13936]}},{"type":"Feature","properties":{"name":"Gosairhat","level":3,"district_name":"Shariatpur","division_name":"Dhaka"},"geometry":{"type":"Point","coordinates":[90.45213,23.0987]}},{"type":"Feature","properties":{"name":"Shyamnagar","level":3,"district_name":"Satkhira","division_name":"Khulna"},"geometry":{"type":"Point","coordinates":[89.10545,22.34299]}},{"type":"Feature","properties":{"name":"Mohanganj","level":3,"district_name":"Netrakona","division_name":"Mymensingh"},"geometry":{"type":"Point","coordinates":[90.97711,24.87559]}},{"type":"Feature","properties":{"name":"Jibannagar","level":3,"district_name":"Chuadanga","division_name":"Khulna"},"geometry":{"type":"Point","coordinates":[88.8213,23.42241]}},{"type":"Feature","properties":{"name":"Kushtia Sadar","level":3,"district_name":"Kushtia","division_name":"Khulna"},"geometry":{"type":"Point","coordinates":[89.06137,23.77317]}},{"type":"Feature","properties":{"name":"Mathbaria","level":3,"district_name":"Pirojpur","division_name":"Barishal"},"geometry":{"type":"Point","coordinates":[89.95927,22.28759]}},{"type":"Feature","properties":{"name":"Kaliganj","level":3,"district_name":"Satkhira","division_name":"Khulna"},"geometry":{"type":"Point","coordinates":[89.0287,22.45793]}},{"type":"Feature","properties":{"name":"Kalaroa","level":3,"district_name":"Satkhira","division_name":"Khulna"},"geometry":{"type":"Point","coordinates":[89.04233,22.85775]}},{"type":"Feature","properties":{"name":"Kalmakanda","level":3,"district_name":"Netrakona","division_name":"Mymensingh"},"geometry":{"type":"Point","coordinates":[90.88826,25.07716]}},{"type":"Feature","properties":{"name":"Betagi","level":3,"district_name":"Barguna","division_name":"Barishal"},"geometry":{"type":"Point","coordinates":[90.15984,22.4108]}},{"type":"Feature","properties":{"name":"Bholahat","level":3,"district_name":"Chapainababganj","division_name":"Rajshahi"},"geometry":{"type":"Point","coordinates":[88.21856,24.94345]}},{"type":"Feature","properties":{"name":"Haripur","level":3,"district_name":"Thakurgaon","division_name":"Rangpur"},"geometry":{"type":"Point","coordinates":[88.12974,25.83136]}},{"type":"Feature","properties":{"name":"Shibganj","level":3,"district_name":"Chapainababganj","division_name":"Rajshahi"},"geometry":{"type":"Point","coordinates":[88.1583,24.68139]}},{"type":"Feature","properties":{"name":"Ajmiriganj","level":3,"district_name":"Habiganj","division_name":"Sylhet"},"geometry":{"type":"Point","coordinates":[91.23617,24.5579]}},{"type":"Feature","properties":{"name":"Baniachong","level":3,"district_name":"Habiganj","division_name":"Sylhet"},"geometry":{"type":"Point","coordinates":[91.36267,24.52592]}},{"type":"Feature","properties":{"name":"Rajapur","level":3,"district_name":"Jhalokati","division_name":"Barishal"},"geometry":{"type":"Point","coordinates":[90.14356,22.57043]}},{"type":"Feature","properties":{"name":"Kendua","level":3,"district_name":"Netrakona","division_name":"Mymensingh"},"geometry":{"type":"Point","coordinates":[90.84542,24.66172]}},{"type":"Feature","properties":{"name":"Kalihati","level":3,"district_name":"Tangail","division_name":"Dhaka"},"geometry":{"type":"Point","coordinates":[89.9252,24.33516]}},{"type":"Feature","properties":{"name":"Rupganj","level":3,"district_name":"Narayanganj","division_name":"Dhaka"},"geometry":{"type":"Point","coordinates":[90.51541,23.72553]}},{"type":"Feature","properties":{"name":"Durgapur","level":3,"district_name":"Netrakona","division_name":"Mymensingh"},"geometry":{"type":"Point","coordinates":[90.67814,25.12383]}},{"type":"Feature","properties":{"name":"Ullapara","level":3,"district_name":"Sirajganj","division_name":"Rajshahi"},"geometry":{"type":"Point","coordinates":[89.56968,24.31331]}},{"type":"Feature","properties":{"name":"Kachua","level":3,"district_name":"Chandpur","division_name":"Chattogram"},"geometry":{"type":"Point","coordinates":[90.89161,23.3429]}},{"type":"Feature","properties":{"name":"Matlab Uttar","level":3,"district_name":"Chandpur","division_name":"Chattogram"},"geometry":{"type":"Point","coordinates":[90.61842,23.43216]}},{"type":"Feature","properties":{"name":"Debidwar","level":3,"district_name":"Cumilla","division_name":"Chattogram"},"geometry":{"type":"Point","coordinates":[90.98744,23.60016]}},{"type":"Feature","properties":{"name":"Nageshwari","level":3,"district_name":"Kurigram","division_name":"Rangpur"},"geometry":{"type":"Point","coordinates":[89.68958,25.9681]}},{"type":"Feature","properties":{"name":"Kalihati","level":3,"district_name":"Tangail","division_name":"Dhaka"},"geometry":{"type":"Point","coordinates":[89.99485,24.38733]}},{"type":"Feature","properties":{"name":"Kotchandpur","level":3,"district_name":"Jhenaidah","division_name":"Khulna"},"geometry":{"type":"Point","coordinates":[89.01148,23.41186]}},{"type":"Feature","properties":{"name":"Nachole","level":3,"district_name":"Chapainababganj","division_name":"Rajshahi"},"geometry":{"type":"Point","coordinates":[88.42352,24.7289]}},{"type":"Feature","properties":{"name":"Saghata","level":3,"district_name":"Gaibandha","division_name":"Rangpur"},"geometry":{"type":"Point","coordinates":[89.57392,25.11736]}},{"type":"Feature","properties":{"name":"Madhupur","level":3,"district_name":"Tangail","division_name":"Dhaka"},"geometry":{"type":"Point","coordinates":[90.02892,24.60716]}},{"type":"Feature","properties":{"name":"Ramganj","level":3,"district_name":"Lakshmipur","division_name":"Chattogram"},"geometry":{"type":"Point","coordinates":[90.85882,23.10268]}},{"type":"Feature","properties":{"name":"Puthia","level":3,"district_name":"Rajshahi","division_name":"Rajshahi"},"geometry":{"type":"Point","coordinates":[88.84214,24.36932]}},{"type":"Feature","properties":{"name":"Baraigram","level":3,"district_name":"Natore","division_name":"Rajshahi"},"geometry":{"type":"Point","coordinates":[89.16931,24.31341]}},{"type":"Feature","properties":{"name":"Ishwardi","level":3,"district_name":"Pabna","division_name":"Rajshahi"},"geometry":{"type":"Point","coordinates":[89.0671,24.1287]}},{"type":"Feature","properties":{"name":"Zakiganj","level":3,"district_name":"Sylhet","division_name":"Sylhet"},"geometry":{"type":"Point","coordinates":[92.36988,24.87746]}},{"type":"Feature","properties":{"name":"Bheramara","level":3,"district_name":"Kushtia","division_name":"Khulna"},"geometry":{"type":"Point","coordinates":[88.99716,24.02023]}},{"type":"Feature","properties":{"name":"Singra","level":3,"district_name":"Natore","division_name":"Rajshahi"},"geometry":{"type":"Point","coordinates":[89.14524,24.5047]}},{"type":"Feature","properties":{"name":"Monpura","level":3,"district_name":"Bhola","division_name":"Barishal"},"geometry":{"type":"Point","coordinates":[90.9719,22.23067]}},{"type":"Feature","properties":{"name":"Barura","level":3,"district_name":"Cumilla","division_name":"Chattogram"},"geometry":{"type":"Point","coordinates":[91.05434,23.37619]}},{"type":"Feature","properties":{"name":"Nawabganj","level":3,"district_name":"Dhaka","division_name":"Dhaka"},"geometry":{"type":"Point","coordinates":[90.16048,23.66052]}},{"type":"Feature","properties":{"name":"Muladi","level":3,"district_name":"Barishal","division_name":"Barishal"},"geometry":{"type":"Point","coordinates":[90.4108,22.91328]}},{"type":"Feature","properties":{"name":"Homna","level":3,"district_name":"Cumilla","division_name":"Chattogram"},"geometry":{"type":"Point","coordinates":[90.7801,23.68247]}},{"type":"Feature","properties":{"name":"Bagha","level":3,"district_name":"Rajshahi","division_name":"Rajshahi"},"geometry":{"type":"Point","coordinates":[88.83609,24.19191]}},{"type":"Feature","properties":{"name":"Mongla","level":3,"district_name":"Bagerhat","division_name":"Khulna"},"geometry":{"type":"Point","coordinates":[89.60401,22.46792]}},{"type":"Feature","properties":{"name":"Sonaimuri","level":3,"district_name":"Noakhali","division_name":"Chattogram"},"geometry":{"type":"Point","coordinates":[91.09771,23.03505]}},{"type":"Feature","properties":{"name":"Naria","level":3,"district_name":"Shariatpur","division_name":"Dhaka"},"geometry":{"type":"Point","coordinates":[90.40681,23.30626]}},{"type":"Feature","properties":{"name":"Muradnagar","level":3,"district_name":"Cumilla","division_name":"Chattogram"},"geometry":{"type":"Point","coordinates":[90.9266,23.64105]}},{"type":"Feature","properties":{"name":"Senbag","level":3,"district_name":"Noakhali","division_name":"Chattogram"},"geometry":{"type":"Point","coordinates":[91.23388,22.98929]}},{"type":"Feature","properties":{"name":"Debhata","level":3,"district_name":"Satkhira","division_name":"Khulna"},"geometry":{"type":"Point","coordinates":[88.99368,22.57953]}},{"type":"Feature","properties":{"name":"Kutubdia","level":3,"district_name":"Cox's Bazar","division_name":"Chattogram"},"geometry":{"type":"Point","coordinates":[91.85553,21.81419]}},{"type":"Feature","properties":{"name":"Kumarkhali","level":3,"district_name":"Kushtia","division_name":"Khulna"},"geometry":{"type":"Point","coordinates":[89.24132,23.86159]}},{"type":"Feature","properties":{"name":"Patgram","level":3,"district_name":"Lalmonirhat","division_name":"Rangpur"},"geometry":{"type":"Point","coordinates":[89.02085,26.34579]}},{"type":"Feature","properties":{"name":"Hakimpur","level":3,"district_name":"Dinajpur","division_name":"Rangpur"},"geometry":{"type":"Point","coordinates":[89.01014,25.28106]}},{"type":"Feature","properties":{"name":"Daudkandi","level":3,"district_name":"Cumilla","division_name":"Chattogram"},"geometry":{"type":"Point","coordinates":[90.71525,23.53735]}},{"type":"Feature","properties":{"name":"Manohardi","level":3,"district_name":"Narsingdi","division_name":"Dhaka"},"geometry":{"type":"Point","coordinates":[90.69757,24.14198]}},{"type":"Feature","properties":{"name":"Chandanaish","level":3,"district_name":"Chattogram","division_name":"Chattogram"},"geometry":{"type":"Point","coordinates":[92.06604,22.16093]}},{"type":"Feature","properties":{"name":"Dupchachia","level":3,"district_name":"Bogura","division_name":"Rajshahi"},"geometry":{"type":"Point","coordinates":[89.17759,24.87402]}},{"type":"Feature","properties":{"name":"Adarsha Sadar","level":3,"district_name":"Cumilla","division_name":"Chattogram"},"geometry":{"type":"Point","coordinates":[91.11822,23.47946]}},{"type":"Feature","properties":{"name":"Saidpur","level":3,"district_name":"Nilphamari","division_name":"Rangpur"},"geometry":{"type":"Point","coordinates":[88.89971,25.77877]}},{"type":"Feature","properties":{"name":"Rangpur Sadar","level":3,"district_name":"Rangpur","division_name":"Rangpur"},"geometry":{"type":"Point","coordinates":[89.1421,25.74263]}},{"type":"Feature","properties":{"name":"Shajahanpur","level":3,"district_name":"Bogura","division_name":"Rajshahi"},"geometry":{"type":"Point","coordinates":[89.38364,24.80588]}},{"type":"Feature","properties":{"name":"Fulchhari","level":3,"district_name":"Gaibandha","division_name":"Rangpur"},"geometry":{"type":"Point","coordinates":[89.6128,25.31607]}},{"type":"Feature","properties":{"name":"Madhyanagar","level":3,"district_name":"Sunamganj","division_name":"Sylhet"},"geometry":{"type":"Point","coordinates":[90.99386,25.04867]}},{"type":"Feature","properties":{"name":"Shantiganj","level":3,"district_name":"Sunamganj","division_name":"Sylhet"},"geometry":{"type":"Point","coordinates":[91.31493,24.93143]}},{"type":"Feature","properties":{"name":"Sylhet Sadar","level":3,"district_name":"Sylhet","division_name":"Sylhet"},"geometry":{"type":"Point","coordinates":[91.86144,24.97394]}},{"type":"Feature","properties":{"name":"Dakkhin Surma","level":3,"district_name":"Sylhet","division_name":"Sylhet"},"geometry":{"type":"Point","coordinates":[91.85656,24.86729]}},{"type":"Feature","properties":{"name":"Osmaninagar","level":3,"district_name":"Sylhet","division_name":"Sylhet"},"geometry":{"type":"Point","coordinates":[91.68482,24.6309]}},{"type":"Feature","properties":{"name":"Gazipur Sadar","level":3,"district_name":"Gazipur","division_name":"Dhaka"},"geometry":{"type":"Point","coordinates":[90.38695,24.12393]}},{"type":"Feature","properties":{"name":"Dhaka North City Corporation","level":3,"district_name":"Dhaka","division_name":"Dhaka"},"geometry":{"type":"Point","coordinates":[90.39709,23.83681]}},{"type":"Feature","properties":{"name":"Subarnachar","level":3,"district_name":"Noakhali","division_name":"Chattogram"},"geometry":{"type":"Point","coordinates":[91.20752,22.60749]}},{"type":"Feature","properties":{"name":"Rangabali","level":3,"district_name":"Patuakhali","division_name":"Barishal"},"geometry":{"type":"Point","coordinates":[90.38583,21.91446]}},{"type":"Feature","properties":{"name":"Mujibnagar","level":3,"district_name":"Meherpur","division_name":"Khulna"},"geometry":{"type":"Point","coordinates":[88.61658,23.67504]}},{"type":"Feature","properties":{"name":"Naldanga","level":3,"district_name":"Natore","division_name":"Rajshahi"},"geometry":{"type":"Point","coordinates":[88.95903,24.5043]}},{"type":"Feature","properties":{"name":"Durgapur","level":3,"district_name":"Rajshahi","division_name":"Rajshahi"},"geometry":{"type":"Point","coordinates":[88.78725,24.48273]}},{"type":"Feature","properties":{"name":"Paba","level":3,"district_name":"Rajshahi","division_name":"Rajshahi"},"geometry":{"type":"Point","coordinates":[88.61429,24.45694]}},{"type":"Feature","properties":{"name":"Manda","level":3,"district_name":"Naogaon","division_name":"Rajshahi"},"geometry":{"type":"Point","coordinates":[88.68423,24.72153]}},{"type":"Feature","properties":{"name":"Mahadebpur","level":3,"district_name":"Naogaon","division_name":"Rajshahi"},"geometry":{"type":"Point","coordinates":[88.7529,24.91253]}},{"type":"Feature","properties":{"name":"Tarash","level":3,"district_name":"Sirajganj","division_name":"Rajshahi"},"geometry":{"type":"Point","coordinates":[89.37045,24.42913]}},{"type":"Feature","properties":{"name":"Kamalnagar","level":3,"district_name":"Lakshmipur","division_name":"Chattogram"},"geometry":{"type":"Point","coordinates":[90.90563,22.75167]}},{"type":"Feature","properties":{"name":"Lalmai","level":3,"district_name":"Cumilla","division_name":"Chattogram"},"geometry":{"type":"Point","coordinates":[91.14679,23.34047]}},{"type":"Feature","properties":{"name":"Bandar","level":3,"district_name":"Narayanganj","division_name":"Dhaka"},"geometry":{"type":"Point","coordinates":[90.54953,23.64724]}},{"type":"Feature","properties":{"name":"Ashashuni","level":3,"district_name":"Satkhira","division_name":"Khulna"},"geometry":{"type":"Point","coordinates":[89.17652,22.52986]}},{"type":"Feature","properties":{"name":"Gazipur Sadar","level":3,"district_name":"Gazipur","division_name":"Dhaka"},"geometry":{"type":"Point","coordinates":[90.48138,23.97665]}},{"type":"Feature","properties":{"name":"Saltha","level":3,"district_name":"Faridpur","division_name":"Dhaka"},"geometry":{"type":"Point","coordinates":[89.75699,23.49571]}},{"type":"Feature","properties":{"name":"Dighalia","level":3,"district_name":"Khulna","division_name":"Khulna"},"geometry":{"type":"Point","coordinates":[89.56713,22.99083]}},{"type":"Feature","properties":{"name":"Dighalia","level":3,"district_name":"Khulna","division_name":"Khulna"},"geometry":{"type":"Point","coordinates":[89.5014,22.8992]}},{"type":"Feature","properties":{"name":"Rupsa","level":3,"district_name":"Khulna","division_name":"Khulna"},"geometry":{"type":"Point","coordinates":[89.60782,22.81903]}},{"type":"Feature","properties":{"name":"Taltali","level":3,"district_name":"Barguna","division_name":"Barishal"},"geometry":{"type":"Point","coordinates":[90.08361,21.98456]}},{"type":"Feature","properties":{"name":"Sonagazi","level":3,"district_name":"Feni","division_name":"Chattogram"},"geometry":{"type":"Point","coordinates":[91.39057,22.84968]}},{"type":"Feature","properties":{"name":"Titas","level":3,"district_name":"Cumilla","division_name":"Chattogram"},"geometry":{"type":"Point","coordinates":[90.7984,23.60767]}},{"type":"Feature","properties":{"name":"Meghna","level":3,"district_name":"Cumilla","division_name":"Chattogram"},"geometry":{"type":"Point","coordinates":[90.70639,23.63554]}},{"type":"Feature","properties":{"name":"Narayanganj Sadar","level":3,"district_name":"Narayanganj","division_name":"Dhaka"},"geometry":{"type":"Point","coordinates":[90.49028,23.6368]}},{"type":"Feature","properties":{"name":"Bera","level":3,"district_name":"Pabna","division_name":"Rajshahi"},"geometry":{"type":"Point","coordinates":[89.68356,23.95518]}},{"type":"Feature","properties":{"name":"Chouhali","level":3,"district_name":"Sirajganj","division_name":"Rajshahi"},"geometry":{"type":"Point","coordinates":[89.72884,24.16289]}},{"type":"Feature","properties":{"name":"Guimara","level":3,"district_name":"Khagrachhari","division_name":"Chattogram"},"geometry":{"type":"Point","coordinates":[91.87484,22.95695]}},{"type":"Feature","properties":{"name":"Pekua","level":3,"district_name":"Cox's Bazar","division_name":"Chattogram"},"geometry":{"type":"Point","coordinates":[91.92085,21.80079]}},{"type":"Feature","properties":{"name":"Sapahar","level":3,"district_name":"Naogaon","division_name":"Rajshahi"},"geometry":{"type":"Point","coordinates":[88.53097,25.14876]}},{"type":"Feature","properties":{"name":"Barishal Sadar (Kotwali)","level":3,"district_name":"Barishal","division_name":"Barishal"},"geometry":{"type":"Point","coordinates":[90.37793,22.68691]}},{"type":"Feature","properties":{"name":"Babuganj","level":3,"district_name":"Barishal","division_name":"Barishal"},"geometry":{"type":"Point","coordinates":[90.30129,22.79804]}},{"type":"Feature","properties":{"name":"Kalukhali","level":3,"district_name":"Rajbari","division_name":"Dhaka"},"geometry":{"type":"Point","coordinates":[89.48608,23.7651]}}],"bbox":[88.12974,20.86846,92.43096,26.49208]}